{"type":"FeatureCollection","name":"Miami Orte","features":[{"type":"Feature","geometry":null,"properties":{"id":2,"global_id":"miami:place:2-link-club-miami","name":"Link Club Miami","aliases":[],"category":"Bars und Clubs","detail_map":"Miami","source_pages":"Link Club","map_source":"Gestohlene Seelen","placement_note":"Keine belastbare Einzelposition; Eintrag bleibt im Katalog","accuracy":"Nur Stadt oder Lore-Teilraum belegt","source_map":"miami-content","source_panel":"Miami","description_preview":"Der Miami-Ableger gehört zur internationalen Link-Club-Kette.","description_full":"Der Miami-Ableger gehört zur internationalen Link-Club-Kette. Die Position ist auf den belegten Stadt- oder Teilraum angenähert; eine hausgenaue Lage und eine weitergehende eigene Fließtextbeschreibung sind aus dem zugeordneten Datenmaterial nicht sicher ableitbar.","description_source":"Link Club","description_kind":"Ortsprofil","description_has_more":true,"detail_plans":[],"alternate_locations":[],"sources":[{"bookId":"sr5-gestohlene-seelen","title":"Gestohlene Seelen","edition":"SR5","citation":"Link Club","purpose":"description"}],"map_sources":[],"editions":["SR5"],"edition_descriptions":{"SR5":{"kind":"Ortsprofil","preview":"Der Miami-Ableger gehört zur internationalen Link-Club-Kette.","full":"Der Miami-Ableger gehört zur internationalen Link-Club-Kette. Die Position ist auf den belegten Stadt- oder Teilraum angenähert; eine hausgenaue Lage und eine weitergehende eigene Fließtextbeschreibung sind aus dem zugeordneten Datenmaterial nicht sicher ableitbar.","hasMore":true,"hasExcerpt":true,"sources":[{"bookId":"sr5-gestohlene-seelen","title":"Gestohlene Seelen","edition":"SR5","citation":"Link Club","purpose":"description"}]}}}},{"type":"Feature","geometry":{"type":"Point","coordinates":[-80.1918,25.7617]},"properties":{"id":1,"global_id":"miami:place:1-miami-lore-raum","name":"Miami Lore-Raum","aliases":[],"category":"Bezirke","detail_map":"Miami Lore-Raum","source_pages":"Stadt- oder Regionalkapitel","map_source":"Vice","placement_note":"Geografischer Bezugspunkt des Lore-Distrikts Miami Lore-Raum","accuracy":"Lore-Bezirkszentrum; Grenzpolygon noch nicht georeferenziert","source_map":"miami-content","source_panel":"Miami Lore-Raum","description_preview":"Miami ist ein Hafen-, Tourismus-, Schmuggel- und Unterweltzentrum der Karibischen Liga.","description_full":"Miami ist ein Hafen-, Tourismus-, Schmuggel- und Unterweltzentrum der Karibischen Liga. Die Position ist auf den belegten Stadt- oder Teilraum angenähert; eine hausgenaue Lage und eine weitergehende eigene Fließtextbeschreibung sind aus dem zugeordneten Datenmaterial nicht sicher ableitbar.","description_source":"Stadt- oder Regionalkapitel","description_kind":"Ortsprofil","description_has_more":true,"detail_plans":[],"alternate_locations":[],"sources":[{"bookId":"sr4-vice","title":"Vice","edition":"SR4","citation":"Stadt- oder Regionalkapitel","purpose":"description"}],"map_sources":[],"editions":["SR4"],"edition_descriptions":{"SR4":{"kind":"Ortsprofil","preview":"Miami ist ein Hafen-, Tourismus-, Schmuggel- und Unterweltzentrum der Karibischen Liga.","full":"Miami ist ein Hafen-, Tourismus-, Schmuggel- und Unterweltzentrum der Karibischen Liga. Die Position ist auf den belegten Stadt- oder Teilraum angenähert; eine hausgenaue Lage und eine weitergehende eigene Fließtextbeschreibung sind aus dem zugeordneten Datenmaterial nicht sicher ableitbar.","hasMore":true,"hasExcerpt":true,"sources":[{"bookId":"sr4-vice","title":"Vice","edition":"SR4","citation":"Stadt- oder Regionalkapitel","purpose":"description"}]}}}}]}
