{"type":"FeatureCollection","name":"Tenochtitlán Orte","features":[{"type":"Feature","geometry":null,"properties":{"id":7,"global_id":"tenochtitlan:place:7-aztechnology-world-headquarters","name":"Aztechnology World Headquarters","aliases":[],"category":"Konzerne","detail_map":"Corporate Core Tenochtitlán","source_pages":"Aztechnology World Headquarters","map_source":"Jet Set","placement_note":"Keine belastbare Einzelposition; Eintrag bleibt im Katalog","accuracy":"Nur Stadt oder Lore-Teilraum belegt","source_map":"tenochtitlan-content","source_panel":"Corporate Core Tenochtitlán","description_preview":"Das Welt-Hauptquartier bündelt die Macht des Megakonzerns.","description_full":"Das Welt-Hauptquartier bündelt die Macht des Megakonzerns. Die Position ist auf den belegten Stadt- oder Teilraum angenähert; eine hausgenaue Lage und eine weitergehende eigene Fließtextbeschreibung sind aus dem zugeordneten Datenmaterial nicht sicher ableitbar.","description_source":"Aztechnology World Headquarters","description_kind":"Ortsprofil","description_has_more":true,"detail_plans":[],"alternate_locations":[],"sources":[{"bookId":"sr4-jet-set","title":"Jet Set","edition":"SR4","citation":"Aztechnology World Headquarters","purpose":"description"}],"map_sources":[],"editions":["SR4"],"edition_descriptions":{"SR4":{"kind":"Ortsprofil","preview":"Das Welt-Hauptquartier bündelt die Macht des Megakonzerns.","full":"Das Welt-Hauptquartier bündelt die Macht des Megakonzerns. Die Position ist auf den belegten Stadt- oder Teilraum angenähert; eine hausgenaue Lage und eine weitergehende eigene Fließtextbeschreibung sind aus dem zugeordneten Datenmaterial nicht sicher ableitbar.","hasMore":true,"hasExcerpt":true,"sources":[{"bookId":"sr4-jet-set","title":"Jet Set","edition":"SR4","citation":"Aztechnology World Headquarters","purpose":"description"}]}}}},{"type":"Feature","geometry":null,"properties":{"id":4,"global_id":"tenochtitlan:place:4-cafe-de-montevideo","name":"Café de Montevideo","aliases":[],"category":"Restaurants","detail_map":"Tenochtitlán","source_pages":"Café de Montevideo","map_source":"Aztlan","placement_note":"Keine belastbare Einzelposition; Eintrag bleibt im Katalog","accuracy":"Nur Stadt oder Lore-Teilraum belegt","source_map":"tenochtitlan-content","source_panel":"Tenochtitlán","description_preview":"Das Café an der Avenida Insurgentes Norte ist vor allem ein sozialer Treffpunkt.","description_full":"Das Café an der Avenida Insurgentes Norte ist vor allem ein sozialer Treffpunkt. Die Position ist auf den belegten Stadt- oder Teilraum angenähert; eine hausgenaue Lage und eine weitergehende eigene Fließtextbeschreibung sind aus dem zugeordneten Datenmaterial nicht sicher ableitbar.","description_source":"Café de Montevideo","description_kind":"Ortsprofil","description_has_more":true,"detail_plans":[],"alternate_locations":[],"sources":[{"bookId":"sr2-aztlan","title":"Aztlan","edition":"SR2","citation":"Café de Montevideo","purpose":"description"}],"map_sources":[],"editions":["SR2"],"edition_descriptions":{"SR2":{"kind":"Ortsprofil","preview":"Das Café an der Avenida Insurgentes Norte ist vor allem ein sozialer Treffpunkt.","full":"Das Café an der Avenida Insurgentes Norte ist vor allem ein sozialer Treffpunkt. Die Position ist auf den belegten Stadt- oder Teilraum angenähert; eine hausgenaue Lage und eine weitergehende eigene Fließtextbeschreibung sind aus dem zugeordneten Datenmaterial nicht sicher ableitbar.","hasMore":true,"hasExcerpt":true,"sources":[{"bookId":"sr2-aztlan","title":"Aztlan","edition":"SR2","citation":"Café de Montevideo","purpose":"description"}]}}}},{"type":"Feature","geometry":null,"properties":{"id":5,"global_id":"tenochtitlan:place:5-cero-cero","name":"Cero Cero","aliases":[],"category":"Bars und Clubs","detail_map":"Tenochtitlán","source_pages":"Cero Cero","map_source":"Aztlan","placement_note":"Keine belastbare Einzelposition; Eintrag bleibt im Katalog","accuracy":"Nur Stadt oder Lore-Teilraum belegt","source_map":"tenochtitlan-content","source_panel":"Tenochtitlán","description_preview":"Der Nachtclub liegt im Camino Real Hotel.","description_full":"Der Nachtclub liegt im Camino Real Hotel. Die Position ist auf den belegten Stadt- oder Teilraum angenähert; eine hausgenaue Lage und eine weitergehende eigene Fließtextbeschreibung sind aus dem zugeordneten Datenmaterial nicht sicher ableitbar.","description_source":"Cero Cero","description_kind":"Ortsprofil","description_has_more":true,"detail_plans":[],"alternate_locations":[],"sources":[{"bookId":"sr2-aztlan","title":"Aztlan","edition":"SR2","citation":"Cero Cero","purpose":"description"}],"map_sources":[],"editions":["SR2"],"edition_descriptions":{"SR2":{"kind":"Ortsprofil","preview":"Der Nachtclub liegt im Camino Real Hotel.","full":"Der Nachtclub liegt im Camino Real Hotel. Die Position ist auf den belegten Stadt- oder Teilraum angenähert; eine hausgenaue Lage und eine weitergehende eigene Fließtextbeschreibung sind aus dem zugeordneten Datenmaterial nicht sicher ableitbar.","hasMore":true,"hasExcerpt":true,"sources":[{"bookId":"sr2-aztlan","title":"Aztlan","edition":"SR2","citation":"Cero Cero","purpose":"description"}]}}}},{"type":"Feature","geometry":{"type":"Point","coordinates":[-99.141,19.433]},"properties":{"id":1,"global_id":"tenochtitlan:place:1-corporate-core-tenochtitlan","name":"Corporate Core Tenochtitlán","aliases":[],"category":"Bezirke","detail_map":"Corporate Core Tenochtitlán","source_pages":"Communications","map_source":"Aztlan","placement_note":"Geografischer Bezugspunkt des Lore-Distrikts Corporate Core Tenochtitlán","accuracy":"Lore-Bezirkszentrum; Grenzpolygon noch nicht georeferenziert","source_map":"tenochtitlan-content","source_panel":"Corporate Core Tenochtitlán","description_preview":"Der Konzernkern ist besonders stark vernetzt, kontrolliert und von Aztechnology geprägt.","description_full":"Der Konzernkern ist besonders stark vernetzt, kontrolliert und von Aztechnology geprägt. Die Position ist auf den belegten Stadt- oder Teilraum angenähert; eine hausgenaue Lage und eine weitergehende eigene Fließtextbeschreibung sind aus dem zugeordneten Datenmaterial nicht sicher ableitbar.","description_source":"Communications","description_kind":"Ortsprofil","description_has_more":true,"detail_plans":[],"alternate_locations":[],"sources":[{"bookId":"sr2-aztlan","title":"Aztlan","edition":"SR2","citation":"Communications","purpose":"description"}],"map_sources":[],"editions":["SR2"],"edition_descriptions":{"SR2":{"kind":"Ortsprofil","preview":"Der Konzernkern ist besonders stark vernetzt, kontrolliert und von Aztechnology geprägt.","full":"Der Konzernkern ist besonders stark vernetzt, kontrolliert und von Aztechnology geprägt. Die Position ist auf den belegten Stadt- oder Teilraum angenähert; eine hausgenaue Lage und eine weitergehende eigene Fließtextbeschreibung sind aus dem zugeordneten Datenmaterial nicht sicher ableitbar.","hasMore":true,"hasExcerpt":true,"sources":[{"bookId":"sr2-aztlan","title":"Aztlan","edition":"SR2","citation":"Communications","purpose":"description"}]}}}},{"type":"Feature","geometry":null,"properties":{"id":10,"global_id":"tenochtitlan:place:10-link-club-tenochtitlan","name":"Link Club Tenochtitlán","aliases":[],"category":"Bars und Clubs","detail_map":"Tenochtitlán","source_pages":"Link Club","map_source":"Gestohlene Seelen","placement_note":"Keine belastbare Einzelposition; Eintrag bleibt im Katalog","accuracy":"Nur Stadt oder Lore-Teilraum belegt","source_map":"tenochtitlan-content","source_panel":"Tenochtitlán","description_preview":"Der lokale Ableger gehört zur internationalen Link-Club-Kette.","description_full":"Der lokale Ableger gehört zur internationalen Link-Club-Kette. Die Position ist auf den belegten Stadt- oder Teilraum angenähert; eine hausgenaue Lage und eine weitergehende eigene Fließtextbeschreibung sind aus dem zugeordneten Datenmaterial nicht sicher ableitbar.","description_source":"Link Club","description_kind":"Ortsprofil","description_has_more":true,"detail_plans":[],"alternate_locations":[],"sources":[{"bookId":"sr5-gestohlene-seelen","title":"Gestohlene Seelen","edition":"SR5","citation":"Link Club","purpose":"description"}],"map_sources":[],"editions":["SR5"],"edition_descriptions":{"SR5":{"kind":"Ortsprofil","preview":"Der lokale Ableger gehört zur internationalen Link-Club-Kette.","full":"Der lokale Ableger gehört zur internationalen Link-Club-Kette. Die Position ist auf den belegten Stadt- oder Teilraum angenähert; eine hausgenaue Lage und eine weitergehende eigene Fließtextbeschreibung sind aus dem zugeordneten Datenmaterial nicht sicher ableitbar.","hasMore":true,"hasExcerpt":true,"sources":[{"bookId":"sr5-gestohlene-seelen","title":"Gestohlene Seelen","edition":"SR5","citation":"Link Club","purpose":"description"}]}}}},{"type":"Feature","geometry":{"type":"Point","coordinates":[-99.131,19.433]},"properties":{"id":6,"global_id":"tenochtitlan:place:6-national-palace","name":"National Palace","aliases":[],"category":"Behörden","detail_map":"Zócalo","source_pages":"National Palace","map_source":"Aztlan","placement_note":"Erhaltener geographischer Bezugspunkt","accuracy":"Geographischer Bezugspunkt","source_map":"tenochtitlan-content","source_panel":"Zócalo","description_preview":"Der große Bau am Zócalo ist Regierungssitz und starkes Machtsymbol.","description_full":"Der große Bau am Zócalo ist Regierungssitz und starkes Machtsymbol. Die Position folgt einem erhaltenen heutigen Bezugspunkt.","description_source":"National Palace","description_kind":"Ortsprofil","description_has_more":true,"detail_plans":[],"alternate_locations":[],"sources":[{"bookId":"sr2-aztlan","title":"Aztlan","edition":"SR2","citation":"National Palace","purpose":"description"}],"map_sources":[],"editions":["SR2"],"edition_descriptions":{"SR2":{"kind":"Ortsprofil","preview":"Der große Bau am Zócalo ist Regierungssitz und starkes Machtsymbol.","full":"Der große Bau am Zócalo ist Regierungssitz und starkes Machtsymbol. Die Position folgt einem erhaltenen heutigen Bezugspunkt.","hasMore":true,"hasExcerpt":true,"sources":[{"bookId":"sr2-aztlan","title":"Aztlan","edition":"SR2","citation":"National Palace","purpose":"description"}]}}}},{"type":"Feature","geometry":null,"properties":{"id":11,"global_id":"tenochtitlan:place:11-taco-temple","name":"Taco Temple","aliases":[],"category":"Restaurants","detail_map":"Tenochtitlán","source_pages":"Taco Temple","map_source":"Book of the Lost","placement_note":"Keine belastbare Einzelposition; Eintrag bleibt im Katalog","accuracy":"Nur Stadt oder Lore-Teilraum belegt","source_map":"tenochtitlan-content","source_panel":"Tenochtitlán","description_preview":"Taco Temple ist ein im späteren Quellenstand belegter Gastronomiestandort.","description_full":"Taco Temple ist ein im späteren Quellenstand belegter Gastronomiestandort. Die Position ist auf den belegten Stadt- oder Teilraum angenähert; eine hausgenaue Lage und eine weitergehende eigene Fließtextbeschreibung sind aus dem zugeordneten Datenmaterial nicht sicher ableitbar.","description_source":"Taco Temple","description_kind":"Ortsprofil","description_has_more":true,"detail_plans":[],"alternate_locations":[],"sources":[{"bookId":"sr5-book-of-the-lost","title":"Book of the Lost","edition":"SR5","citation":"Taco Temple","purpose":"description"}],"map_sources":[],"editions":["SR5"],"edition_descriptions":{"SR5":{"kind":"Ortsprofil","preview":"Taco Temple ist ein im späteren Quellenstand belegter Gastronomiestandort.","full":"Taco Temple ist ein im späteren Quellenstand belegter Gastronomiestandort. Die Position ist auf den belegten Stadt- oder Teilraum angenähert; eine hausgenaue Lage und eine weitergehende eigene Fließtextbeschreibung sind aus dem zugeordneten Datenmaterial nicht sicher ableitbar.","hasMore":true,"hasExcerpt":true,"sources":[{"bookId":"sr5-book-of-the-lost","title":"Book of the Lost","edition":"SR5","citation":"Taco Temple","purpose":"description"}]}}}},{"type":"Feature","geometry":null,"properties":{"id":8,"global_id":"tenochtitlan:place:8-teocallis","name":"Teocallis","aliases":[],"category":"Religion und Magie","detail_map":"Tenochtitlán","source_pages":"Teocallis, House of the Gods","map_source":"Shadows of Latin America v1.2","placement_note":"Keine belastbare Einzelposition; Eintrag bleibt im Katalog","accuracy":"Nur Stadt oder Lore-Teilraum belegt","source_map":"tenochtitlan-content","source_panel":"Tenochtitlán","description_preview":"Die Tempel prägen Skyline, Straßenbild und religiöse Machtordnung.","description_full":"Die Tempel prägen Skyline, Straßenbild und religiöse Machtordnung. Die Position ist auf den belegten Stadt- oder Teilraum angenähert; eine hausgenaue Lage und eine weitergehende eigene Fließtextbeschreibung sind aus dem zugeordneten Datenmaterial nicht sicher ableitbar.","description_source":"Teocallis, House of the Gods","description_kind":"Ortsprofil","description_has_more":true,"detail_plans":[],"alternate_locations":[],"sources":[{"bookId":"sr3-shadows-of-latin-america-v1-2","title":"Shadows of Latin America v1.2","edition":"SR3","citation":"Teocallis, House of the Gods","purpose":"description"}],"map_sources":[],"editions":["SR3"],"edition_descriptions":{"SR3":{"kind":"Ortsprofil","preview":"Die Tempel prägen Skyline, Straßenbild und religiöse Machtordnung.","full":"Die Tempel prägen Skyline, Straßenbild und religiöse Machtordnung. Die Position ist auf den belegten Stadt- oder Teilraum angenähert; eine hausgenaue Lage und eine weitergehende eigene Fließtextbeschreibung sind aus dem zugeordneten Datenmaterial nicht sicher ableitbar.","hasMore":true,"hasExcerpt":true,"sources":[{"bookId":"sr3-shadows-of-latin-america-v1-2","title":"Shadows of Latin America v1.2","edition":"SR3","citation":"Teocallis, House of the Gods","purpose":"description"}]}}}},{"type":"Feature","geometry":null,"properties":{"id":9,"global_id":"tenochtitlan:place:9-the-pedregal","name":"The Pedregal","aliases":[],"category":"Sonstige Spots","detail_map":"University District","source_pages":"The Pedegral","map_source":"Aztlan","placement_note":"Keine belastbare Einzelposition; Eintrag bleibt im Katalog","accuracy":"Nur Stadt oder Lore-Teilraum belegt","source_map":"tenochtitlan-content","source_panel":"University District","description_preview":"Der Pedregal liegt westlich des Universitätsbezirks und ist ein besonderer lokaler Schauplatz.","description_full":"Der Pedregal liegt westlich des Universitätsbezirks und ist ein besonderer lokaler Schauplatz. Die Position ist auf den belegten Stadt- oder Teilraum angenähert; eine hausgenaue Lage und eine weitergehende eigene Fließtextbeschreibung sind aus dem zugeordneten Datenmaterial nicht sicher ableitbar.","description_source":"The Pedegral","description_kind":"Ortsprofil","description_has_more":true,"detail_plans":[],"alternate_locations":[],"sources":[{"bookId":"sr2-aztlan","title":"Aztlan","edition":"SR2","citation":"The Pedegral","purpose":"description"}],"map_sources":[],"editions":["SR2"],"edition_descriptions":{"SR2":{"kind":"Ortsprofil","preview":"Der Pedregal liegt westlich des Universitätsbezirks und ist ein besonderer lokaler Schauplatz.","full":"Der Pedregal liegt westlich des Universitätsbezirks und ist ein besonderer lokaler Schauplatz. Die Position ist auf den belegten Stadt- oder Teilraum angenähert; eine hausgenaue Lage und eine weitergehende eigene Fließtextbeschreibung sind aus dem zugeordneten Datenmaterial nicht sicher ableitbar.","hasMore":true,"hasExcerpt":true,"sources":[{"bookId":"sr2-aztlan","title":"Aztlan","edition":"SR2","citation":"The Pedegral","purpose":"description"}]}}}},{"type":"Feature","geometry":{"type":"Point","coordinates":[-99.188,19.333]},"properties":{"id":2,"global_id":"tenochtitlan:place:2-university-district","name":"University District","aliases":[],"category":"Bezirke","detail_map":"University District","source_pages":"The Pedegral","map_source":"Aztlan","placement_note":"Geografischer Bezugspunkt des Lore-Distrikts University District","accuracy":"Lore-Bezirkszentrum; Grenzpolygon noch nicht georeferenziert","source_map":"tenochtitlan-content","source_panel":"University District","description_preview":"Der Universitätsbezirk ist Bildungsraum und Bezugspunkt mehrerer lokaler Schauplätze.","description_full":"Der Universitätsbezirk ist Bildungsraum und Bezugspunkt mehrerer lokaler Schauplätze. Die Position ist auf den belegten Stadt- oder Teilraum angenähert; eine hausgenaue Lage und eine weitergehende eigene Fließtextbeschreibung sind aus dem zugeordneten Datenmaterial nicht sicher ableitbar.","description_source":"The Pedegral","description_kind":"Ortsprofil","description_has_more":true,"detail_plans":[],"alternate_locations":[],"sources":[{"bookId":"sr2-aztlan","title":"Aztlan","edition":"SR2","citation":"The Pedegral","purpose":"description"}],"map_sources":[],"editions":["SR2"],"edition_descriptions":{"SR2":{"kind":"Ortsprofil","preview":"Der Universitätsbezirk ist Bildungsraum und Bezugspunkt mehrerer lokaler Schauplätze.","full":"Der Universitätsbezirk ist Bildungsraum und Bezugspunkt mehrerer lokaler Schauplätze. Die Position ist auf den belegten Stadt- oder Teilraum angenähert; eine hausgenaue Lage und eine weitergehende eigene Fließtextbeschreibung sind aus dem zugeordneten Datenmaterial nicht sicher ableitbar.","hasMore":true,"hasExcerpt":true,"sources":[{"bookId":"sr2-aztlan","title":"Aztlan","edition":"SR2","citation":"The Pedegral","purpose":"description"}]}}}},{"type":"Feature","geometry":{"type":"Point","coordinates":[-99.1332,19.4326]},"properties":{"id":3,"global_id":"tenochtitlan:place:3-zocalo","name":"Zócalo","aliases":[],"category":"Bezirke","detail_map":"Zócalo","source_pages":"National Palace","map_source":"Aztlan","placement_note":"Geografischer Bezugspunkt des Lore-Distrikts Zócalo","accuracy":"Lore-Bezirkszentrum; Grenzpolygon noch nicht georeferenziert","source_map":"tenochtitlan-content","source_panel":"Zócalo","description_preview":"Der Zócalo ist politisches, zeremonielles und symbolisches Zentrum.","description_full":"Der Zócalo ist politisches, zeremonielles und symbolisches Zentrum. Die Position ist auf den belegten Stadt- oder Teilraum angenähert; eine hausgenaue Lage und eine weitergehende eigene Fließtextbeschreibung sind aus dem zugeordneten Datenmaterial nicht sicher ableitbar.","description_source":"National Palace","description_kind":"Ortsprofil","description_has_more":true,"detail_plans":[],"alternate_locations":[],"sources":[{"bookId":"sr2-aztlan","title":"Aztlan","edition":"SR2","citation":"National Palace","purpose":"description"}],"map_sources":[],"editions":["SR2"],"edition_descriptions":{"SR2":{"kind":"Ortsprofil","preview":"Der Zócalo ist politisches, zeremonielles und symbolisches Zentrum.","full":"Der Zócalo ist politisches, zeremonielles und symbolisches Zentrum. Die Position ist auf den belegten Stadt- oder Teilraum angenähert; eine hausgenaue Lage und eine weitergehende eigene Fließtextbeschreibung sind aus dem zugeordneten Datenmaterial nicht sicher ableitbar.","hasMore":true,"hasExcerpt":true,"sources":[{"bookId":"sr2-aztlan","title":"Aztlan","edition":"SR2","citation":"National Palace","purpose":"description"}]}}}}]}
