{"type":"FeatureCollection","name":"Manaus Orte","features":[{"type":"Feature","geometry":{"type":"Point","coordinates":[-60.0217,-3.119]},"properties":{"id":1,"global_id":"manaus:place:1-manaus-lore-raum","name":"Manaus Lore-Raum","aliases":[],"category":"Bezirke","detail_map":"Manaus Lore-Raum","source_pages":"Stadt- oder Regionalkapitel","map_source":"Shadows of Latin America v1.2","placement_note":"Geografischer Bezugspunkt des Lore-Distrikts Manaus Lore-Raum","accuracy":"Lore-Bezirkszentrum; Grenzpolygon noch nicht georeferenziert","source_map":"manaus-content","source_panel":"Manaus Lore-Raum","description_preview":"Manaus ist ein amazonischer Fluss-, Industrie- und Logistikknoten am Rand dichter erwachter Wildnis.","description_full":"Manaus ist ein amazonischer Fluss-, Industrie- und Logistikknoten am Rand dichter erwachter Wildnis. Die Position ist auf den belegten Stadt- oder Teilraum angenähert; eine hausgenaue Lage und eine weitergehende eigene Fließtextbeschreibung sind aus dem zugeordneten Datenmaterial nicht sicher ableitbar.","description_source":"Stadt- oder Regionalkapitel","description_kind":"Ortsprofil","description_has_more":true,"detail_plans":[],"alternate_locations":[],"sources":[{"bookId":"sr3-shadows-of-latin-america-v1-2","title":"Shadows of Latin America v1.2","edition":"SR3","citation":"Stadt- oder Regionalkapitel","purpose":"description"}],"map_sources":[],"editions":["SR3"],"edition_descriptions":{"SR3":{"kind":"Ortsprofil","preview":"Manaus ist ein amazonischer Fluss-, Industrie- und Logistikknoten am Rand dichter erwachter Wildnis.","full":"Manaus ist ein amazonischer Fluss-, Industrie- und Logistikknoten am Rand dichter erwachter Wildnis. Die Position ist auf den belegten Stadt- oder Teilraum angenähert; eine hausgenaue Lage und eine weitergehende eigene Fließtextbeschreibung sind aus dem zugeordneten Datenmaterial nicht sicher ableitbar.","hasMore":true,"hasExcerpt":true,"sources":[{"bookId":"sr3-shadows-of-latin-america-v1-2","title":"Shadows of Latin America v1.2","edition":"SR3","citation":"Stadt- oder Regionalkapitel","purpose":"description"}]}}}}]}
