{"type":"FeatureCollection","name":"Karlsruhe Orte","features":[{"type":"Feature","geometry":null,"properties":{"id":4,"global_id":"karlsruhe:place:4-ahab","name":"Ahab","aliases":[],"category":"Sonstige Spots","detail_map":"Karlsruhe","source_pages":"Ahab","map_source":"Datapuls Karlsruhe","placement_note":"Keine belastbare Einzelposition; Eintrag bleibt im Katalog","accuracy":"Nur Stadt oder Lore-Teilraum belegt","source_map":"karlsruhe-content","source_panel":"Karlsruhe","description_preview":"Ahab ist ein im Karlsruher Stadtquellenband benannter Schauplatz.","description_full":"Ahab ist ein im Karlsruher Stadtquellenband benannter Schauplatz. Die Position ist auf den belegten Stadt- oder Teilraum angenähert; eine hausgenaue Lage und eine weitergehende eigene Fließtextbeschreibung sind aus dem zugeordneten Datenmaterial nicht sicher ableitbar.","description_source":"Ahab","description_kind":"Ortsprofil","description_has_more":true,"detail_plans":[],"alternate_locations":[],"sources":[{"bookId":"sr5-datapuls-karlsruhe","title":"Datapuls Karlsruhe","edition":"SR5","citation":"Ahab","purpose":"description"}],"map_sources":[],"editions":["SR5"],"edition_descriptions":{"SR5":{"kind":"Ortsprofil","preview":"Ahab ist ein im Karlsruher Stadtquellenband benannter Schauplatz.","full":"Ahab ist ein im Karlsruher Stadtquellenband benannter Schauplatz. Die Position ist auf den belegten Stadt- oder Teilraum angenähert; eine hausgenaue Lage und eine weitergehende eigene Fließtextbeschreibung sind aus dem zugeordneten Datenmaterial nicht sicher ableitbar.","hasMore":true,"hasExcerpt":true,"sources":[{"bookId":"sr5-datapuls-karlsruhe","title":"Datapuls Karlsruhe","edition":"SR5","citation":"Ahab","purpose":"description"}]}}}},{"type":"Feature","geometry":{"type":"Point","coordinates":[8.418,49.008]},"properties":{"id":1,"global_id":"karlsruhe:place:1-c-ring","name":"C-Ring","aliases":[],"category":"Bezirke","detail_map":"C-Ring","source_pages":"Der C-Ring","map_source":"Datapuls Karlsruhe","placement_note":"Geografischer Bezugspunkt des Lore-Distrikts C-Ring","accuracy":"Lore-Bezirkszentrum; Grenzpolygon noch nicht georeferenziert","source_map":"karlsruhe-content","source_panel":"C-Ring","description_preview":"Der C-Ring ist ein im Quellenband benannter, stark kontrollierter innerer Stadtbereich.","description_full":"Der C-Ring ist ein im Quellenband benannter, stark kontrollierter innerer Stadtbereich. Die Position ist auf den belegten Stadt- oder Teilraum angenähert; eine hausgenaue Lage und eine weitergehende eigene Fließtextbeschreibung sind aus dem zugeordneten Datenmaterial nicht sicher ableitbar.","description_source":"Der C-Ring","description_kind":"Ortsprofil","description_has_more":true,"detail_plans":[],"alternate_locations":[],"sources":[{"bookId":"sr5-datapuls-karlsruhe","title":"Datapuls Karlsruhe","edition":"SR5","citation":"Der C-Ring","purpose":"description"}],"map_sources":[],"editions":["SR5"],"edition_descriptions":{"SR5":{"kind":"Ortsprofil","preview":"Der C-Ring ist ein im Quellenband benannter, stark kontrollierter innerer Stadtbereich.","full":"Der C-Ring ist ein im Quellenband benannter, stark kontrollierter innerer Stadtbereich. Die Position ist auf den belegten Stadt- oder Teilraum angenähert; eine hausgenaue Lage und eine weitergehende eigene Fließtextbeschreibung sind aus dem zugeordneten Datenmaterial nicht sicher ableitbar.","hasMore":true,"hasExcerpt":true,"sources":[{"bookId":"sr5-datapuls-karlsruhe","title":"Datapuls Karlsruhe","edition":"SR5","citation":"Der C-Ring","purpose":"description"}]}}}},{"type":"Feature","geometry":{"type":"Point","coordinates":[8.389,49.026]},"properties":{"id":2,"global_id":"karlsruhe:place:2-die-kasernen","name":"Die Kasernen","aliases":[],"category":"Bezirke","detail_map":"Die Kasernen","source_pages":"Die Kasernen","map_source":"Datapuls Karlsruhe","placement_note":"Geografischer Bezugspunkt des Lore-Distrikts Die Kasernen","accuracy":"Lore-Bezirkszentrum; Grenzpolygon noch nicht georeferenziert","source_map":"karlsruhe-content","source_panel":"Die Kasernen","description_preview":"Die Kasernen bündeln militärische Anlagen und die daran angeschlossene Infrastruktur.","description_full":"Die Kasernen bündeln militärische Anlagen und die daran angeschlossene Infrastruktur. Die Position ist auf den belegten Stadt- oder Teilraum angenähert; eine hausgenaue Lage und eine weitergehende eigene Fließtextbeschreibung sind aus dem zugeordneten Datenmaterial nicht sicher ableitbar.","description_source":"Die Kasernen","description_kind":"Ortsprofil","description_has_more":true,"detail_plans":[],"alternate_locations":[],"sources":[{"bookId":"sr5-datapuls-karlsruhe","title":"Datapuls Karlsruhe","edition":"SR5","citation":"Die Kasernen","purpose":"description"}],"map_sources":[],"editions":["SR5"],"edition_descriptions":{"SR5":{"kind":"Ortsprofil","preview":"Die Kasernen bündeln militärische Anlagen und die daran angeschlossene Infrastruktur.","full":"Die Kasernen bündeln militärische Anlagen und die daran angeschlossene Infrastruktur. Die Position ist auf den belegten Stadt- oder Teilraum angenähert; eine hausgenaue Lage und eine weitergehende eigene Fließtextbeschreibung sind aus dem zugeordneten Datenmaterial nicht sicher ableitbar.","hasMore":true,"hasExcerpt":true,"sources":[{"bookId":"sr5-datapuls-karlsruhe","title":"Datapuls Karlsruhe","edition":"SR5","citation":"Die Kasernen","purpose":"description"}]}}}},{"type":"Feature","geometry":{"type":"Point","coordinates":[8.365,49.006]},"properties":{"id":3,"global_id":"karlsruhe:place:3-umliegende-stadtviertel","name":"Umliegende Stadtviertel","aliases":[],"category":"Bezirke","detail_map":"Umliegende Stadtviertel","source_pages":"Umliegende Stadtviertel","map_source":"Datapuls Karlsruhe","placement_note":"Geografischer Bezugspunkt des Lore-Distrikts Umliegende Stadtviertel","accuracy":"Lore-Bezirkszentrum; Grenzpolygon noch nicht georeferenziert","source_map":"karlsruhe-content","source_panel":"Umliegende Stadtviertel","description_preview":"Die umliegenden Viertel bilden den weniger militärisch verdichteten Stadtraum außerhalb der Kernanlagen.","description_full":"Die umliegenden Viertel bilden den weniger militärisch verdichteten Stadtraum außerhalb der Kernanlagen. Die Position ist auf den belegten Stadt- oder Teilraum angenähert; eine hausgenaue Lage und eine weitergehende eigene Fließtextbeschreibung sind aus dem zugeordneten Datenmaterial nicht sicher ableitbar.","description_source":"Umliegende Stadtviertel","description_kind":"Ortsprofil","description_has_more":true,"detail_plans":[],"alternate_locations":[],"sources":[{"bookId":"sr5-datapuls-karlsruhe","title":"Datapuls Karlsruhe","edition":"SR5","citation":"Umliegende Stadtviertel","purpose":"description"}],"map_sources":[],"editions":["SR5"],"edition_descriptions":{"SR5":{"kind":"Ortsprofil","preview":"Die umliegenden Viertel bilden den weniger militärisch verdichteten Stadtraum außerhalb der Kernanlagen.","full":"Die umliegenden Viertel bilden den weniger militärisch verdichteten Stadtraum außerhalb der Kernanlagen. Die Position ist auf den belegten Stadt- oder Teilraum angenähert; eine hausgenaue Lage und eine weitergehende eigene Fließtextbeschreibung sind aus dem zugeordneten Datenmaterial nicht sicher ableitbar.","hasMore":true,"hasExcerpt":true,"sources":[{"bookId":"sr5-datapuls-karlsruhe","title":"Datapuls Karlsruhe","edition":"SR5","citation":"Umliegende Stadtviertel","purpose":"description"}]}}}}]}
