{"type":"FeatureCollection","name":"Karlsruhe – geprüfte zusätzliche Quellenorte","features":[{"type":"Feature","geometry":null,"properties":{"id":5,"global_id":"karlsruhe:source-place:bezirk-riisselsheim","name":"Bezirk Riisselsheim","aliases":[],"category":"Bezirke und Lore-Gebiete","detail_map":"Karlsruhe","source_pages":"PDF-Seite 6","map_source":"Chrom & Dioxin","placement_note":"Keine belastbare Einzelposition; Eintrag bleibt im Katalog","accuracy":"Nur Stadt oder Lore-Teilraum belegt","source_map":"source-supplement","source_panel":"Karlsruhe","description_preview":"Bezirk Riisselsheim ist in Chrom & Dioxin als benannter Schauplatz mit Bezug zu Karlsruhe belegt.","description_full":"Bezirk Riisselsheim ist in Chrom & Dioxin als benannter Schauplatz mit Bezug zu Karlsruhe belegt. Das Dossier fasst den belegten Quellenstand redaktionell zusammen; eine nicht belegte Kartenposition wird nicht ergänzt.","description_source":"PDF-Seite 6","description_kind":"Ortsdossier","description_has_more":true,"detail_plans":[],"alternate_locations":[],"sources":[{"bookId":"sr2-chrom-dioxin","title":"Chrom & Dioxin","edition":"SR2","citation":"PDF-Seite 6","purpose":"description"}],"map_sources":[],"editions":["SR2"],"edition_descriptions":{"SR2":{"kind":"Ortsdossier","preview":"Bezirk Riisselsheim ist in Chrom & Dioxin als benannter Schauplatz mit Bezug zu Karlsruhe belegt.","full":"Bezirk Riisselsheim ist in Chrom & Dioxin als benannter Schauplatz mit Bezug zu Karlsruhe belegt. Das Dossier fasst den belegten Quellenstand redaktionell zusammen; eine nicht belegte Kartenposition wird nicht ergänzt.","hasMore":true,"hasExcerpt":true,"sources":[{"bookId":"sr2-chrom-dioxin","title":"Chrom & Dioxin","edition":"SR2","citation":"PDF-Seite 6","purpose":"description"}]}}}},{"type":"Feature","geometry":null,"properties":{"id":6,"global_id":"karlsruhe:source-place:bezirk-wiesbaden","name":"Bezirk Wiesbaden","aliases":[],"category":"Bezirke und Lore-Gebiete","detail_map":"Karlsruhe","source_pages":"PDF-Seite 6","map_source":"Chrom & Dioxin","placement_note":"Keine belastbare Einzelposition; Eintrag bleibt im Katalog","accuracy":"Nur Stadt oder Lore-Teilraum belegt","source_map":"source-supplement","source_panel":"Karlsruhe","description_preview":"Bezirk Wiesbaden ist in Chrom & Dioxin als benannter Schauplatz mit Bezug zu Karlsruhe belegt.","description_full":"Bezirk Wiesbaden ist in Chrom & Dioxin als benannter Schauplatz mit Bezug zu Karlsruhe belegt. Das Dossier fasst den belegten Quellenstand redaktionell zusammen; eine nicht belegte Kartenposition wird nicht ergänzt.","description_source":"PDF-Seite 6","description_kind":"Ortsdossier","description_has_more":true,"detail_plans":[],"alternate_locations":[],"sources":[{"bookId":"sr2-chrom-dioxin","title":"Chrom & Dioxin","edition":"SR2","citation":"PDF-Seite 6","purpose":"description"}],"map_sources":[],"editions":["SR2"],"edition_descriptions":{"SR2":{"kind":"Ortsdossier","preview":"Bezirk Wiesbaden ist in Chrom & Dioxin als benannter Schauplatz mit Bezug zu Karlsruhe belegt.","full":"Bezirk Wiesbaden ist in Chrom & Dioxin als benannter Schauplatz mit Bezug zu Karlsruhe belegt. Das Dossier fasst den belegten Quellenstand redaktionell zusammen; eine nicht belegte Kartenposition wird nicht ergänzt.","hasMore":true,"hasExcerpt":true,"sources":[{"bookId":"sr2-chrom-dioxin","title":"Chrom & Dioxin","edition":"SR2","citation":"PDF-Seite 6","purpose":"description"}]}}}},{"type":"Feature","geometry":null,"properties":{"id":7,"global_id":"karlsruhe:source-place:blue-demon-tower","name":"Blue Demon Tower","aliases":[],"category":"Konzerne und markante Bauwerke","detail_map":"Karlsruhe","source_pages":"Textzeile 13838","map_source":"Deutschland in den Schatten","placement_note":"Keine belastbare Einzelposition; Eintrag bleibt im Katalog","accuracy":"Nur Stadt oder Lore-Teilraum belegt","source_map":"source-supplement","source_panel":"Karlsruhe","description_preview":"Blue Demon Tower ist in Deutschland in den Schatten als benannter Schauplatz mit Bezug zu Karlsruhe belegt.","description_full":"Blue Demon Tower ist in Deutschland in den Schatten als benannter Schauplatz mit Bezug zu Karlsruhe belegt. Das Dossier fasst den belegten Quellenstand redaktionell zusammen; eine nicht belegte Kartenposition wird nicht ergänzt.","description_source":"Textzeile 13838","description_kind":"Ortsdossier","description_has_more":true,"detail_plans":[],"alternate_locations":[],"sources":[{"bookId":"sr2-deutschland-in-den-schatten","title":"Deutschland in den Schatten","edition":"SR2","citation":"Textzeile 13838","purpose":"description"}],"map_sources":[],"editions":["SR2"],"edition_descriptions":{"SR2":{"kind":"Ortsdossier","preview":"Blue Demon Tower ist in Deutschland in den Schatten als benannter Schauplatz mit Bezug zu Karlsruhe belegt.","full":"Blue Demon Tower ist in Deutschland in den Schatten als benannter Schauplatz mit Bezug zu Karlsruhe belegt. Das Dossier fasst den belegten Quellenstand redaktionell zusammen; eine nicht belegte Kartenposition wird nicht ergänzt.","hasMore":true,"hasExcerpt":true,"sources":[{"bookId":"sr2-deutschland-in-den-schatten","title":"Deutschland in den Schatten","edition":"SR2","citation":"Textzeile 13838","purpose":"description"}]}}}}]}
