{"type":"FeatureCollection","name":"Hongkong Orte","features":[{"type":"Feature","geometry":{"type":"Point","coordinates":[114.155,22.248]},"properties":{"id":5,"global_id":"hong-kong:place:5-aberdeen-harbor","name":"Aberdeen Harbor","aliases":[],"category":"Bezirke","detail_map":"Aberdeen Harbor","source_pages":"Kapitel Southern Coast","map_source":"Runner Havens","placement_note":"Geografischer Bezugspunkt des Lore-Distrikts Aberdeen Harbor","accuracy":"Lore-Bezirkszentrum; Grenzpolygon noch nicht georeferenziert","source_map":"hong-kong-content","source_panel":"Aberdeen Harbor","description_preview":"Aberdeen Harbor ist ein südlicher Hafen- und Küstenraum.","description_full":"Aberdeen Harbor ist ein südlicher Hafen- und Küstenraum. Die Position ist auf den belegten Stadt- oder Teilraum angenähert; eine hausgenaue Lage und eine weitergehende eigene Fließtextbeschreibung sind aus dem zugeordneten Datenmaterial nicht sicher ableitbar.","description_source":"Kapitel Southern Coast","description_kind":"Ortsprofil","description_has_more":true,"detail_plans":[],"alternate_locations":[],"sources":[{"bookId":"sr4-runner-havens","title":"Runner Havens","edition":"SR4","citation":"Kapitel Southern Coast","purpose":"description"}],"map_sources":[],"editions":["SR4"],"edition_descriptions":{"SR4":{"kind":"Ortsprofil","preview":"Aberdeen Harbor ist ein südlicher Hafen- und Küstenraum.","full":"Aberdeen Harbor ist ein südlicher Hafen- und Küstenraum. Die Position ist auf den belegten Stadt- oder Teilraum angenähert; eine hausgenaue Lage und eine weitergehende eigene Fließtextbeschreibung sind aus dem zugeordneten Datenmaterial nicht sicher ableitbar.","hasMore":true,"hasExcerpt":true,"sources":[{"bookId":"sr4-runner-havens","title":"Runner Havens","edition":"SR4","citation":"Kapitel Southern Coast","purpose":"description"}]}}}},{"type":"Feature","geometry":{"type":"Point","coordinates":[114.1582,22.2819]},"properties":{"id":1,"global_id":"hong-kong:place:1-central-district","name":"Central District","aliases":[],"category":"Bezirke","detail_map":"Central District","source_pages":"Kapitel Central District","map_source":"Runner Havens","placement_note":"Geografischer Bezugspunkt des Lore-Distrikts Central District","accuracy":"Lore-Bezirkszentrum; Grenzpolygon noch nicht georeferenziert","source_map":"hong-kong-content","source_panel":"Central District","description_preview":"Central ist das hochverdichtete Finanz- und Machtzentrum Hongkongs.","description_full":"Central ist das hochverdichtete Finanz- und Machtzentrum Hongkongs. Die Position ist auf den belegten Stadt- oder Teilraum angenähert; eine hausgenaue Lage und eine weitergehende eigene Fließtextbeschreibung sind aus dem zugeordneten Datenmaterial nicht sicher ableitbar.","description_source":"Kapitel Central District","description_kind":"Ortsprofil","description_has_more":true,"detail_plans":[],"alternate_locations":[],"sources":[{"bookId":"sr4-runner-havens","title":"Runner Havens","edition":"SR4","citation":"Kapitel Central District","purpose":"description"}],"map_sources":[],"editions":["SR4"],"edition_descriptions":{"SR4":{"kind":"Ortsprofil","preview":"Central ist das hochverdichtete Finanz- und Machtzentrum Hongkongs.","full":"Central ist das hochverdichtete Finanz- und Machtzentrum Hongkongs. Die Position ist auf den belegten Stadt- oder Teilraum angenähert; eine hausgenaue Lage und eine weitergehende eigene Fließtextbeschreibung sind aus dem zugeordneten Datenmaterial nicht sicher ableitbar.","hasMore":true,"hasExcerpt":true,"sources":[{"bookId":"sr4-runner-havens","title":"Runner Havens","edition":"SR4","citation":"Kapitel Central District","purpose":"description"}]}}}},{"type":"Feature","geometry":null,"properties":{"id":9,"global_id":"hong-kong:place:9-chop-chop-shop","name":"Chop-Chop Shop","aliases":[],"category":"Medizin","detail_map":"Kowloon City","source_pages":"Kapitel Kowloon City","map_source":"Runner Havens","placement_note":"Keine belastbare Einzelposition; Eintrag bleibt im Katalog","accuracy":"Nur Stadt oder Lore-Teilraum belegt","source_map":"hong-kong-content","source_panel":"Kowloon City","description_preview":"Der Chop-Chop Shop ist eine in Kowloon City belegte Schattenklinik.","description_full":"Der Chop-Chop Shop ist eine in Kowloon City belegte Schattenklinik. Die Position ist auf den belegten Stadt- oder Teilraum angenähert; eine hausgenaue Lage und eine weitergehende eigene Fließtextbeschreibung sind aus dem zugeordneten Datenmaterial nicht sicher ableitbar.","description_source":"Kapitel Kowloon City","description_kind":"Ortsprofil","description_has_more":true,"detail_plans":[],"alternate_locations":[],"sources":[{"bookId":"sr4-runner-havens","title":"Runner Havens","edition":"SR4","citation":"Kapitel Kowloon City","purpose":"description"}],"map_sources":[],"editions":["SR4"],"edition_descriptions":{"SR4":{"kind":"Ortsprofil","preview":"Der Chop-Chop Shop ist eine in Kowloon City belegte Schattenklinik.","full":"Der Chop-Chop Shop ist eine in Kowloon City belegte Schattenklinik. Die Position ist auf den belegten Stadt- oder Teilraum angenähert; eine hausgenaue Lage und eine weitergehende eigene Fließtextbeschreibung sind aus dem zugeordneten Datenmaterial nicht sicher ableitbar.","hasMore":true,"hasExcerpt":true,"sources":[{"bookId":"sr4-runner-havens","title":"Runner Havens","edition":"SR4","citation":"Kapitel Kowloon City","purpose":"description"}]}}}},{"type":"Feature","geometry":null,"properties":{"id":10,"global_id":"hong-kong:place:10-cloud-nine","name":"Cloud Nine","aliases":[],"category":"Bars und Clubs","detail_map":"Central District","source_pages":"Kapitel Central District","map_source":"Runner Havens","placement_note":"Keine belastbare Einzelposition; Eintrag bleibt im Katalog","accuracy":"Nur Stadt oder Lore-Teilraum belegt","source_map":"hong-kong-content","source_panel":"Central District","description_preview":"Cloud Nine ist ein exklusiver Treffpunkt im Central District.","description_full":"Cloud Nine ist ein exklusiver Treffpunkt im Central District. Die Position ist auf den belegten Stadt- oder Teilraum angenähert; eine hausgenaue Lage und eine weitergehende eigene Fließtextbeschreibung sind aus dem zugeordneten Datenmaterial nicht sicher ableitbar.","description_source":"Kapitel Central District","description_kind":"Ortsprofil","description_has_more":true,"detail_plans":[],"alternate_locations":[],"sources":[{"bookId":"sr4-runner-havens","title":"Runner Havens","edition":"SR4","citation":"Kapitel Central District","purpose":"description"}],"map_sources":[],"editions":["SR4"],"edition_descriptions":{"SR4":{"kind":"Ortsprofil","preview":"Cloud Nine ist ein exklusiver Treffpunkt im Central District.","full":"Cloud Nine ist ein exklusiver Treffpunkt im Central District. Die Position ist auf den belegten Stadt- oder Teilraum angenähert; eine hausgenaue Lage und eine weitergehende eigene Fließtextbeschreibung sind aus dem zugeordneten Datenmaterial nicht sicher ableitbar.","hasMore":true,"hasExcerpt":true,"sources":[{"bookId":"sr4-runner-havens","title":"Runner Havens","edition":"SR4","citation":"Kapitel Central District","purpose":"description"}]}}}},{"type":"Feature","geometry":{"type":"Point","coordinates":[114.2241,22.2841]},"properties":{"id":2,"global_id":"hong-kong:place:2-eastern-district","name":"Eastern District","aliases":[],"category":"Bezirke","detail_map":"Eastern District","source_pages":"Kapitel Eastern District","map_source":"Runner Havens","placement_note":"Geografischer Bezugspunkt des Lore-Distrikts Eastern District","accuracy":"Lore-Bezirkszentrum; Grenzpolygon noch nicht georeferenziert","source_map":"hong-kong-content","source_panel":"Eastern District","description_preview":"Eastern District verbindet dichte Wohn- und Geschäftsräume am Nordufer.","description_full":"Eastern District verbindet dichte Wohn- und Geschäftsräume am Nordufer. Die Position ist auf den belegten Stadt- oder Teilraum angenähert; eine hausgenaue Lage und eine weitergehende eigene Fließtextbeschreibung sind aus dem zugeordneten Datenmaterial nicht sicher ableitbar.","description_source":"Kapitel Eastern District","description_kind":"Ortsprofil","description_has_more":true,"detail_plans":[],"alternate_locations":[],"sources":[{"bookId":"sr4-runner-havens","title":"Runner Havens","edition":"SR4","citation":"Kapitel Eastern District","purpose":"description"}],"map_sources":[],"editions":["SR4"],"edition_descriptions":{"SR4":{"kind":"Ortsprofil","preview":"Eastern District verbindet dichte Wohn- und Geschäftsräume am Nordufer.","full":"Eastern District verbindet dichte Wohn- und Geschäftsräume am Nordufer. Die Position ist auf den belegten Stadt- oder Teilraum angenähert; eine hausgenaue Lage und eine weitergehende eigene Fließtextbeschreibung sind aus dem zugeordneten Datenmaterial nicht sicher ableitbar.","hasMore":true,"hasExcerpt":true,"sources":[{"bookId":"sr4-runner-havens","title":"Runner Havens","edition":"SR4","citation":"Kapitel Eastern District","purpose":"description"}]}}}},{"type":"Feature","geometry":null,"properties":{"id":11,"global_id":"hong-kong:place:11-evolution","name":"Evolution","aliases":[],"category":"Bars und Clubs","detail_map":"Eastern District","source_pages":"Kapitel Eastern District","map_source":"Runner Havens","placement_note":"Keine belastbare Einzelposition; Eintrag bleibt im Katalog","accuracy":"Nur Stadt oder Lore-Teilraum belegt","source_map":"hong-kong-content","source_panel":"Eastern District","description_preview":"Evolution ist ein benannter Schauplatz im Eastern District.","description_full":"Evolution ist ein benannter Schauplatz im Eastern District. Die Position ist auf den belegten Stadt- oder Teilraum angenähert; eine hausgenaue Lage und eine weitergehende eigene Fließtextbeschreibung sind aus dem zugeordneten Datenmaterial nicht sicher ableitbar.","description_source":"Kapitel Eastern District","description_kind":"Ortsprofil","description_has_more":true,"detail_plans":[],"alternate_locations":[],"sources":[{"bookId":"sr4-runner-havens","title":"Runner Havens","edition":"SR4","citation":"Kapitel Eastern District","purpose":"description"}],"map_sources":[],"editions":["SR4"],"edition_descriptions":{"SR4":{"kind":"Ortsprofil","preview":"Evolution ist ein benannter Schauplatz im Eastern District.","full":"Evolution ist ein benannter Schauplatz im Eastern District. Die Position ist auf den belegten Stadt- oder Teilraum angenähert; eine hausgenaue Lage und eine weitergehende eigene Fließtextbeschreibung sind aus dem zugeordneten Datenmaterial nicht sicher ableitbar.","hasMore":true,"hasExcerpt":true,"sources":[{"bookId":"sr4-runner-havens","title":"Runner Havens","edition":"SR4","citation":"Kapitel Eastern District","purpose":"description"}]}}}},{"type":"Feature","geometry":{"type":"Point","coordinates":[114.184,22.272]},"properties":{"id":12,"global_id":"hong-kong:place:12-happy-valley-arena","name":"Happy Valley Arena","aliases":[],"category":"Freizeit und Natur","detail_map":"Wanchai-Causeway","source_pages":"Kapitel Wanchai-Causeway","map_source":"Runner Havens","placement_note":"Erhaltener geographischer Bezugspunkt","accuracy":"Geographischer Bezugspunkt","source_map":"hong-kong-content","source_panel":"Wanchai-Causeway","description_preview":"Die Happy Valley Arena ist ein großer Veranstaltungs- und Sportort.","description_full":"Die Happy Valley Arena ist ein großer Veranstaltungs- und Sportort. Die Position folgt einem erhaltenen heutigen Bezugspunkt.","description_source":"Kapitel Wanchai-Causeway","description_kind":"Ortsprofil","description_has_more":true,"detail_plans":[],"alternate_locations":[],"sources":[{"bookId":"sr4-runner-havens","title":"Runner Havens","edition":"SR4","citation":"Kapitel Wanchai-Causeway","purpose":"description"}],"map_sources":[],"editions":["SR4"],"edition_descriptions":{"SR4":{"kind":"Ortsprofil","preview":"Die Happy Valley Arena ist ein großer Veranstaltungs- und Sportort.","full":"Die Happy Valley Arena ist ein großer Veranstaltungs- und Sportort. Die Position folgt einem erhaltenen heutigen Bezugspunkt.","hasMore":true,"hasExcerpt":true,"sources":[{"bookId":"sr4-runner-havens","title":"Runner Havens","edition":"SR4","citation":"Kapitel Wanchai-Causeway","purpose":"description"}]}}}},{"type":"Feature","geometry":null,"properties":{"id":13,"global_id":"hong-kong:place:13-kai-tak-night-market","name":"Kai Tak Night Market","aliases":[],"category":"Einkaufen","detail_map":"Kowloon City","source_pages":"Kapitel Kowloon City","map_source":"Runner Havens","placement_note":"Keine belastbare Einzelposition; Eintrag bleibt im Katalog","accuracy":"Nur Stadt oder Lore-Teilraum belegt","source_map":"hong-kong-content","source_panel":"Kowloon City","description_preview":"Der Kai Tak Night Market ist ein bedeutender Nachtmarkt und Schattenkontaktpunkt.","description_full":"Der Kai Tak Night Market ist ein bedeutender Nachtmarkt und Schattenkontaktpunkt. Die Position ist auf den belegten Stadt- oder Teilraum angenähert; eine hausgenaue Lage und eine weitergehende eigene Fließtextbeschreibung sind aus dem zugeordneten Datenmaterial nicht sicher ableitbar.","description_source":"Kapitel Kowloon City","description_kind":"Ortsprofil","description_has_more":true,"detail_plans":[],"alternate_locations":[],"sources":[{"bookId":"sr4-runner-havens","title":"Runner Havens","edition":"SR4","citation":"Kapitel Kowloon City","purpose":"description"}],"map_sources":[],"editions":["SR4"],"edition_descriptions":{"SR4":{"kind":"Ortsprofil","preview":"Der Kai Tak Night Market ist ein bedeutender Nachtmarkt und Schattenkontaktpunkt.","full":"Der Kai Tak Night Market ist ein bedeutender Nachtmarkt und Schattenkontaktpunkt. Die Position ist auf den belegten Stadt- oder Teilraum angenähert; eine hausgenaue Lage und eine weitergehende eigene Fließtextbeschreibung sind aus dem zugeordneten Datenmaterial nicht sicher ableitbar.","hasMore":true,"hasExcerpt":true,"sources":[{"bookId":"sr4-runner-havens","title":"Runner Havens","edition":"SR4","citation":"Kapitel Kowloon City","purpose":"description"}]}}}},{"type":"Feature","geometry":{"type":"Point","coordinates":[114.1916,22.3282]},"properties":{"id":3,"global_id":"hong-kong:place:3-kowloon-city","name":"Kowloon City","aliases":[],"category":"Bezirke","detail_map":"Kowloon City","source_pages":"Kapitel Kowloon City","map_source":"Runner Havens","placement_note":"Geografischer Bezugspunkt des Lore-Distrikts Kowloon City","accuracy":"Lore-Bezirkszentrum; Grenzpolygon noch nicht georeferenziert","source_map":"hong-kong-content","source_panel":"Kowloon City","description_preview":"Kowloon City ist ein dichter urbaner Teilraum mit Märkten, Werkstätten und Unterwelt.","description_full":"Kowloon City ist ein dichter urbaner Teilraum mit Märkten, Werkstätten und Unterwelt. Die Position ist auf den belegten Stadt- oder Teilraum angenähert; eine hausgenaue Lage und eine weitergehende eigene Fließtextbeschreibung sind aus dem zugeordneten Datenmaterial nicht sicher ableitbar.","description_source":"Kapitel Kowloon City","description_kind":"Ortsprofil","description_has_more":true,"detail_plans":[],"alternate_locations":[],"sources":[{"bookId":"sr4-runner-havens","title":"Runner Havens","edition":"SR4","citation":"Kapitel Kowloon City","purpose":"description"}],"map_sources":[],"editions":["SR4"],"edition_descriptions":{"SR4":{"kind":"Ortsprofil","preview":"Kowloon City ist ein dichter urbaner Teilraum mit Märkten, Werkstätten und Unterwelt.","full":"Kowloon City ist ein dichter urbaner Teilraum mit Märkten, Werkstätten und Unterwelt. Die Position ist auf den belegten Stadt- oder Teilraum angenähert; eine hausgenaue Lage und eine weitergehende eigene Fließtextbeschreibung sind aus dem zugeordneten Datenmaterial nicht sicher ableitbar.","hasMore":true,"hasExcerpt":true,"sources":[{"bookId":"sr4-runner-havens","title":"Runner Havens","edition":"SR4","citation":"Kapitel Kowloon City","purpose":"description"}]}}}},{"type":"Feature","geometry":{"type":"Point","coordinates":[114.226,22.312]},"properties":{"id":6,"global_id":"hong-kong:place:6-kwun-tong","name":"Kwun Tong","aliases":[],"category":"Bezirke","detail_map":"Kwun Tong","source_pages":"Kapitel Kwun Tong","map_source":"Runner Havens","placement_note":"Geografischer Bezugspunkt des Lore-Distrikts Kwun Tong","accuracy":"Lore-Bezirkszentrum; Grenzpolygon noch nicht georeferenziert","source_map":"hong-kong-content","source_panel":"Kwun Tong","description_preview":"Kwun Tong ist ein östlicher Industrie- und Wohnbezirk.","description_full":"Kwun Tong ist ein östlicher Industrie- und Wohnbezirk. Die Position ist auf den belegten Stadt- oder Teilraum angenähert; eine hausgenaue Lage und eine weitergehende eigene Fließtextbeschreibung sind aus dem zugeordneten Datenmaterial nicht sicher ableitbar.","description_source":"Kapitel Kwun Tong","description_kind":"Ortsprofil","description_has_more":true,"detail_plans":[],"alternate_locations":[],"sources":[{"bookId":"sr4-runner-havens","title":"Runner Havens","edition":"SR4","citation":"Kapitel Kwun Tong","purpose":"description"}],"map_sources":[],"editions":["SR4"],"edition_descriptions":{"SR4":{"kind":"Ortsprofil","preview":"Kwun Tong ist ein östlicher Industrie- und Wohnbezirk.","full":"Kwun Tong ist ein östlicher Industrie- und Wohnbezirk. Die Position ist auf den belegten Stadt- oder Teilraum angenähert; eine hausgenaue Lage und eine weitergehende eigene Fließtextbeschreibung sind aus dem zugeordneten Datenmaterial nicht sicher ableitbar.","hasMore":true,"hasExcerpt":true,"sources":[{"bookId":"sr4-runner-havens","title":"Runner Havens","edition":"SR4","citation":"Kapitel Kwun Tong","purpose":"description"}]}}}},{"type":"Feature","geometry":{"type":"Point","coordinates":[114.155,22.282]},"properties":{"id":14,"global_id":"hong-kong:place:14-luk-yu-teahouse","name":"Luk Yu Teahouse","aliases":[],"category":"Restaurants","detail_map":"Central District","source_pages":"Kapitel Central District","map_source":"Runner Havens","placement_note":"Erhaltener geographischer Bezugspunkt","accuracy":"Geographischer Bezugspunkt","source_map":"hong-kong-content","source_panel":"Central District","description_preview":"Das Luk Yu Teahouse ist ein traditionsreicher Treffpunkt.","description_full":"Das Luk Yu Teahouse ist ein traditionsreicher Treffpunkt. Die Position folgt einem erhaltenen heutigen Bezugspunkt.","description_source":"Kapitel Central District","description_kind":"Ortsprofil","description_has_more":true,"detail_plans":[],"alternate_locations":[],"sources":[{"bookId":"sr4-runner-havens","title":"Runner Havens","edition":"SR4","citation":"Kapitel Central District","purpose":"description"}],"map_sources":[],"editions":["SR4"],"edition_descriptions":{"SR4":{"kind":"Ortsprofil","preview":"Das Luk Yu Teahouse ist ein traditionsreicher Treffpunkt.","full":"Das Luk Yu Teahouse ist ein traditionsreicher Treffpunkt. Die Position folgt einem erhaltenen heutigen Bezugspunkt.","hasMore":true,"hasExcerpt":true,"sources":[{"bookId":"sr4-runner-havens","title":"Runner Havens","edition":"SR4","citation":"Kapitel Central District","purpose":"description"}]}}}},{"type":"Feature","geometry":null,"properties":{"id":15,"global_id":"hong-kong:place:15-shangri-la","name":"Shangri-La","aliases":[],"category":"Hotels","detail_map":"Aberdeen Harbor","source_pages":"Kapitel Southern Coast","map_source":"Runner Havens","placement_note":"Keine belastbare Einzelposition; Eintrag bleibt im Katalog","accuracy":"Nur Stadt oder Lore-Teilraum belegt","source_map":"hong-kong-content","source_panel":"Aberdeen Harbor","description_preview":"Shangri-La ist ein an der südlichen Küste belegter Schauplatz.","description_full":"Shangri-La ist ein an der südlichen Küste belegter Schauplatz. Die Position ist auf den belegten Stadt- oder Teilraum angenähert; eine hausgenaue Lage und eine weitergehende eigene Fließtextbeschreibung sind aus dem zugeordneten Datenmaterial nicht sicher ableitbar.","description_source":"Kapitel Southern Coast","description_kind":"Ortsprofil","description_has_more":true,"detail_plans":[],"alternate_locations":[],"sources":[{"bookId":"sr4-runner-havens","title":"Runner Havens","edition":"SR4","citation":"Kapitel Southern Coast","purpose":"description"}],"map_sources":[],"editions":["SR4"],"edition_descriptions":{"SR4":{"kind":"Ortsprofil","preview":"Shangri-La ist ein an der südlichen Küste belegter Schauplatz.","full":"Shangri-La ist ein an der südlichen Küste belegter Schauplatz. Die Position ist auf den belegten Stadt- oder Teilraum angenähert; eine hausgenaue Lage und eine weitergehende eigene Fließtextbeschreibung sind aus dem zugeordneten Datenmaterial nicht sicher ableitbar.","hasMore":true,"hasExcerpt":true,"sources":[{"bookId":"sr4-runner-havens","title":"Runner Havens","edition":"SR4","citation":"Kapitel Southern Coast","purpose":"description"}]}}}},{"type":"Feature","geometry":{"type":"Point","coordinates":[114.19,22.305]},"properties":{"id":16,"global_id":"hong-kong:place:16-the-whampoa","name":"The Whampoa","aliases":[],"category":"Einkaufen","detail_map":"Kowloon City","source_pages":"Kapitel Kowloon City","map_source":"Runner Havens","placement_note":"Erhaltener geographischer Bezugspunkt","accuracy":"Geographischer Bezugspunkt","source_map":"hong-kong-content","source_panel":"Kowloon City","description_preview":"The Whampoa ist ein markanter Handels- und Vergnügungskomplex.","description_full":"The Whampoa ist ein markanter Handels- und Vergnügungskomplex. Die Position folgt einem erhaltenen heutigen Bezugspunkt.","description_source":"Kapitel Kowloon City","description_kind":"Ortsprofil","description_has_more":true,"detail_plans":[],"alternate_locations":[],"sources":[{"bookId":"sr4-runner-havens","title":"Runner Havens","edition":"SR4","citation":"Kapitel Kowloon City","purpose":"description"}],"map_sources":[],"editions":["SR4"],"edition_descriptions":{"SR4":{"kind":"Ortsprofil","preview":"The Whampoa ist ein markanter Handels- und Vergnügungskomplex.","full":"The Whampoa ist ein markanter Handels- und Vergnügungskomplex. Die Position folgt einem erhaltenen heutigen Bezugspunkt.","hasMore":true,"hasExcerpt":true,"sources":[{"bookId":"sr4-runner-havens","title":"Runner Havens","edition":"SR4","citation":"Kapitel Kowloon City","purpose":"description"}]}}}},{"type":"Feature","geometry":{"type":"Point","coordinates":[114.214,22.445]},"properties":{"id":8,"global_id":"hong-kong:place:8-tolo-harbor","name":"Tolo Harbor","aliases":[],"category":"Bezirke","detail_map":"Tolo Harbor","source_pages":"Kapitel Tolo Harbor Complex","map_source":"Hong Kong Neon Contrails (2050)","placement_note":"Geografischer Bezugspunkt des Lore-Distrikts Tolo Harbor","accuracy":"Lore-Bezirkszentrum; Grenzpolygon noch nicht georeferenziert","source_map":"hong-kong-content","source_panel":"Tolo Harbor","description_preview":"Tolo Harbor umfasst den nördlichen Hafen- und Anlagenraum.","description_full":"Tolo Harbor umfasst den nördlichen Hafen- und Anlagenraum. Die Position ist auf den belegten Stadt- oder Teilraum angenähert; eine hausgenaue Lage und eine weitergehende eigene Fließtextbeschreibung sind aus dem zugeordneten Datenmaterial nicht sicher ableitbar.","description_source":"Kapitel Tolo Harbor Complex","description_kind":"Ortsprofil","description_has_more":true,"detail_plans":[],"alternate_locations":[],"sources":[{"bookId":"sr5-hong-kong-neon-contrails-2050","title":"Hong Kong Neon Contrails (2050)","edition":"SR5","citation":"Kapitel Tolo Harbor Complex","purpose":"description"}],"map_sources":[],"editions":["SR5"],"edition_descriptions":{"SR5":{"kind":"Ortsprofil","preview":"Tolo Harbor umfasst den nördlichen Hafen- und Anlagenraum.","full":"Tolo Harbor umfasst den nördlichen Hafen- und Anlagenraum. Die Position ist auf den belegten Stadt- oder Teilraum angenähert; eine hausgenaue Lage und eine weitergehende eigene Fließtextbeschreibung sind aus dem zugeordneten Datenmaterial nicht sicher ableitbar.","hasMore":true,"hasExcerpt":true,"sources":[{"bookId":"sr5-hong-kong-neon-contrails-2050","title":"Hong Kong Neon Contrails (2050)","edition":"SR5","citation":"Kapitel Tolo Harbor Complex","purpose":"description"}]}}}},{"type":"Feature","geometry":null,"properties":{"id":17,"global_id":"hong-kong:place:17-tolo-harbor-complex","name":"Tolo Harbor Complex","aliases":[],"category":"Konzerne","detail_map":"Tolo Harbor","source_pages":"Kapitel Tolo Harbor Complex","map_source":"Hong Kong Neon Contrails (2050)","placement_note":"Keine belastbare Einzelposition; Eintrag bleibt im Katalog","accuracy":"Nur Stadt oder Lore-Teilraum belegt","source_map":"hong-kong-content","source_panel":"Tolo Harbor","description_preview":"Der Tolo Harbor Complex ist ein zentraler Anlagen- und Hafenschauplatz des historischen Quellenstands.","description_full":"Der Tolo Harbor Complex ist ein zentraler Anlagen- und Hafenschauplatz des historischen Quellenstands. Die Position ist auf den belegten Stadt- oder Teilraum angenähert; eine hausgenaue Lage und eine weitergehende eigene Fließtextbeschreibung sind aus dem zugeordneten Datenmaterial nicht sicher ableitbar.","description_source":"Kapitel Tolo Harbor Complex","description_kind":"Ortsprofil","description_has_more":true,"detail_plans":[],"alternate_locations":[],"sources":[{"bookId":"sr5-hong-kong-neon-contrails-2050","title":"Hong Kong Neon Contrails (2050)","edition":"SR5","citation":"Kapitel Tolo Harbor Complex","purpose":"description"}],"map_sources":[],"editions":["SR5"],"edition_descriptions":{"SR5":{"kind":"Ortsprofil","preview":"Der Tolo Harbor Complex ist ein zentraler Anlagen- und Hafenschauplatz des historischen Quellenstands.","full":"Der Tolo Harbor Complex ist ein zentraler Anlagen- und Hafenschauplatz des historischen Quellenstands. Die Position ist auf den belegten Stadt- oder Teilraum angenähert; eine hausgenaue Lage und eine weitergehende eigene Fließtextbeschreibung sind aus dem zugeordneten Datenmaterial nicht sicher ableitbar.","hasMore":true,"hasExcerpt":true,"sources":[{"bookId":"sr5-hong-kong-neon-contrails-2050","title":"Hong Kong Neon Contrails (2050)","edition":"SR5","citation":"Kapitel Tolo Harbor Complex","purpose":"description"}]}}}},{"type":"Feature","geometry":{"type":"Point","coordinates":[114.1818,22.2795]},"properties":{"id":4,"global_id":"hong-kong:place:4-wanchai-causeway","name":"Wanchai-Causeway","aliases":[],"category":"Bezirke","detail_map":"Wanchai-Causeway","source_pages":"Kapitel Wanchai-Causeway","map_source":"Runner Havens","placement_note":"Geografischer Bezugspunkt des Lore-Distrikts Wanchai-Causeway","accuracy":"Lore-Bezirkszentrum; Grenzpolygon noch nicht georeferenziert","source_map":"hong-kong-content","source_panel":"Wanchai-Causeway","description_preview":"Wanchai-Causeway verbindet Vergnügung, Handel und repräsentative Standorte.","description_full":"Wanchai-Causeway verbindet Vergnügung, Handel und repräsentative Standorte. Die Position ist auf den belegten Stadt- oder Teilraum angenähert; eine hausgenaue Lage und eine weitergehende eigene Fließtextbeschreibung sind aus dem zugeordneten Datenmaterial nicht sicher ableitbar.","description_source":"Kapitel Wanchai-Causeway","description_kind":"Ortsprofil","description_has_more":true,"detail_plans":[],"alternate_locations":[],"sources":[{"bookId":"sr4-runner-havens","title":"Runner Havens","edition":"SR4","citation":"Kapitel Wanchai-Causeway","purpose":"description"}],"map_sources":[],"editions":["SR4"],"edition_descriptions":{"SR4":{"kind":"Ortsprofil","preview":"Wanchai-Causeway verbindet Vergnügung, Handel und repräsentative Standorte.","full":"Wanchai-Causeway verbindet Vergnügung, Handel und repräsentative Standorte. Die Position ist auf den belegten Stadt- oder Teilraum angenähert; eine hausgenaue Lage und eine weitergehende eigene Fließtextbeschreibung sind aus dem zugeordneten Datenmaterial nicht sicher ableitbar.","hasMore":true,"hasExcerpt":true,"sources":[{"bookId":"sr4-runner-havens","title":"Runner Havens","edition":"SR4","citation":"Kapitel Wanchai-Causeway","purpose":"description"}]}}}},{"type":"Feature","geometry":{"type":"Point","coordinates":[114.17,22.313]},"properties":{"id":7,"global_id":"hong-kong:place:7-yau-tsim-mong","name":"Yau Tsim Mong","aliases":[],"category":"Bezirke","detail_map":"Yau Tsim Mong","source_pages":"Kapitel Yau Tsim Mong","map_source":"Runner Havens","placement_note":"Geografischer Bezugspunkt des Lore-Distrikts Yau Tsim Mong","accuracy":"Lore-Bezirkszentrum; Grenzpolygon noch nicht georeferenziert","source_map":"hong-kong-content","source_panel":"Yau Tsim Mong","description_preview":"Yau Tsim Mong bildet einen dicht bebauten Teil Kowloons.","description_full":"Yau Tsim Mong bildet einen dicht bebauten Teil Kowloons. Die Position ist auf den belegten Stadt- oder Teilraum angenähert; eine hausgenaue Lage und eine weitergehende eigene Fließtextbeschreibung sind aus dem zugeordneten Datenmaterial nicht sicher ableitbar.","description_source":"Kapitel Yau Tsim Mong","description_kind":"Ortsprofil","description_has_more":true,"detail_plans":[],"alternate_locations":[],"sources":[{"bookId":"sr4-runner-havens","title":"Runner Havens","edition":"SR4","citation":"Kapitel Yau Tsim Mong","purpose":"description"}],"map_sources":[],"editions":["SR4"],"edition_descriptions":{"SR4":{"kind":"Ortsprofil","preview":"Yau Tsim Mong bildet einen dicht bebauten Teil Kowloons.","full":"Yau Tsim Mong bildet einen dicht bebauten Teil Kowloons. Die Position ist auf den belegten Stadt- oder Teilraum angenähert; eine hausgenaue Lage und eine weitergehende eigene Fließtextbeschreibung sind aus dem zugeordneten Datenmaterial nicht sicher ableitbar.","hasMore":true,"hasExcerpt":true,"sources":[{"bookId":"sr4-runner-havens","title":"Runner Havens","edition":"SR4","citation":"Kapitel Yau Tsim Mong","purpose":"description"}]}}}}]}
