{"type":"FeatureCollection","name":"Hongkong – geprüfte zusätzliche Quellenorte","features":[{"type":"Feature","geometry":null,"properties":{"id":30,"global_id":"hong-kong:source-place:devastate-hospital","name":"Devastate Hospital","aliases":[],"category":"Medizin und Versorgung","detail_map":"Hongkong","source_pages":"Textzeile 3610","map_source":"Emergence","placement_note":"Keine belastbare Einzelposition; Eintrag bleibt im Katalog","accuracy":"Nur Stadt oder Lore-Teilraum belegt","source_map":"source-supplement","source_panel":"Hongkong","description_preview":"Devastate Hospital ist in Emergence als benannter Schauplatz mit Bezug zu Hongkong belegt.","description_full":"Devastate Hospital ist in Emergence als benannter Schauplatz mit Bezug zu Hongkong belegt. Das Dossier fasst den belegten Quellenstand redaktionell zusammen; eine nicht belegte Kartenposition wird nicht ergänzt.","description_source":"Textzeile 3610","description_kind":"Ortsdossier","description_has_more":true,"detail_plans":[],"alternate_locations":[],"sources":[{"bookId":"sr4-emergence","title":"Emergence","edition":"SR4","citation":"Textzeile 3610","purpose":"description"}],"map_sources":[],"editions":["SR4"],"edition_descriptions":{"SR4":{"kind":"Ortsdossier","preview":"Devastate Hospital ist in Emergence als benannter Schauplatz mit Bezug zu Hongkong belegt.","full":"Devastate Hospital ist in Emergence als benannter Schauplatz mit Bezug zu Hongkong belegt. Das Dossier fasst den belegten Quellenstand redaktionell zusammen; eine nicht belegte Kartenposition wird nicht ergänzt.","hasMore":true,"hasExcerpt":true,"sources":[{"bookId":"sr4-emergence","title":"Emergence","edition":"SR4","citation":"Textzeile 3610","purpose":"description"}]}}}},{"type":"Feature","geometry":null,"properties":{"id":31,"global_id":"hong-kong:source-place:enterprise-zone-the-northern","name":"Enterprise Zone, the Northern","aliases":[],"category":"Bezirke und Lore-Gebiete","detail_map":"Hongkong","source_pages":"Textzeile 11351","map_source":"Sixth World Almanac","placement_note":"Keine belastbare Einzelposition; Eintrag bleibt im Katalog","accuracy":"Nur Stadt oder Lore-Teilraum belegt","source_map":"source-supplement","source_panel":"Hongkong","description_preview":"Enterprise Zone, the Northern ist in Sixth World Almanac als benannter Schauplatz mit Bezug zu Hongkong belegt.","description_full":"Enterprise Zone, the Northern ist in Sixth World Almanac als benannter Schauplatz mit Bezug zu Hongkong belegt. Das Dossier fasst den belegten Quellenstand redaktionell zusammen; eine nicht belegte Kartenposition wird nicht ergänzt.","description_source":"Textzeile 11351","description_kind":"Ortsdossier","description_has_more":true,"detail_plans":[],"alternate_locations":[],"sources":[{"bookId":"sr4-sixth-world-almanac","title":"Sixth World Almanac","edition":"SR4","citation":"Textzeile 11351","purpose":"description"}],"map_sources":[],"editions":["SR4"],"edition_descriptions":{"SR4":{"kind":"Ortsdossier","preview":"Enterprise Zone, the Northern ist in Sixth World Almanac als benannter Schauplatz mit Bezug zu Hongkong belegt.","full":"Enterprise Zone, the Northern ist in Sixth World Almanac als benannter Schauplatz mit Bezug zu Hongkong belegt. Das Dossier fasst den belegten Quellenstand redaktionell zusammen; eine nicht belegte Kartenposition wird nicht ergänzt.","hasMore":true,"hasExcerpt":true,"sources":[{"bookId":"sr4-sixth-world-almanac","title":"Sixth World Almanac","edition":"SR4","citation":"Textzeile 11351","purpose":"description"}]}}}},{"type":"Feature","geometry":null,"properties":{"id":32,"global_id":"hong-kong:source-place:hong-kong-free-enterprise-zone","name":"Hong Kong Free Enterprise Zone","aliases":[],"category":"Bezirke und Lore-Gebiete","detail_map":"Hongkong","source_pages":"Textzeile 4938","map_source":"Corporate Intrigue","placement_note":"Keine belastbare Einzelposition; Eintrag bleibt im Katalog","accuracy":"Nur Stadt oder Lore-Teilraum belegt","source_map":"source-supplement","source_panel":"Hongkong","description_preview":"Hong Kong Free Enterprise Zone ist in Corporate Intrigue als benannter Schauplatz mit Bezug zu Hongkong belegt.","description_full":"Hong Kong Free Enterprise Zone ist in Corporate Intrigue als benannter Schauplatz mit Bezug zu Hongkong belegt. Das Dossier fasst den belegten Quellenstand redaktionell zusammen; eine nicht belegte Kartenposition wird nicht ergänzt.","description_source":"Textzeile 4938","description_kind":"Ortsdossier","description_has_more":true,"detail_plans":[],"alternate_locations":[],"sources":[{"bookId":"sr4-corporate-intrigue","title":"Corporate Intrigue","edition":"SR4","citation":"Textzeile 4938","purpose":"description"},{"bookId":"sr4-ghost-cartels","title":"Ghost Cartels","edition":"SR4","citation":"Textzeile 10415","purpose":"description"},{"bookId":"sr3-shadows-of-asia","title":"Shadows of Asia","edition":"SR3","citation":"Textzeile 2584","purpose":"description"}],"map_sources":[],"editions":["SR3","SR4"],"edition_descriptions":{"SR3":{"kind":"Ortsdossier","preview":"Hong Kong Free Enterprise Zone ist in Shadows of Asia als benannter Schauplatz mit Bezug zu Hongkong belegt.","full":"Hong Kong Free Enterprise Zone ist in Shadows of Asia als benannter Schauplatz mit Bezug zu Hongkong belegt. Das Dossier fasst den belegten Quellenstand redaktionell zusammen; eine nicht belegte Kartenposition wird nicht ergänzt.","hasMore":true,"hasExcerpt":true,"sources":[{"bookId":"sr3-shadows-of-asia","title":"Shadows of Asia","edition":"SR3","citation":"Textzeile 2584","purpose":"description"}]},"SR4":{"kind":"Ortsdossier","preview":"Hong Kong Free Enterprise Zone ist in Corporate Intrigue als benannter Schauplatz mit Bezug zu Hongkong belegt.","full":"Hong Kong Free Enterprise Zone ist in Corporate Intrigue als benannter Schauplatz mit Bezug zu Hongkong belegt. Das Dossier fasst den belegten Quellenstand redaktionell zusammen; eine nicht belegte Kartenposition wird nicht ergänzt.","hasMore":true,"hasExcerpt":true,"sources":[{"bookId":"sr4-corporate-intrigue","title":"Corporate Intrigue","edition":"SR4","citation":"Textzeile 4938","purpose":"description"},{"bookId":"sr4-ghost-cartels","title":"Ghost Cartels","edition":"SR4","citation":"Textzeile 10415","purpose":"description"}]}}}},{"type":"Feature","geometry":null,"properties":{"id":33,"global_id":"hong-kong:source-place:kong-free-enterprise-zone","name":"Kong Free Enterprise Zone","aliases":[],"category":"Bezirke und Lore-Gebiete","detail_map":"Hongkong","source_pages":"Textzeile 11299","map_source":"Sixth World Almanac","placement_note":"Keine belastbare Einzelposition; Eintrag bleibt im Katalog","accuracy":"Nur Stadt oder Lore-Teilraum belegt","source_map":"source-supplement","source_panel":"Hongkong","description_preview":"Kong Free Enterprise Zone ist in Sixth World Almanac als benannter Schauplatz mit Bezug zu Hongkong belegt.","description_full":"Kong Free Enterprise Zone ist in Sixth World Almanac als benannter Schauplatz mit Bezug zu Hongkong belegt. Das Dossier fasst den belegten Quellenstand redaktionell zusammen; eine nicht belegte Kartenposition wird nicht ergänzt.","description_source":"Textzeile 11299","description_kind":"Ortsdossier","description_has_more":true,"detail_plans":[],"alternate_locations":[],"sources":[{"bookId":"sr4-sixth-world-almanac","title":"Sixth World Almanac","edition":"SR4","citation":"Textzeile 11299","purpose":"description"}],"map_sources":[],"editions":["SR4"],"edition_descriptions":{"SR4":{"kind":"Ortsdossier","preview":"Kong Free Enterprise Zone ist in Sixth World Almanac als benannter Schauplatz mit Bezug zu Hongkong belegt.","full":"Kong Free Enterprise Zone ist in Sixth World Almanac als benannter Schauplatz mit Bezug zu Hongkong belegt. Das Dossier fasst den belegten Quellenstand redaktionell zusammen; eine nicht belegte Kartenposition wird nicht ergänzt.","hasMore":true,"hasExcerpt":true,"sources":[{"bookId":"sr4-sixth-world-almanac","title":"Sixth World Almanac","edition":"SR4","citation":"Textzeile 11299","purpose":"description"}]}}}},{"type":"Feature","geometry":null,"properties":{"id":34,"global_id":"hong-kong:source-place:lantau-island","name":"Lantau Island","aliases":[],"category":"Sonstige Spots","detail_map":"Hongkong","source_pages":"Textzeile 9255","map_source":"Shadowrun 2050","placement_note":"Keine belastbare Einzelposition; Eintrag bleibt im Katalog","accuracy":"Nur Stadt oder Lore-Teilraum belegt","source_map":"source-supplement","source_panel":"Hongkong","description_preview":"Lantau Island ist in Shadowrun 2050 als benannter Schauplatz mit Bezug zu Hongkong belegt.","description_full":"Lantau Island ist in Shadowrun 2050 als benannter Schauplatz mit Bezug zu Hongkong belegt. Das Dossier fasst den belegten Quellenstand redaktionell zusammen; eine nicht belegte Kartenposition wird nicht ergänzt.","description_source":"Textzeile 9255","description_kind":"Ortsdossier","description_has_more":true,"detail_plans":[],"alternate_locations":[],"sources":[{"bookId":"sr4-shadowrun-2050","title":"Shadowrun 2050","edition":"SR4","citation":"Textzeile 9255","purpose":"description"},{"bookId":"sr5-hong-kong-neon-contrails-2050","title":"Hong Kong Neon Contrails (2050)","edition":"SR5","citation":"Textzeile 2236","purpose":"description"}],"map_sources":[],"editions":["SR4","SR5"],"edition_descriptions":{"SR4":{"kind":"Ortsdossier","preview":"Lantau Island ist in Shadowrun 2050 als benannter Schauplatz mit Bezug zu Hongkong belegt.","full":"Lantau Island ist in Shadowrun 2050 als benannter Schauplatz mit Bezug zu Hongkong belegt. Das Dossier fasst den belegten Quellenstand redaktionell zusammen; eine nicht belegte Kartenposition wird nicht ergänzt.","hasMore":true,"hasExcerpt":true,"sources":[{"bookId":"sr4-shadowrun-2050","title":"Shadowrun 2050","edition":"SR4","citation":"Textzeile 9255","purpose":"description"}]},"SR5":{"kind":"Ortsdossier","preview":"Lantau Island ist in Hong Kong Neon Contrails (2050) als benannter Schauplatz mit Bezug zu Hongkong belegt.","full":"Lantau Island ist in Hong Kong Neon Contrails (2050) als benannter Schauplatz mit Bezug zu Hongkong belegt. Das Dossier fasst den belegten Quellenstand redaktionell zusammen; eine nicht belegte Kartenposition wird nicht ergänzt.","hasMore":true,"hasExcerpt":true,"sources":[{"bookId":"sr5-hong-kong-neon-contrails-2050","title":"Hong Kong Neon Contrails (2050)","edition":"SR5","citation":"Textzeile 2236","purpose":"description"}]}}}},{"type":"Feature","geometry":null,"properties":{"id":35,"global_id":"hong-kong:source-place:lovers-stone-wanchai-causeway-district","name":"Lover’s Stone (Wanchai-Causeway District)","aliases":[],"category":"Bezirke und Lore-Gebiete","detail_map":"Hongkong","source_pages":"Textzeile 1809","map_source":"Runner Havens","placement_note":"Keine belastbare Einzelposition; Eintrag bleibt im Katalog","accuracy":"Nur Stadt oder Lore-Teilraum belegt","source_map":"source-supplement","source_panel":"Hongkong","description_preview":"Lover’s Stone (Wanchai-Causeway District) ist in Runner Havens als benannter Schauplatz mit Bezug zu Hongkong belegt.","description_full":"Lover’s Stone (Wanchai-Causeway District) ist in Runner Havens als benannter Schauplatz mit Bezug zu Hongkong belegt. Das Dossier fasst den belegten Quellenstand redaktionell zusammen; eine nicht belegte Kartenposition wird nicht ergänzt.","description_source":"Textzeile 1809","description_kind":"Ortsdossier","description_has_more":true,"detail_plans":[],"alternate_locations":[],"sources":[{"bookId":"sr4-runner-havens","title":"Runner Havens","edition":"SR4","citation":"Textzeile 1809","purpose":"description"}],"map_sources":[],"editions":["SR4"],"edition_descriptions":{"SR4":{"kind":"Ortsdossier","preview":"Lover’s Stone (Wanchai-Causeway District) ist in Runner Havens als benannter Schauplatz mit Bezug zu Hongkong belegt.","full":"Lover’s Stone (Wanchai-Causeway District) ist in Runner Havens als benannter Schauplatz mit Bezug zu Hongkong belegt. Das Dossier fasst den belegten Quellenstand redaktionell zusammen; eine nicht belegte Kartenposition wird nicht ergänzt.","hasMore":true,"hasExcerpt":true,"sources":[{"bookId":"sr4-runner-havens","title":"Runner Havens","edition":"SR4","citation":"Textzeile 1809","purpose":"description"}]}}}},{"type":"Feature","geometry":null,"properties":{"id":36,"global_id":"hong-kong:source-place:nakatomi-opera-house-wanchai-causeway-district","name":"Nakatomi Opera House (Wanchai-Causeway District)","aliases":[],"category":"Bezirke und Lore-Gebiete","detail_map":"Hongkong","source_pages":"Textzeile 1828","map_source":"Runner Havens","placement_note":"Keine belastbare Einzelposition; Eintrag bleibt im Katalog","accuracy":"Nur Stadt oder Lore-Teilraum belegt","source_map":"source-supplement","source_panel":"Hongkong","description_preview":"Nakatomi Opera House (Wanchai-Causeway District) ist in Runner Havens als benannter Schauplatz mit Bezug zu Hongkong belegt.","description_full":"Nakatomi Opera House (Wanchai-Causeway District) ist in Runner Havens als benannter Schauplatz mit Bezug zu Hongkong belegt. Das Dossier fasst den belegten Quellenstand redaktionell zusammen; eine nicht belegte Kartenposition wird nicht ergänzt.","description_source":"Textzeile 1828","description_kind":"Ortsdossier","description_has_more":true,"detail_plans":[],"alternate_locations":[],"sources":[{"bookId":"sr4-runner-havens","title":"Runner Havens","edition":"SR4","citation":"Textzeile 1828","purpose":"description"}],"map_sources":[],"editions":["SR4"],"edition_descriptions":{"SR4":{"kind":"Ortsdossier","preview":"Nakatomi Opera House (Wanchai-Causeway District) ist in Runner Havens als benannter Schauplatz mit Bezug zu Hongkong belegt.","full":"Nakatomi Opera House (Wanchai-Causeway District) ist in Runner Havens als benannter Schauplatz mit Bezug zu Hongkong belegt. Das Dossier fasst den belegten Quellenstand redaktionell zusammen; eine nicht belegte Kartenposition wird nicht ergänzt.","hasMore":true,"hasExcerpt":true,"sources":[{"bookId":"sr4-runner-havens","title":"Runner Havens","edition":"SR4","citation":"Textzeile 1828","purpose":"description"}]}}}},{"type":"Feature","geometry":null,"properties":{"id":37,"global_id":"hong-kong:source-place:the-myriad-dream-wanchai-causeway-district","name":"The Myriad Dream (Wanchai-Causeway District)","aliases":[],"category":"Bezirke und Lore-Gebiete","detail_map":"Hongkong","source_pages":"Textzeile 2504","map_source":"Runner Havens","placement_note":"Keine belastbare Einzelposition; Eintrag bleibt im Katalog","accuracy":"Nur Stadt oder Lore-Teilraum belegt","source_map":"source-supplement","source_panel":"Hongkong","description_preview":"The Myriad Dream (Wanchai-Causeway District) ist in Runner Havens als benannter Schauplatz mit Bezug zu Hongkong belegt.","description_full":"The Myriad Dream (Wanchai-Causeway District) ist in Runner Havens als benannter Schauplatz mit Bezug zu Hongkong belegt. Das Dossier fasst den belegten Quellenstand redaktionell zusammen; eine nicht belegte Kartenposition wird nicht ergänzt.","description_source":"Textzeile 2504","description_kind":"Ortsdossier","description_has_more":true,"detail_plans":[],"alternate_locations":[],"sources":[{"bookId":"sr4-runner-havens","title":"Runner Havens","edition":"SR4","citation":"Textzeile 2504","purpose":"description"}],"map_sources":[],"editions":["SR4"],"edition_descriptions":{"SR4":{"kind":"Ortsdossier","preview":"The Myriad Dream (Wanchai-Causeway District) ist in Runner Havens als benannter Schauplatz mit Bezug zu Hongkong belegt.","full":"The Myriad Dream (Wanchai-Causeway District) ist in Runner Havens als benannter Schauplatz mit Bezug zu Hongkong belegt. Das Dossier fasst den belegten Quellenstand redaktionell zusammen; eine nicht belegte Kartenposition wird nicht ergänzt.","hasMore":true,"hasExcerpt":true,"sources":[{"bookId":"sr4-runner-havens","title":"Runner Havens","edition":"SR4","citation":"Textzeile 2504","purpose":"description"}]}}}},{"type":"Feature","geometry":null,"properties":{"id":38,"global_id":"hong-kong:source-place:the-peninsula-hotel","name":"The Peninsula Hotel","aliases":[],"category":"Sonstige Spots","detail_map":"Hongkong","source_pages":"Textzeile 1129","map_source":"Dawn of the Artifacts 4 - New Dawn","placement_note":"Keine belastbare Einzelposition; Eintrag bleibt im Katalog","accuracy":"Nur Stadt oder Lore-Teilraum belegt","source_map":"source-supplement","source_panel":"Hongkong","description_preview":"The Peninsula Hotel ist in Dawn of the Artifacts 4 - New Dawn als benannter Schauplatz mit Bezug zu Hongkong belegt.","description_full":"The Peninsula Hotel ist in Dawn of the Artifacts 4 - New Dawn als benannter Schauplatz mit Bezug zu Hongkong belegt. Das Dossier fasst den belegten Quellenstand redaktionell zusammen; eine nicht belegte Kartenposition wird nicht ergänzt.","description_source":"Textzeile 1129","description_kind":"Ortsdossier","description_has_more":true,"detail_plans":[],"alternate_locations":[],"sources":[{"bookId":"sr4-dawn-of-the-artifacts-4-new-dawn","title":"Dawn of the Artifacts 4 - New Dawn","edition":"SR4","citation":"Textzeile 1129","purpose":"description"}],"map_sources":[],"editions":["SR4"],"edition_descriptions":{"SR4":{"kind":"Ortsdossier","preview":"The Peninsula Hotel ist in Dawn of the Artifacts 4 - New Dawn als benannter Schauplatz mit Bezug zu Hongkong belegt.","full":"The Peninsula Hotel ist in Dawn of the Artifacts 4 - New Dawn als benannter Schauplatz mit Bezug zu Hongkong belegt. Das Dossier fasst den belegten Quellenstand redaktionell zusammen; eine nicht belegte Kartenposition wird nicht ergänzt.","hasMore":true,"hasExcerpt":true,"sources":[{"bookId":"sr4-dawn-of-the-artifacts-4-new-dawn","title":"Dawn of the Artifacts 4 - New Dawn","edition":"SR4","citation":"Textzeile 1129","purpose":"description"}]}}}},{"type":"Feature","geometry":null,"properties":{"id":39,"global_id":"hong-kong:source-place:the-street-beat","name":"The Street Beat","aliases":[],"category":"Sonstige Spots","detail_map":"Hongkong","source_pages":"Textzeile 3048","map_source":"Runner Havens","placement_note":"Keine belastbare Einzelposition; Eintrag bleibt im Katalog","accuracy":"Nur Stadt oder Lore-Teilraum belegt","source_map":"source-supplement","source_panel":"Hongkong","description_preview":"The Street Beat ist in Runner Havens als benannter Schauplatz mit Bezug zu Hongkong belegt.","description_full":"The Street Beat ist in Runner Havens als benannter Schauplatz mit Bezug zu Hongkong belegt. Das Dossier fasst den belegten Quellenstand redaktionell zusammen; eine nicht belegte Kartenposition wird nicht ergänzt.","description_source":"Textzeile 3048","description_kind":"Ortsdossier","description_has_more":true,"detail_plans":[],"alternate_locations":[],"sources":[{"bookId":"sr4-runner-havens","title":"Runner Havens","edition":"SR4","citation":"Textzeile 3048","purpose":"description"}],"map_sources":[],"editions":["SR4"],"edition_descriptions":{"SR4":{"kind":"Ortsdossier","preview":"The Street Beat ist in Runner Havens als benannter Schauplatz mit Bezug zu Hongkong belegt.","full":"The Street Beat ist in Runner Havens als benannter Schauplatz mit Bezug zu Hongkong belegt. Das Dossier fasst den belegten Quellenstand redaktionell zusammen; eine nicht belegte Kartenposition wird nicht ergänzt.","hasMore":true,"hasExcerpt":true,"sources":[{"bookId":"sr4-runner-havens","title":"Runner Havens","edition":"SR4","citation":"Textzeile 3048","purpose":"description"}]}}}}]}
