{"type":"FeatureCollection","name":"Kairo Orte","features":[{"type":"Feature","geometry":null,"properties":{"id":8,"global_id":"kairo:place:8-al-hayat-althaania-market","name":"Al-Hayat Althaania Market","aliases":[],"category":"Einkaufen","detail_map":"Kairo","source_pages":"Althaania Market","map_source":"Risk & Rewards Cairo Campaign)","placement_note":"Keine belastbare Einzelposition; Eintrag bleibt im Katalog","accuracy":"Nur Stadt oder Lore-Teilraum belegt","source_map":"kairo-content","source_panel":"Kairo","description_preview":"Der auch Second Life Market genannte wandernde Markt bleibt jeweils nur wenige Tage in einem Stadtteil.","description_full":"Der auch Second Life Market genannte wandernde Markt bleibt jeweils nur wenige Tage in einem Stadtteil. Die Position ist auf den belegten Stadt- oder Teilraum angenähert; eine hausgenaue Lage und eine weitergehende eigene Fließtextbeschreibung sind aus dem zugeordneten Datenmaterial nicht sicher ableitbar.","description_source":"Althaania Market","description_kind":"Ortsprofil","description_has_more":true,"detail_plans":[],"alternate_locations":[],"sources":[{"bookId":"sr6-risk-rewards-cairo-campaign","title":"Risk & Rewards Cairo Campaign)","edition":"SR6","citation":"Althaania Market","purpose":"description"}],"map_sources":[],"editions":["SR6"],"edition_descriptions":{"SR6":{"kind":"Ortsprofil","preview":"Der auch Second Life Market genannte wandernde Markt bleibt jeweils nur wenige Tage in einem Stadtteil.","full":"Der auch Second Life Market genannte wandernde Markt bleibt jeweils nur wenige Tage in einem Stadtteil. Die Position ist auf den belegten Stadt- oder Teilraum angenähert; eine hausgenaue Lage und eine weitergehende eigene Fließtextbeschreibung sind aus dem zugeordneten Datenmaterial nicht sicher ableitbar.","hasMore":true,"hasExcerpt":true,"sources":[{"bookId":"sr6-risk-rewards-cairo-campaign","title":"Risk & Rewards Cairo Campaign)","edition":"SR6","citation":"Althaania Market","purpose":"description"}]}}}},{"type":"Feature","geometry":null,"properties":{"id":7,"global_id":"kairo:place:7-alhak-hospital","name":"Alhak Hospital","aliases":[],"category":"Medizin","detail_map":"Ein Shams","source_pages":"Alhak Hospital","map_source":"Risk & Rewards Cairo Campaign)","placement_note":"Keine belastbare Einzelposition; Eintrag bleibt im Katalog","accuracy":"Nur Stadt oder Lore-Teilraum belegt","source_map":"kairo-content","source_panel":"Ein Shams","description_preview":"Das geschlossene Krankenhaus war Mitsuhamas erster großer Vorstoß in den nordafrikanischen Medizinmarkt.","description_full":"Das geschlossene Krankenhaus war Mitsuhamas erster großer Vorstoß in den nordafrikanischen Medizinmarkt. Die Position ist auf den belegten Stadt- oder Teilraum angenähert; eine hausgenaue Lage und eine weitergehende eigene Fließtextbeschreibung sind aus dem zugeordneten Datenmaterial nicht sicher ableitbar.","description_source":"Alhak Hospital","description_kind":"Ortsprofil","description_has_more":true,"detail_plans":[],"alternate_locations":[],"sources":[{"bookId":"sr6-risk-rewards-cairo-campaign","title":"Risk & Rewards Cairo Campaign)","edition":"SR6","citation":"Alhak Hospital","purpose":"description"}],"map_sources":[],"editions":["SR6"],"edition_descriptions":{"SR6":{"kind":"Ortsprofil","preview":"Das geschlossene Krankenhaus war Mitsuhamas erster großer Vorstoß in den nordafrikanischen Medizinmarkt.","full":"Das geschlossene Krankenhaus war Mitsuhamas erster großer Vorstoß in den nordafrikanischen Medizinmarkt. Die Position ist auf den belegten Stadt- oder Teilraum angenähert; eine hausgenaue Lage und eine weitergehende eigene Fließtextbeschreibung sind aus dem zugeordneten Datenmaterial nicht sicher ableitbar.","hasMore":true,"hasExcerpt":true,"sources":[{"bookId":"sr6-risk-rewards-cairo-campaign","title":"Risk & Rewards Cairo Campaign)","edition":"SR6","citation":"Alhak Hospital","purpose":"description"}]}}}},{"type":"Feature","geometry":{"type":"Point","coordinates":[31.324,30.131]},"properties":{"id":1,"global_id":"kairo:place:1-ein-shams","name":"Ein Shams","aliases":[],"category":"Bezirke","detail_map":"Ein Shams","source_pages":"Ein Shams","map_source":"Risk & Rewards Cairo Campaign)","placement_note":"Geografischer Bezugspunkt des Lore-Distrikts Ein Shams","accuracy":"Lore-Bezirkszentrum; Grenzpolygon noch nicht georeferenziert","source_map":"kairo-content","source_panel":"Ein Shams","description_preview":"Ein Shams liegt nordwestlich des Flughafens und ist ein dicht bebautes Gebiet mit niedrigen Einkommen und starker Gangpräsenz.","description_full":"Ein Shams liegt nordwestlich des Flughafens und ist ein dicht bebautes Gebiet mit niedrigen Einkommen und starker Gangpräsenz. Die Position ist auf den belegten Stadt- oder Teilraum angenähert; eine hausgenaue Lage und eine weitergehende eigene Fließtextbeschreibung sind aus dem zugeordneten Datenmaterial nicht sicher ableitbar.","description_source":"Ein Shams","description_kind":"Ortsprofil","description_has_more":true,"detail_plans":[],"alternate_locations":[],"sources":[{"bookId":"sr6-risk-rewards-cairo-campaign","title":"Risk & Rewards Cairo Campaign)","edition":"SR6","citation":"Ein Shams","purpose":"description"}],"map_sources":[],"editions":["SR6"],"edition_descriptions":{"SR6":{"kind":"Ortsprofil","preview":"Ein Shams liegt nordwestlich des Flughafens und ist ein dicht bebautes Gebiet mit niedrigen Einkommen und starker Gangpräsenz.","full":"Ein Shams liegt nordwestlich des Flughafens und ist ein dicht bebautes Gebiet mit niedrigen Einkommen und starker Gangpräsenz. Die Position ist auf den belegten Stadt- oder Teilraum angenähert; eine hausgenaue Lage und eine weitergehende eigene Fließtextbeschreibung sind aus dem zugeordneten Datenmaterial nicht sicher ableitbar.","hasMore":true,"hasExcerpt":true,"sources":[{"bookId":"sr6-risk-rewards-cairo-campaign","title":"Risk & Rewards Cairo Campaign)","edition":"SR6","citation":"Ein Shams","purpose":"description"}]}}}},{"type":"Feature","geometry":{"type":"Point","coordinates":[31.323,30.091]},"properties":{"id":2,"global_id":"kairo:place:2-el-korba","name":"El Korba","aliases":[],"category":"Bezirke","detail_map":"El Korba","source_pages":"El Korba","map_source":"Risk & Rewards Cairo Campaign)","placement_note":"Geografischer Bezugspunkt des Lore-Distrikts El Korba","accuracy":"Lore-Bezirkszentrum; Grenzpolygon noch nicht georeferenziert","source_map":"kairo-content","source_panel":"El Korba","description_preview":"El Korba verbindet historische und moderne Architektur und gilt als besonders markantes Stadtviertel.","description_full":"El Korba verbindet historische und moderne Architektur und gilt als besonders markantes Stadtviertel. Die Position ist auf den belegten Stadt- oder Teilraum angenähert; eine hausgenaue Lage und eine weitergehende eigene Fließtextbeschreibung sind aus dem zugeordneten Datenmaterial nicht sicher ableitbar.","description_source":"El Korba","description_kind":"Ortsprofil","description_has_more":true,"detail_plans":[],"alternate_locations":[],"sources":[{"bookId":"sr6-risk-rewards-cairo-campaign","title":"Risk & Rewards Cairo Campaign)","edition":"SR6","citation":"El Korba","purpose":"description"}],"map_sources":[],"editions":["SR6"],"edition_descriptions":{"SR6":{"kind":"Ortsprofil","preview":"El Korba verbindet historische und moderne Architektur und gilt als besonders markantes Stadtviertel.","full":"El Korba verbindet historische und moderne Architektur und gilt als besonders markantes Stadtviertel. Die Position ist auf den belegten Stadt- oder Teilraum angenähert; eine hausgenaue Lage und eine weitergehende eigene Fließtextbeschreibung sind aus dem zugeordneten Datenmaterial nicht sicher ableitbar.","hasMore":true,"hasExcerpt":true,"sources":[{"bookId":"sr6-risk-rewards-cairo-campaign","title":"Risk & Rewards Cairo Campaign)","edition":"SR6","citation":"El Korba","purpose":"description"}]}}}},{"type":"Feature","geometry":null,"properties":{"id":9,"global_id":"kairo:place:9-emsat-nasr-city-office","name":"EmSat Nasr City Office","aliases":[],"category":"Konzerne","detail_map":"Nasr City","source_pages":"EmSat Nasr City Office","map_source":"Risk & Rewards Cairo Campaign)","placement_note":"Keine belastbare Einzelposition; Eintrag bleibt im Katalog","accuracy":"Nur Stadt oder Lore-Teilraum belegt","source_map":"kairo-content","source_panel":"Nasr City","description_preview":"Der hoch aufragende EmSat-Standort ist ein regionales Kommunikationszentrum.","description_full":"Der hoch aufragende EmSat-Standort ist ein regionales Kommunikationszentrum. Die Position ist auf den belegten Stadt- oder Teilraum angenähert; eine hausgenaue Lage und eine weitergehende eigene Fließtextbeschreibung sind aus dem zugeordneten Datenmaterial nicht sicher ableitbar.","description_source":"EmSat Nasr City Office","description_kind":"Ortsprofil","description_has_more":true,"detail_plans":[],"alternate_locations":[],"sources":[{"bookId":"sr6-risk-rewards-cairo-campaign","title":"Risk & Rewards Cairo Campaign)","edition":"SR6","citation":"EmSat Nasr City Office","purpose":"description"}],"map_sources":[],"editions":["SR6"],"edition_descriptions":{"SR6":{"kind":"Ortsprofil","preview":"Der hoch aufragende EmSat-Standort ist ein regionales Kommunikationszentrum.","full":"Der hoch aufragende EmSat-Standort ist ein regionales Kommunikationszentrum. Die Position ist auf den belegten Stadt- oder Teilraum angenähert; eine hausgenaue Lage und eine weitergehende eigene Fließtextbeschreibung sind aus dem zugeordneten Datenmaterial nicht sicher ableitbar.","hasMore":true,"hasExcerpt":true,"sources":[{"bookId":"sr6-risk-rewards-cairo-campaign","title":"Risk & Rewards Cairo Campaign)","edition":"SR6","citation":"EmSat Nasr City Office","purpose":"description"}]}}}},{"type":"Feature","geometry":null,"properties":{"id":10,"global_id":"kairo:place:10-equinox","name":"Equinox","aliases":[],"category":"Bars und Clubs","detail_map":"Kairo","source_pages":"Equinox","map_source":"Risk & Rewards Cairo Campaign)","placement_note":"Keine belastbare Einzelposition; Eintrag bleibt im Katalog","accuracy":"Nur Stadt oder Lore-Teilraum belegt","source_map":"kairo-content","source_panel":"Kairo","description_preview":"Equinox ist ein rund um die Uhr geöffneter, mehrgeschossiger Untergrundclub am Rand des Kernsprawls.","description_full":"Equinox ist ein rund um die Uhr geöffneter, mehrgeschossiger Untergrundclub am Rand des Kernsprawls. Die Position ist auf den belegten Stadt- oder Teilraum angenähert; eine hausgenaue Lage und eine weitergehende eigene Fließtextbeschreibung sind aus dem zugeordneten Datenmaterial nicht sicher ableitbar.","description_source":"Equinox","description_kind":"Ortsprofil","description_has_more":true,"detail_plans":[],"alternate_locations":[],"sources":[{"bookId":"sr6-risk-rewards-cairo-campaign","title":"Risk & Rewards Cairo Campaign)","edition":"SR6","citation":"Equinox","purpose":"description"}],"map_sources":[],"editions":["SR6"],"edition_descriptions":{"SR6":{"kind":"Ortsprofil","preview":"Equinox ist ein rund um die Uhr geöffneter, mehrgeschossiger Untergrundclub am Rand des Kernsprawls.","full":"Equinox ist ein rund um die Uhr geöffneter, mehrgeschossiger Untergrundclub am Rand des Kernsprawls. Die Position ist auf den belegten Stadt- oder Teilraum angenähert; eine hausgenaue Lage und eine weitergehende eigene Fließtextbeschreibung sind aus dem zugeordneten Datenmaterial nicht sicher ableitbar.","hasMore":true,"hasExcerpt":true,"sources":[{"bookId":"sr6-risk-rewards-cairo-campaign","title":"Risk & Rewards Cairo Campaign)","edition":"SR6","citation":"Equinox","purpose":"description"}]}}}},{"type":"Feature","geometry":null,"properties":{"id":11,"global_id":"kairo:place:11-gnostic-medicine","name":"Gnostic Medicine","aliases":[],"category":"Medizin","detail_map":"Kairo","source_pages":"Gnostic Medicine","map_source":"Risk & Rewards Cairo Campaign)","placement_note":"Keine belastbare Einzelposition; Eintrag bleibt im Katalog","accuracy":"Nur Stadt oder Lore-Teilraum belegt","source_map":"kairo-content","source_panel":"Kairo","description_preview":"Die kleine medizinische Sammlung dokumentiert die Geschichte gnostischer Heilkunst.","description_full":"Die kleine medizinische Sammlung dokumentiert die Geschichte gnostischer Heilkunst. Die Position ist auf den belegten Stadt- oder Teilraum angenähert; eine hausgenaue Lage und eine weitergehende eigene Fließtextbeschreibung sind aus dem zugeordneten Datenmaterial nicht sicher ableitbar.","description_source":"Gnostic Medicine","description_kind":"Ortsprofil","description_has_more":true,"detail_plans":[],"alternate_locations":[],"sources":[{"bookId":"sr6-risk-rewards-cairo-campaign","title":"Risk & Rewards Cairo Campaign)","edition":"SR6","citation":"Gnostic Medicine","purpose":"description"}],"map_sources":[],"editions":["SR6"],"edition_descriptions":{"SR6":{"kind":"Ortsprofil","preview":"Die kleine medizinische Sammlung dokumentiert die Geschichte gnostischer Heilkunst.","full":"Die kleine medizinische Sammlung dokumentiert die Geschichte gnostischer Heilkunst. Die Position ist auf den belegten Stadt- oder Teilraum angenähert; eine hausgenaue Lage und eine weitergehende eigene Fließtextbeschreibung sind aus dem zugeordneten Datenmaterial nicht sicher ableitbar.","hasMore":true,"hasExcerpt":true,"sources":[{"bookId":"sr6-risk-rewards-cairo-campaign","title":"Risk & Rewards Cairo Campaign)","edition":"SR6","citation":"Gnostic Medicine","purpose":"description"}]}}}},{"type":"Feature","geometry":null,"properties":{"id":12,"global_id":"kairo:place:12-golden-frond-hotel","name":"Golden Frond Hotel","aliases":[],"category":"Hotels","detail_map":"Nasr City","source_pages":"Golden Frond Hotel","map_source":"Risk & Rewards Cairo Campaign)","placement_note":"Keine belastbare Einzelposition; Eintrag bleibt im Katalog","accuracy":"Nur Stadt oder Lore-Teilraum belegt","source_map":"kairo-content","source_panel":"Nasr City","description_preview":"Das Resort- und Konferenzhotel richtet sich an wohlhabende und einflussreiche Gäste.","description_full":"Das Resort- und Konferenzhotel richtet sich an wohlhabende und einflussreiche Gäste. Die Position ist auf den belegten Stadt- oder Teilraum angenähert; eine hausgenaue Lage und eine weitergehende eigene Fließtextbeschreibung sind aus dem zugeordneten Datenmaterial nicht sicher ableitbar.","description_source":"Golden Frond Hotel","description_kind":"Ortsprofil","description_has_more":true,"detail_plans":[],"alternate_locations":[],"sources":[{"bookId":"sr6-risk-rewards-cairo-campaign","title":"Risk & Rewards Cairo Campaign)","edition":"SR6","citation":"Golden Frond Hotel","purpose":"description"}],"map_sources":[],"editions":["SR6"],"edition_descriptions":{"SR6":{"kind":"Ortsprofil","preview":"Das Resort- und Konferenzhotel richtet sich an wohlhabende und einflussreiche Gäste.","full":"Das Resort- und Konferenzhotel richtet sich an wohlhabende und einflussreiche Gäste. Die Position ist auf den belegten Stadt- oder Teilraum angenähert; eine hausgenaue Lage und eine weitergehende eigene Fließtextbeschreibung sind aus dem zugeordneten Datenmaterial nicht sicher ableitbar.","hasMore":true,"hasExcerpt":true,"sources":[{"bookId":"sr6-risk-rewards-cairo-campaign","title":"Risk & Rewards Cairo Campaign)","edition":"SR6","citation":"Golden Frond Hotel","purpose":"description"}]}}}},{"type":"Feature","geometry":{"type":"Point","coordinates":[31.232,30.034]},"properties":{"id":13,"global_id":"kairo:place:13-grand-nile-tower","name":"Grand Nile Tower","aliases":[],"category":"Hotels","detail_map":"Kairo","source_pages":"Grand Nile Tower","map_source":"Risk & Rewards Cairo Campaign)","placement_note":"Erhaltener geographischer Bezugspunkt","accuracy":"Geographischer Bezugspunkt","source_map":"kairo-content","source_panel":"Kairo","description_preview":"Der traditionsreiche Luxushotelturm ist ein Wahrzeichen am Nilufer.","description_full":"Der traditionsreiche Luxushotelturm ist ein Wahrzeichen am Nilufer. Die Position folgt einem erhaltenen heutigen Bezugspunkt.","description_source":"Grand Nile Tower","description_kind":"Ortsprofil","description_has_more":true,"detail_plans":[],"alternate_locations":[],"sources":[{"bookId":"sr6-risk-rewards-cairo-campaign","title":"Risk & Rewards Cairo Campaign)","edition":"SR6","citation":"Grand Nile Tower","purpose":"description"}],"map_sources":[],"editions":["SR6"],"edition_descriptions":{"SR6":{"kind":"Ortsprofil","preview":"Der traditionsreiche Luxushotelturm ist ein Wahrzeichen am Nilufer.","full":"Der traditionsreiche Luxushotelturm ist ein Wahrzeichen am Nilufer. Die Position folgt einem erhaltenen heutigen Bezugspunkt.","hasMore":true,"hasExcerpt":true,"sources":[{"bookId":"sr6-risk-rewards-cairo-campaign","title":"Risk & Rewards Cairo Campaign)","edition":"SR6","citation":"Grand Nile Tower","purpose":"description"}]}}}},{"type":"Feature","geometry":{"type":"Point","coordinates":[31.304,30.02]},"properties":{"id":3,"global_id":"kairo:place:3-mokattam","name":"Mokattam","aliases":[],"category":"Bezirke","detail_map":"Mokattam","source_pages":"Mokattam","map_source":"Risk & Rewards Cairo Campaign)","placement_note":"Geografischer Bezugspunkt des Lore-Distrikts Mokattam","accuracy":"Lore-Bezirkszentrum; Grenzpolygon noch nicht georeferenziert","source_map":"kairo-content","source_panel":"Mokattam","description_preview":"Mokattam liegt auf den Höhen östlich des Zentrums und besitzt starke magische Bezüge.","description_full":"Mokattam liegt auf den Höhen östlich des Zentrums und besitzt starke magische Bezüge. Die Position ist auf den belegten Stadt- oder Teilraum angenähert; eine hausgenaue Lage und eine weitergehende eigene Fließtextbeschreibung sind aus dem zugeordneten Datenmaterial nicht sicher ableitbar.","description_source":"Mokattam","description_kind":"Ortsprofil","description_has_more":true,"detail_plans":[],"alternate_locations":[],"sources":[{"bookId":"sr6-risk-rewards-cairo-campaign","title":"Risk & Rewards Cairo Campaign)","edition":"SR6","citation":"Mokattam","purpose":"description"}],"map_sources":[],"editions":["SR6"],"edition_descriptions":{"SR6":{"kind":"Ortsprofil","preview":"Mokattam liegt auf den Höhen östlich des Zentrums und besitzt starke magische Bezüge.","full":"Mokattam liegt auf den Höhen östlich des Zentrums und besitzt starke magische Bezüge. Die Position ist auf den belegten Stadt- oder Teilraum angenähert; eine hausgenaue Lage und eine weitergehende eigene Fließtextbeschreibung sind aus dem zugeordneten Datenmaterial nicht sicher ableitbar.","hasMore":true,"hasExcerpt":true,"sources":[{"bookId":"sr6-risk-rewards-cairo-campaign","title":"Risk & Rewards Cairo Campaign)","edition":"SR6","citation":"Mokattam","purpose":"description"}]}}}},{"type":"Feature","geometry":null,"properties":{"id":14,"global_id":"kairo:place:14-museum-of-cairo","name":"Museum of Cairo","aliases":[],"category":"Bildung und Kultur","detail_map":"Kairo","source_pages":"Museum of Cairo","map_source":"Risk & Rewards Cairo Campaign)","placement_note":"Keine belastbare Einzelposition; Eintrag bleibt im Katalog","accuracy":"Nur Stadt oder Lore-Teilraum belegt","source_map":"kairo-content","source_panel":"Kairo","description_preview":"Das Museum bewahrt bedeutende Relikte der ägyptischen Geschichte.","description_full":"Das Museum bewahrt bedeutende Relikte der ägyptischen Geschichte. Die Position ist auf den belegten Stadt- oder Teilraum angenähert; eine hausgenaue Lage und eine weitergehende eigene Fließtextbeschreibung sind aus dem zugeordneten Datenmaterial nicht sicher ableitbar.","description_source":"Museum of Cairo","description_kind":"Ortsprofil","description_has_more":true,"detail_plans":[],"alternate_locations":[],"sources":[{"bookId":"sr6-risk-rewards-cairo-campaign","title":"Risk & Rewards Cairo Campaign)","edition":"SR6","citation":"Museum of Cairo","purpose":"description"}],"map_sources":[],"editions":["SR6"],"edition_descriptions":{"SR6":{"kind":"Ortsprofil","preview":"Das Museum bewahrt bedeutende Relikte der ägyptischen Geschichte.","full":"Das Museum bewahrt bedeutende Relikte der ägyptischen Geschichte. Die Position ist auf den belegten Stadt- oder Teilraum angenähert; eine hausgenaue Lage und eine weitergehende eigene Fließtextbeschreibung sind aus dem zugeordneten Datenmaterial nicht sicher ableitbar.","hasMore":true,"hasExcerpt":true,"sources":[{"bookId":"sr6-risk-rewards-cairo-campaign","title":"Risk & Rewards Cairo Campaign)","edition":"SR6","citation":"Museum of Cairo","purpose":"description"}]}}}},{"type":"Feature","geometry":{"type":"Point","coordinates":[31.23,30.006]},"properties":{"id":4,"global_id":"kairo:place:4-old-cairo","name":"Old Cairo","aliases":[],"category":"Bezirke","detail_map":"Old Cairo","source_pages":"Old Cairo","map_source":"Risk & Rewards Cairo Campaign)","placement_note":"Geografischer Bezugspunkt des Lore-Distrikts Old Cairo","accuracy":"Lore-Bezirkszentrum; Grenzpolygon noch nicht georeferenziert","source_map":"kairo-content","source_panel":"Old Cairo","description_preview":"Old Cairo fasst die historisch gewachsenen Viertel und ihre religiösen und kulturellen Konflikte zusammen.","description_full":"Old Cairo fasst die historisch gewachsenen Viertel und ihre religiösen und kulturellen Konflikte zusammen. Die Position ist auf den belegten Stadt- oder Teilraum angenähert; eine hausgenaue Lage und eine weitergehende eigene Fließtextbeschreibung sind aus dem zugeordneten Datenmaterial nicht sicher ableitbar.","description_source":"Old Cairo","description_kind":"Ortsprofil","description_has_more":true,"detail_plans":[],"alternate_locations":[],"sources":[{"bookId":"sr6-risk-rewards-cairo-campaign","title":"Risk & Rewards Cairo Campaign)","edition":"SR6","citation":"Old Cairo","purpose":"description"}],"map_sources":[],"editions":["SR6"],"edition_descriptions":{"SR6":{"kind":"Ortsprofil","preview":"Old Cairo fasst die historisch gewachsenen Viertel und ihre religiösen und kulturellen Konflikte zusammen.","full":"Old Cairo fasst die historisch gewachsenen Viertel und ihre religiösen und kulturellen Konflikte zusammen. Die Position ist auf den belegten Stadt- oder Teilraum angenähert; eine hausgenaue Lage und eine weitergehende eigene Fließtextbeschreibung sind aus dem zugeordneten Datenmaterial nicht sicher ableitbar.","hasMore":true,"hasExcerpt":true,"sources":[{"bookId":"sr6-risk-rewards-cairo-campaign","title":"Risk & Rewards Cairo Campaign)","edition":"SR6","citation":"Old Cairo","purpose":"description"}]}}}},{"type":"Feature","geometry":null,"properties":{"id":15,"global_id":"kairo:place:15-ptahs-spire","name":"Ptah’s Spire","aliases":[],"category":"Wohnen","detail_map":"El Khalafawy","source_pages":"Ptah’s Spire","map_source":"Risk & Rewards Cairo Campaign)","placement_note":"Keine belastbare Einzelposition; Eintrag bleibt im Katalog","accuracy":"Nur Stadt oder Lore-Teilraum belegt","source_map":"kairo-content","source_panel":"El Khalafawy","description_preview":"Der gesicherte Wohnturm besitzt ein Landedeck und liegt nahe dem El-Khalafawy-Platz.","description_full":"Der gesicherte Wohnturm besitzt ein Landedeck und liegt nahe dem El-Khalafawy-Platz. Die Position ist auf den belegten Stadt- oder Teilraum angenähert; eine hausgenaue Lage und eine weitergehende eigene Fließtextbeschreibung sind aus dem zugeordneten Datenmaterial nicht sicher ableitbar.","description_source":"Ptah’s Spire","description_kind":"Ortsprofil","description_has_more":true,"detail_plans":[],"alternate_locations":[],"sources":[{"bookId":"sr6-risk-rewards-cairo-campaign","title":"Risk & Rewards Cairo Campaign)","edition":"SR6","citation":"Ptah’s Spire","purpose":"description"}],"map_sources":[],"editions":["SR6"],"edition_descriptions":{"SR6":{"kind":"Ortsprofil","preview":"Der gesicherte Wohnturm besitzt ein Landedeck und liegt nahe dem El-Khalafawy-Platz.","full":"Der gesicherte Wohnturm besitzt ein Landedeck und liegt nahe dem El-Khalafawy-Platz. Die Position ist auf den belegten Stadt- oder Teilraum angenähert; eine hausgenaue Lage und eine weitergehende eigene Fließtextbeschreibung sind aus dem zugeordneten Datenmaterial nicht sicher ableitbar.","hasMore":true,"hasExcerpt":true,"sources":[{"bookId":"sr6-risk-rewards-cairo-campaign","title":"Risk & Rewards Cairo Campaign)","edition":"SR6","citation":"Ptah’s Spire","purpose":"description"}]}}}},{"type":"Feature","geometry":null,"properties":{"id":16,"global_id":"kairo:place:16-ramses-plate","name":"Ramses Plate","aliases":[],"category":"Restaurants","detail_map":"Kairo","source_pages":"Ramses Plate","map_source":"Risk & Rewards Cairo Campaign)","placement_note":"Keine belastbare Einzelposition; Eintrag bleibt im Katalog","accuracy":"Nur Stadt oder Lore-Teilraum belegt","source_map":"kairo-content","source_panel":"Kairo","description_preview":"Das Restaurant verfügt über private Speiseräume und dient als diskreter Treffpunkt.","description_full":"Das Restaurant verfügt über private Speiseräume und dient als diskreter Treffpunkt. Die Position ist auf den belegten Stadt- oder Teilraum angenähert; eine hausgenaue Lage und eine weitergehende eigene Fließtextbeschreibung sind aus dem zugeordneten Datenmaterial nicht sicher ableitbar.","description_source":"Ramses Plate","description_kind":"Ortsprofil","description_has_more":true,"detail_plans":[],"alternate_locations":[],"sources":[{"bookId":"sr6-risk-rewards-cairo-campaign","title":"Risk & Rewards Cairo Campaign)","edition":"SR6","citation":"Ramses Plate","purpose":"description"}],"map_sources":[],"editions":["SR6"],"edition_descriptions":{"SR6":{"kind":"Ortsprofil","preview":"Das Restaurant verfügt über private Speiseräume und dient als diskreter Treffpunkt.","full":"Das Restaurant verfügt über private Speiseräume und dient als diskreter Treffpunkt. Die Position ist auf den belegten Stadt- oder Teilraum angenähert; eine hausgenaue Lage und eine weitergehende eigene Fließtextbeschreibung sind aus dem zugeordneten Datenmaterial nicht sicher ableitbar.","hasMore":true,"hasExcerpt":true,"sources":[{"bookId":"sr6-risk-rewards-cairo-campaign","title":"Risk & Rewards Cairo Campaign)","edition":"SR6","citation":"Ramses Plate","purpose":"description"}]}}}},{"type":"Feature","geometry":{"type":"Point","coordinates":[31.247,30.063]},"properties":{"id":17,"global_id":"kairo:place:17-ramses-station","name":"Ramses Station","aliases":[],"category":"Verkehr","detail_map":"Kairo","source_pages":"Ramses Station","map_source":"Dawn of the Artifacts 5 - Artifacts Unbound","placement_note":"Erhaltener geographischer Bezugspunkt","accuracy":"Geographischer Bezugspunkt","source_map":"kairo-content","source_panel":"Kairo","description_preview":"Der zentrale Bahnhof ist ein wichtiger Verkehrs- und Übergangspunkt.","description_full":"Der zentrale Bahnhof ist ein wichtiger Verkehrs- und Übergangspunkt. Die Position folgt einem erhaltenen heutigen Bezugspunkt.","description_source":"Ramses Station","description_kind":"Ortsprofil","description_has_more":true,"detail_plans":[],"alternate_locations":[],"sources":[{"bookId":"sr4-dawn-of-the-artifacts-5-artifacts-unbound","title":"Dawn of the Artifacts 5 - Artifacts Unbound","edition":"SR4","citation":"Ramses Station","purpose":"description"}],"map_sources":[],"editions":["SR4"],"edition_descriptions":{"SR4":{"kind":"Ortsprofil","preview":"Der zentrale Bahnhof ist ein wichtiger Verkehrs- und Übergangspunkt.","full":"Der zentrale Bahnhof ist ein wichtiger Verkehrs- und Übergangspunkt. Die Position folgt einem erhaltenen heutigen Bezugspunkt.","hasMore":true,"hasExcerpt":true,"sources":[{"bookId":"sr4-dawn-of-the-artifacts-5-artifacts-unbound","title":"Dawn of the Artifacts 5 - Artifacts Unbound","edition":"SR4","citation":"Ramses Station","purpose":"description"}]}}}},{"type":"Feature","geometry":null,"properties":{"id":18,"global_id":"kairo:place:18-red-sunrise-bar","name":"Red Sunrise Bar","aliases":[],"category":"Bars und Kneipen","detail_map":"Al Marj","source_pages":"Casanova’s Job","map_source":"Risk & Rewards Cairo Campaign)","placement_note":"Keine belastbare Einzelposition; Eintrag bleibt im Katalog","accuracy":"Nur Stadt oder Lore-Teilraum belegt","source_map":"kairo-content","source_panel":"Al Marj","description_preview":"Die Red Sunrise Bar ist ein Treffpunkt für Fixer und Auftraggeber im nördlichen Sprawl.","description_full":"Die Red Sunrise Bar ist ein Treffpunkt für Fixer und Auftraggeber im nördlichen Sprawl. Die Position ist auf den belegten Stadt- oder Teilraum angenähert; eine hausgenaue Lage und eine weitergehende eigene Fließtextbeschreibung sind aus dem zugeordneten Datenmaterial nicht sicher ableitbar.","description_source":"Casanova’s Job","description_kind":"Ortsprofil","description_has_more":true,"detail_plans":[],"alternate_locations":[],"sources":[{"bookId":"sr6-risk-rewards-cairo-campaign","title":"Risk & Rewards Cairo Campaign)","edition":"SR6","citation":"Casanova’s Job","purpose":"description"}],"map_sources":[],"editions":["SR6"],"edition_descriptions":{"SR6":{"kind":"Ortsprofil","preview":"Die Red Sunrise Bar ist ein Treffpunkt für Fixer und Auftraggeber im nördlichen Sprawl.","full":"Die Red Sunrise Bar ist ein Treffpunkt für Fixer und Auftraggeber im nördlichen Sprawl. Die Position ist auf den belegten Stadt- oder Teilraum angenähert; eine hausgenaue Lage und eine weitergehende eigene Fließtextbeschreibung sind aus dem zugeordneten Datenmaterial nicht sicher ableitbar.","hasMore":true,"hasExcerpt":true,"sources":[{"bookId":"sr6-risk-rewards-cairo-campaign","title":"Risk & Rewards Cairo Campaign)","edition":"SR6","citation":"Casanova’s Job","purpose":"description"}]}}}},{"type":"Feature","geometry":{"type":"Point","coordinates":[30.8957,30.1081]},"properties":{"id":19,"global_id":"kairo:place:19-sphinx-airport","name":"Sphinx Airport","aliases":[],"category":"Verkehr","detail_map":"Westkairo","source_pages":"Sphinx Airport","map_source":"Risk & Rewards Cairo Campaign)","placement_note":"Erhaltener geographischer Bezugspunkt","accuracy":"Geographischer Bezugspunkt","source_map":"kairo-content","source_panel":"Westkairo","description_preview":"Der westliche internationale Flughafen bedient Linien-, Privat- und Frachtverkehr.","description_full":"Der westliche internationale Flughafen bedient Linien-, Privat- und Frachtverkehr. Die Position folgt einem erhaltenen heutigen Bezugspunkt.","description_source":"Sphinx Airport","description_kind":"Ortsprofil","description_has_more":true,"detail_plans":[],"alternate_locations":[],"sources":[{"bookId":"sr6-risk-rewards-cairo-campaign","title":"Risk & Rewards Cairo Campaign)","edition":"SR6","citation":"Sphinx Airport","purpose":"description"}],"map_sources":[],"editions":["SR6"],"edition_descriptions":{"SR6":{"kind":"Ortsprofil","preview":"Der westliche internationale Flughafen bedient Linien-, Privat- und Frachtverkehr.","full":"Der westliche internationale Flughafen bedient Linien-, Privat- und Frachtverkehr. Die Position folgt einem erhaltenen heutigen Bezugspunkt.","hasMore":true,"hasExcerpt":true,"sources":[{"bookId":"sr6-risk-rewards-cairo-campaign","title":"Risk & Rewards Cairo Campaign)","edition":"SR6","citation":"Sphinx Airport","purpose":"description"}]}}}},{"type":"Feature","geometry":null,"properties":{"id":20,"global_id":"kairo:place:20-the-garden-of-plenty","name":"The Garden of Plenty","aliases":[],"category":"Freizeit und Natur","detail_map":"Kairo","source_pages":"The Garden of Plenty","map_source":"Risk & Rewards Cairo Campaign)","placement_note":"Keine belastbare Einzelposition; Eintrag bleibt im Katalog","accuracy":"Nur Stadt oder Lore-Teilraum belegt","source_map":"kairo-content","source_panel":"Kairo","description_preview":"Der Garten ist ein benannter Schauplatz der Kairo-Kampagne.","description_full":"Der Garten ist ein benannter Schauplatz der Kairo-Kampagne. Die Position ist auf den belegten Stadt- oder Teilraum angenähert; eine hausgenaue Lage und eine weitergehende eigene Fließtextbeschreibung sind aus dem zugeordneten Datenmaterial nicht sicher ableitbar.","description_source":"The Garden of Plenty","description_kind":"Ortsprofil","description_has_more":true,"detail_plans":[],"alternate_locations":[],"sources":[{"bookId":"sr6-risk-rewards-cairo-campaign","title":"Risk & Rewards Cairo Campaign)","edition":"SR6","citation":"The Garden of Plenty","purpose":"description"}],"map_sources":[],"editions":["SR6"],"edition_descriptions":{"SR6":{"kind":"Ortsprofil","preview":"Der Garten ist ein benannter Schauplatz der Kairo-Kampagne.","full":"Der Garten ist ein benannter Schauplatz der Kairo-Kampagne. Die Position ist auf den belegten Stadt- oder Teilraum angenähert; eine hausgenaue Lage und eine weitergehende eigene Fließtextbeschreibung sind aus dem zugeordneten Datenmaterial nicht sicher ableitbar.","hasMore":true,"hasExcerpt":true,"sources":[{"bookId":"sr6-risk-rewards-cairo-campaign","title":"Risk & Rewards Cairo Campaign)","edition":"SR6","citation":"The Garden of Plenty","purpose":"description"}]}}}},{"type":"Feature","geometry":null,"properties":{"id":21,"global_id":"kairo:place:21-the-night-souk","name":"The Night Souk","aliases":[],"category":"Einkaufen","detail_map":"Kairo","source_pages":"The Night Souk","map_source":"Risk & Rewards Cairo Campaign)","placement_note":"Keine belastbare Einzelposition; Eintrag bleibt im Katalog","accuracy":"Nur Stadt oder Lore-Teilraum belegt","source_map":"kairo-content","source_panel":"Kairo","description_preview":"Der Nachtmarkt gehört zu den wichtigen Handels- und Kontaktorten des Sprawls.","description_full":"Der Nachtmarkt gehört zu den wichtigen Handels- und Kontaktorten des Sprawls. Die Position ist auf den belegten Stadt- oder Teilraum angenähert; eine hausgenaue Lage und eine weitergehende eigene Fließtextbeschreibung sind aus dem zugeordneten Datenmaterial nicht sicher ableitbar.","description_source":"The Night Souk","description_kind":"Ortsprofil","description_has_more":true,"detail_plans":[],"alternate_locations":[],"sources":[{"bookId":"sr6-risk-rewards-cairo-campaign","title":"Risk & Rewards Cairo Campaign)","edition":"SR6","citation":"The Night Souk","purpose":"description"}],"map_sources":[],"editions":["SR6"],"edition_descriptions":{"SR6":{"kind":"Ortsprofil","preview":"Der Nachtmarkt gehört zu den wichtigen Handels- und Kontaktorten des Sprawls.","full":"Der Nachtmarkt gehört zu den wichtigen Handels- und Kontaktorten des Sprawls. Die Position ist auf den belegten Stadt- oder Teilraum angenähert; eine hausgenaue Lage und eine weitergehende eigene Fließtextbeschreibung sind aus dem zugeordneten Datenmaterial nicht sicher ableitbar.","hasMore":true,"hasExcerpt":true,"sources":[{"bookId":"sr6-risk-rewards-cairo-campaign","title":"Risk & Rewards Cairo Campaign)","edition":"SR6","citation":"The Night Souk","purpose":"description"}]}}}},{"type":"Feature","geometry":null,"properties":{"id":22,"global_id":"kairo:place:22-the-well-of-ptah","name":"The Well of Ptah","aliases":[],"category":"Religion und Magie","detail_map":"Mit Rahina","source_pages":"The Well of Ptah","map_source":"Risk & Rewards Cairo Campaign)","placement_note":"Keine belastbare Einzelposition; Eintrag bleibt im Katalog","accuracy":"Nur Stadt oder Lore-Teilraum belegt","source_map":"kairo-content","source_panel":"Mit Rahina","description_preview":"Ein ehemaliges Versteck des Isis-Kults wurde zu einem kleinen Ptah-Tempel umgebaut.","description_full":"Ein ehemaliges Versteck des Isis-Kults wurde zu einem kleinen Ptah-Tempel umgebaut. Die Position ist auf den belegten Stadt- oder Teilraum angenähert; eine hausgenaue Lage und eine weitergehende eigene Fließtextbeschreibung sind aus dem zugeordneten Datenmaterial nicht sicher ableitbar.","description_source":"The Well of Ptah","description_kind":"Ortsprofil","description_has_more":true,"detail_plans":[],"alternate_locations":[],"sources":[{"bookId":"sr6-risk-rewards-cairo-campaign","title":"Risk & Rewards Cairo Campaign)","edition":"SR6","citation":"The Well of Ptah","purpose":"description"}],"map_sources":[],"editions":["SR6"],"edition_descriptions":{"SR6":{"kind":"Ortsprofil","preview":"Ein ehemaliges Versteck des Isis-Kults wurde zu einem kleinen Ptah-Tempel umgebaut.","full":"Ein ehemaliges Versteck des Isis-Kults wurde zu einem kleinen Ptah-Tempel umgebaut. Die Position ist auf den belegten Stadt- oder Teilraum angenähert; eine hausgenaue Lage und eine weitergehende eigene Fließtextbeschreibung sind aus dem zugeordneten Datenmaterial nicht sicher ableitbar.","hasMore":true,"hasExcerpt":true,"sources":[{"bookId":"sr6-risk-rewards-cairo-campaign","title":"Risk & Rewards Cairo Campaign)","edition":"SR6","citation":"The Well of Ptah","purpose":"description"}]}}}},{"type":"Feature","geometry":null,"properties":{"id":23,"global_id":"kairo:place:23-treats-of-the-nile","name":"Treats of the Nile","aliases":[],"category":"Restaurants","detail_map":"Kairo","source_pages":"Treats of the Nile","map_source":"Risk & Rewards Cairo Campaign)","placement_note":"Keine belastbare Einzelposition; Eintrag bleibt im Katalog","accuracy":"Nur Stadt oder Lore-Teilraum belegt","source_map":"kairo-content","source_panel":"Kairo","description_preview":"Treats of the Nile ist ein in der Kampagne belegter Gastronomiestandort.","description_full":"Treats of the Nile ist ein in der Kampagne belegter Gastronomiestandort. Die Position ist auf den belegten Stadt- oder Teilraum angenähert; eine hausgenaue Lage und eine weitergehende eigene Fließtextbeschreibung sind aus dem zugeordneten Datenmaterial nicht sicher ableitbar.","description_source":"Treats of the Nile","description_kind":"Ortsprofil","description_has_more":true,"detail_plans":[],"alternate_locations":[],"sources":[{"bookId":"sr6-risk-rewards-cairo-campaign","title":"Risk & Rewards Cairo Campaign)","edition":"SR6","citation":"Treats of the Nile","purpose":"description"}],"map_sources":[],"editions":["SR6"],"edition_descriptions":{"SR6":{"kind":"Ortsprofil","preview":"Treats of the Nile ist ein in der Kampagne belegter Gastronomiestandort.","full":"Treats of the Nile ist ein in der Kampagne belegter Gastronomiestandort. Die Position ist auf den belegten Stadt- oder Teilraum angenähert; eine hausgenaue Lage und eine weitergehende eigene Fließtextbeschreibung sind aus dem zugeordneten Datenmaterial nicht sicher ableitbar.","hasMore":true,"hasExcerpt":true,"sources":[{"bookId":"sr6-risk-rewards-cairo-campaign","title":"Risk & Rewards Cairo Campaign)","edition":"SR6","citation":"Treats of the Nile","purpose":"description"}]}}}},{"type":"Feature","geometry":{"type":"Point","coordinates":[31.239,30.046]},"properties":{"id":5,"global_id":"kairo:place:5-wust-el-balad","name":"Wust El Balad","aliases":[],"category":"Bezirke","detail_map":"Wust El Balad","source_pages":"Wust El Balad","map_source":"Risk & Rewards Cairo Campaign)","placement_note":"Geografischer Bezugspunkt des Lore-Distrikts Wust El Balad","accuracy":"Lore-Bezirkszentrum; Grenzpolygon noch nicht georeferenziert","source_map":"kairo-content","source_panel":"Wust El Balad","description_preview":"Wust El Balad bildet den verdichteten Innenstadtbereich Kairos.","description_full":"Wust El Balad bildet den verdichteten Innenstadtbereich Kairos. Die Position ist auf den belegten Stadt- oder Teilraum angenähert; eine hausgenaue Lage und eine weitergehende eigene Fließtextbeschreibung sind aus dem zugeordneten Datenmaterial nicht sicher ableitbar.","description_source":"Wust El Balad","description_kind":"Ortsprofil","description_has_more":true,"detail_plans":[],"alternate_locations":[],"sources":[{"bookId":"sr6-risk-rewards-cairo-campaign","title":"Risk & Rewards Cairo Campaign)","edition":"SR6","citation":"Wust El Balad","purpose":"description"}],"map_sources":[],"editions":["SR6"],"edition_descriptions":{"SR6":{"kind":"Ortsprofil","preview":"Wust El Balad bildet den verdichteten Innenstadtbereich Kairos.","full":"Wust El Balad bildet den verdichteten Innenstadtbereich Kairos. Die Position ist auf den belegten Stadt- oder Teilraum angenähert; eine hausgenaue Lage und eine weitergehende eigene Fließtextbeschreibung sind aus dem zugeordneten Datenmaterial nicht sicher ableitbar.","hasMore":true,"hasExcerpt":true,"sources":[{"bookId":"sr6-risk-rewards-cairo-campaign","title":"Risk & Rewards Cairo Campaign)","edition":"SR6","citation":"Wust El Balad","purpose":"description"}]}}}},{"type":"Feature","geometry":{"type":"Point","coordinates":[31.219,30.061]},"properties":{"id":6,"global_id":"kairo:place:6-zamalek","name":"Zamalek","aliases":[],"category":"Bezirke","detail_map":"Zamalek","source_pages":"Zamalek","map_source":"Risk & Rewards Cairo Campaign)","placement_note":"Geografischer Bezugspunkt des Lore-Distrikts Zamalek","accuracy":"Lore-Bezirkszentrum; Grenzpolygon noch nicht georeferenziert","source_map":"kairo-content","source_panel":"Zamalek","description_preview":"Zamalek ist ein wohlhabender Inselbezirk mit Diplomatie, Hotels und gehobenem Nachtleben.","description_full":"Zamalek ist ein wohlhabender Inselbezirk mit Diplomatie, Hotels und gehobenem Nachtleben. Die Position ist auf den belegten Stadt- oder Teilraum angenähert; eine hausgenaue Lage und eine weitergehende eigene Fließtextbeschreibung sind aus dem zugeordneten Datenmaterial nicht sicher ableitbar.","description_source":"Zamalek","description_kind":"Ortsprofil","description_has_more":true,"detail_plans":[],"alternate_locations":[],"sources":[{"bookId":"sr6-risk-rewards-cairo-campaign","title":"Risk & Rewards Cairo Campaign)","edition":"SR6","citation":"Zamalek","purpose":"description"}],"map_sources":[],"editions":["SR6"],"edition_descriptions":{"SR6":{"kind":"Ortsprofil","preview":"Zamalek ist ein wohlhabender Inselbezirk mit Diplomatie, Hotels und gehobenem Nachtleben.","full":"Zamalek ist ein wohlhabender Inselbezirk mit Diplomatie, Hotels und gehobenem Nachtleben. Die Position ist auf den belegten Stadt- oder Teilraum angenähert; eine hausgenaue Lage und eine weitergehende eigene Fließtextbeschreibung sind aus dem zugeordneten Datenmaterial nicht sicher ableitbar.","hasMore":true,"hasExcerpt":true,"sources":[{"bookId":"sr6-risk-rewards-cairo-campaign","title":"Risk & Rewards Cairo Campaign)","edition":"SR6","citation":"Zamalek","purpose":"description"}]}}}}]}
