{"type":"FeatureCollection","name":"Kairo – geprüfte zusätzliche Quellenorte","features":[{"type":"Feature","geometry":null,"properties":{"id":24,"global_id":"kairo:source-place:dock-layout","name":"Dock Layout","aliases":[],"category":"Sonstige Spots","detail_map":"Kairo","source_pages":"Textzeile 4633","map_source":"Risk & Rewards Cairo Campaign)","placement_note":"Keine belastbare Einzelposition; Eintrag bleibt im Katalog","accuracy":"Nur Stadt oder Lore-Teilraum belegt","source_map":"source-supplement","source_panel":"Kairo","description_preview":"Dock Layout ist in Risk & Rewards Cairo Campaign) als benannter Schauplatz mit Bezug zu Kairo belegt.","description_full":"Dock Layout ist in Risk & Rewards Cairo Campaign) als benannter Schauplatz mit Bezug zu Kairo belegt. Das Dossier fasst den belegten Quellenstand redaktionell zusammen; eine nicht belegte Kartenposition wird nicht ergänzt.","description_source":"Textzeile 4633","description_kind":"Ortsdossier","description_has_more":true,"detail_plans":[],"alternate_locations":[],"sources":[{"bookId":"sr6-risk-rewards-cairo-campaign","title":"Risk & Rewards Cairo Campaign)","edition":"SR6","citation":"Textzeile 4633","purpose":"description"}],"map_sources":[],"editions":["SR6"],"edition_descriptions":{"SR6":{"kind":"Ortsdossier","preview":"Dock Layout ist in Risk & Rewards Cairo Campaign) als benannter Schauplatz mit Bezug zu Kairo belegt.","full":"Dock Layout ist in Risk & Rewards Cairo Campaign) als benannter Schauplatz mit Bezug zu Kairo belegt. Das Dossier fasst den belegten Quellenstand redaktionell zusammen; eine nicht belegte Kartenposition wird nicht ergänzt.","hasMore":true,"hasExcerpt":true,"sources":[{"bookId":"sr6-risk-rewards-cairo-campaign","title":"Risk & Rewards Cairo Campaign)","edition":"SR6","citation":"Textzeile 4633","purpose":"description"}]}}}},{"type":"Feature","geometry":null,"properties":{"id":25,"global_id":"kairo:source-place:garden-city","name":"Garden City","aliases":[],"category":"Sonstige Spots","detail_map":"Kairo","source_pages":"Textzeile 1305","map_source":"Risk & Rewards Cairo Campaign)","placement_note":"Keine belastbare Einzelposition; Eintrag bleibt im Katalog","accuracy":"Nur Stadt oder Lore-Teilraum belegt","source_map":"source-supplement","source_panel":"Kairo","description_preview":"Garden City ist in Risk & Rewards Cairo Campaign) als benannter Schauplatz mit Bezug zu Kairo belegt.","description_full":"Garden City ist in Risk & Rewards Cairo Campaign) als benannter Schauplatz mit Bezug zu Kairo belegt. Das Dossier fasst den belegten Quellenstand redaktionell zusammen; eine nicht belegte Kartenposition wird nicht ergänzt.","description_source":"Textzeile 1305","description_kind":"Ortsdossier","description_has_more":true,"detail_plans":[],"alternate_locations":[],"sources":[{"bookId":"sr6-risk-rewards-cairo-campaign","title":"Risk & Rewards Cairo Campaign)","edition":"SR6","citation":"Textzeile 1305","purpose":"description"}],"map_sources":[],"editions":["SR6"],"edition_descriptions":{"SR6":{"kind":"Ortsdossier","preview":"Garden City ist in Risk & Rewards Cairo Campaign) als benannter Schauplatz mit Bezug zu Kairo belegt.","full":"Garden City ist in Risk & Rewards Cairo Campaign) als benannter Schauplatz mit Bezug zu Kairo belegt. Das Dossier fasst den belegten Quellenstand redaktionell zusammen; eine nicht belegte Kartenposition wird nicht ergänzt.","hasMore":true,"hasExcerpt":true,"sources":[{"bookId":"sr6-risk-rewards-cairo-campaign","title":"Risk & Rewards Cairo Campaign)","edition":"SR6","citation":"Textzeile 1305","purpose":"description"}]}}}},{"type":"Feature","geometry":null,"properties":{"id":26,"global_id":"kairo:source-place:lone-star-vault","name":"Lone Star Vault","aliases":[],"category":"Sonstige Spots","detail_map":"Kairo","source_pages":"Textzeile 4128","map_source":"Risk & Rewards Cairo Campaign)","placement_note":"Keine belastbare Einzelposition; Eintrag bleibt im Katalog","accuracy":"Nur Stadt oder Lore-Teilraum belegt","source_map":"source-supplement","source_panel":"Kairo","description_preview":"Lone Star Vault ist in Risk & Rewards Cairo Campaign) als benannter Schauplatz mit Bezug zu Kairo belegt.","description_full":"Lone Star Vault ist in Risk & Rewards Cairo Campaign) als benannter Schauplatz mit Bezug zu Kairo belegt. Das Dossier fasst den belegten Quellenstand redaktionell zusammen; eine nicht belegte Kartenposition wird nicht ergänzt.","description_source":"Textzeile 4128","description_kind":"Ortsdossier","description_has_more":true,"detail_plans":[],"alternate_locations":[],"sources":[{"bookId":"sr6-risk-rewards-cairo-campaign","title":"Risk & Rewards Cairo Campaign)","edition":"SR6","citation":"Textzeile 4128","purpose":"description"}],"map_sources":[],"editions":["SR6"],"edition_descriptions":{"SR6":{"kind":"Ortsdossier","preview":"Lone Star Vault ist in Risk & Rewards Cairo Campaign) als benannter Schauplatz mit Bezug zu Kairo belegt.","full":"Lone Star Vault ist in Risk & Rewards Cairo Campaign) als benannter Schauplatz mit Bezug zu Kairo belegt. Das Dossier fasst den belegten Quellenstand redaktionell zusammen; eine nicht belegte Kartenposition wird nicht ergänzt.","hasMore":true,"hasExcerpt":true,"sources":[{"bookId":"sr6-risk-rewards-cairo-campaign","title":"Risk & Rewards Cairo Campaign)","edition":"SR6","citation":"Textzeile 4128","purpose":"description"}]}}}},{"type":"Feature","geometry":null,"properties":{"id":27,"global_id":"kairo:source-place:the-coptic-church","name":"The Coptic Church","aliases":[],"category":"Sonstige Spots","detail_map":"Kairo","source_pages":"Textzeile 2458","map_source":"Risk & Rewards Cairo Campaign)","placement_note":"Keine belastbare Einzelposition; Eintrag bleibt im Katalog","accuracy":"Nur Stadt oder Lore-Teilraum belegt","source_map":"source-supplement","source_panel":"Kairo","description_preview":"The Coptic Church ist in Risk & Rewards Cairo Campaign) als benannter Schauplatz mit Bezug zu Kairo belegt.","description_full":"The Coptic Church ist in Risk & Rewards Cairo Campaign) als benannter Schauplatz mit Bezug zu Kairo belegt. Das Dossier fasst den belegten Quellenstand redaktionell zusammen; eine nicht belegte Kartenposition wird nicht ergänzt.","description_source":"Textzeile 2458","description_kind":"Ortsdossier","description_has_more":true,"detail_plans":[],"alternate_locations":[],"sources":[{"bookId":"sr6-risk-rewards-cairo-campaign","title":"Risk & Rewards Cairo Campaign)","edition":"SR6","citation":"Textzeile 2458","purpose":"description"}],"map_sources":[],"editions":["SR6"],"edition_descriptions":{"SR6":{"kind":"Ortsdossier","preview":"The Coptic Church ist in Risk & Rewards Cairo Campaign) als benannter Schauplatz mit Bezug zu Kairo belegt.","full":"The Coptic Church ist in Risk & Rewards Cairo Campaign) als benannter Schauplatz mit Bezug zu Kairo belegt. Das Dossier fasst den belegten Quellenstand redaktionell zusammen; eine nicht belegte Kartenposition wird nicht ergänzt.","hasMore":true,"hasExcerpt":true,"sources":[{"bookId":"sr6-risk-rewards-cairo-campaign","title":"Risk & Rewards Cairo Campaign)","edition":"SR6","citation":"Textzeile 2458","purpose":"description"}]}}}},{"type":"Feature","geometry":null,"properties":{"id":28,"global_id":"kairo:source-place:to-the-tower","name":"To The Tower","aliases":[],"category":"Konzerne und markante Bauwerke","detail_map":"Kairo","source_pages":"Textzeile 10389","map_source":"Risk & Rewards Cairo Campaign)","placement_note":"Keine belastbare Einzelposition; Eintrag bleibt im Katalog","accuracy":"Nur Stadt oder Lore-Teilraum belegt","source_map":"source-supplement","source_panel":"Kairo","description_preview":"To The Tower ist in Risk & Rewards Cairo Campaign) als benannter Schauplatz mit Bezug zu Kairo belegt.","description_full":"To The Tower ist in Risk & Rewards Cairo Campaign) als benannter Schauplatz mit Bezug zu Kairo belegt. Das Dossier fasst den belegten Quellenstand redaktionell zusammen; eine nicht belegte Kartenposition wird nicht ergänzt.","description_source":"Textzeile 10389","description_kind":"Ortsdossier","description_has_more":true,"detail_plans":[],"alternate_locations":[],"sources":[{"bookId":"sr6-risk-rewards-cairo-campaign","title":"Risk & Rewards Cairo Campaign)","edition":"SR6","citation":"Textzeile 10389","purpose":"description"}],"map_sources":[],"editions":["SR6"],"edition_descriptions":{"SR6":{"kind":"Ortsdossier","preview":"To The Tower ist in Risk & Rewards Cairo Campaign) als benannter Schauplatz mit Bezug zu Kairo belegt.","full":"To The Tower ist in Risk & Rewards Cairo Campaign) als benannter Schauplatz mit Bezug zu Kairo belegt. Das Dossier fasst den belegten Quellenstand redaktionell zusammen; eine nicht belegte Kartenposition wird nicht ergänzt.","hasMore":true,"hasExcerpt":true,"sources":[{"bookId":"sr6-risk-rewards-cairo-campaign","title":"Risk & Rewards Cairo Campaign)","edition":"SR6","citation":"Textzeile 10389","purpose":"description"}]}}}},{"type":"Feature","geometry":null,"properties":{"id":29,"global_id":"kairo:source-place:vault-relics","name":"Vault Relics","aliases":[],"category":"Sonstige Spots","detail_map":"Kairo","source_pages":"Textzeile 6777","map_source":"Risk & Rewards Cairo Campaign)","placement_note":"Keine belastbare Einzelposition; Eintrag bleibt im Katalog","accuracy":"Nur Stadt oder Lore-Teilraum belegt","source_map":"source-supplement","source_panel":"Kairo","description_preview":"Vault Relics ist in Risk & Rewards Cairo Campaign) als benannter Schauplatz mit Bezug zu Kairo belegt.","description_full":"Vault Relics ist in Risk & Rewards Cairo Campaign) als benannter Schauplatz mit Bezug zu Kairo belegt. Das Dossier fasst den belegten Quellenstand redaktionell zusammen; eine nicht belegte Kartenposition wird nicht ergänzt.","description_source":"Textzeile 6777","description_kind":"Ortsdossier","description_has_more":true,"detail_plans":[],"alternate_locations":[],"sources":[{"bookId":"sr6-risk-rewards-cairo-campaign","title":"Risk & Rewards Cairo Campaign)","edition":"SR6","citation":"Textzeile 6777","purpose":"description"}],"map_sources":[],"editions":["SR6"],"edition_descriptions":{"SR6":{"kind":"Ortsdossier","preview":"Vault Relics ist in Risk & Rewards Cairo Campaign) als benannter Schauplatz mit Bezug zu Kairo belegt.","full":"Vault Relics ist in Risk & Rewards Cairo Campaign) als benannter Schauplatz mit Bezug zu Kairo belegt. Das Dossier fasst den belegten Quellenstand redaktionell zusammen; eine nicht belegte Kartenposition wird nicht ergänzt.","hasMore":true,"hasExcerpt":true,"sources":[{"bookId":"sr6-risk-rewards-cairo-campaign","title":"Risk & Rewards Cairo Campaign)","edition":"SR6","citation":"Textzeile 6777","purpose":"description"}]}}}}]}
