{"type":"FeatureCollection","name":"Las Vegas Orte","features":[{"type":"Feature","geometry":{"type":"Point","coordinates":[-115.242,36.13]},"properties":{"id":2,"global_id":"las-vegas:place:2-desert-breeze-park","name":"Desert Breeze Park","aliases":[],"category":"Freizeit und Natur","detail_map":"Las Vegas","source_pages":"Desert Breeze Park","map_source":"The Twilight Horizon","placement_note":"Erhaltener geographischer Bezugspunkt","accuracy":"Geographischer Bezugspunkt","source_map":"las-vegas-content","source_panel":"Las Vegas","description_preview":"Der Park ist ein öffentlicher Freizeit- und Missionsort.","description_full":"Der Park ist ein öffentlicher Freizeit- und Missionsort. Die Position folgt einem erhaltenen heutigen Bezugspunkt.","description_source":"Desert Breeze Park","description_kind":"Ortsprofil","description_has_more":true,"detail_plans":[],"alternate_locations":[],"sources":[{"bookId":"sr4-the-twilight-horizon","title":"The Twilight Horizon","edition":"SR4","citation":"Desert Breeze Park","purpose":"description"}],"map_sources":[],"editions":["SR4"],"edition_descriptions":{"SR4":{"kind":"Ortsprofil","preview":"Der Park ist ein öffentlicher Freizeit- und Missionsort.","full":"Der Park ist ein öffentlicher Freizeit- und Missionsort. Die Position folgt einem erhaltenen heutigen Bezugspunkt.","hasMore":true,"hasExcerpt":true,"sources":[{"bookId":"sr4-the-twilight-horizon","title":"The Twilight Horizon","edition":"SR4","citation":"Desert Breeze Park","purpose":"description"}]}}}},{"type":"Feature","geometry":{"type":"Point","coordinates":[-115.143,36.17]},"properties":{"id":3,"global_id":"las-vegas:place:3-fremont-street-experience","name":"Fremont Street Experience","aliases":[],"category":"Ausgehen","detail_map":"Las Vegas","source_pages":"The Freemont Street Experience","map_source":"The Twilight Horizon","placement_note":"Erhaltener geographischer Bezugspunkt","accuracy":"Geographischer Bezugspunkt","source_map":"las-vegas-content","source_panel":"Las Vegas","description_preview":"Fremont Street ist ein wichtiger Vergnügungs- und Tourismusraum.","description_full":"Fremont Street ist ein wichtiger Vergnügungs- und Tourismusraum. Die Position folgt einem erhaltenen heutigen Bezugspunkt.","description_source":"The Freemont Street Experience","description_kind":"Ortsprofil","description_has_more":true,"detail_plans":[],"alternate_locations":[],"sources":[{"bookId":"sr4-the-twilight-horizon","title":"The Twilight Horizon","edition":"SR4","citation":"The Freemont Street Experience","purpose":"description"}],"map_sources":[],"editions":["SR4"],"edition_descriptions":{"SR4":{"kind":"Ortsprofil","preview":"Fremont Street ist ein wichtiger Vergnügungs- und Tourismusraum.","full":"Fremont Street ist ein wichtiger Vergnügungs- und Tourismusraum. Die Position folgt einem erhaltenen heutigen Bezugspunkt.","hasMore":true,"hasExcerpt":true,"sources":[{"bookId":"sr4-the-twilight-horizon","title":"The Twilight Horizon","edition":"SR4","citation":"The Freemont Street Experience","purpose":"description"}]}}}},{"type":"Feature","geometry":{"type":"Point","coordinates":[-115.1398,36.1699]},"properties":{"id":1,"global_id":"las-vegas:place:1-las-vegas-lore-raum","name":"Las Vegas Lore-Raum","aliases":[],"category":"Bezirke","detail_map":"Las Vegas Lore-Raum","source_pages":"Stadt- oder Regionalkapitel","map_source":"The Twilight Horizon","placement_note":"Geografischer Bezugspunkt des Lore-Distrikts Las Vegas Lore-Raum","accuracy":"Lore-Bezirkszentrum; Grenzpolygon noch nicht georeferenziert","source_map":"las-vegas-content","source_panel":"Las Vegas Lore-Raum","description_preview":"Las Vegas ist ein stark von Horizon, Casinos, Unterhaltung und organisierter Kriminalität geprägter Wüstenplex.","description_full":"Las Vegas ist ein stark von Horizon, Casinos, Unterhaltung und organisierter Kriminalität geprägter Wüstenplex. Die Position ist auf den belegten Stadt- oder Teilraum angenähert; eine hausgenaue Lage und eine weitergehende eigene Fließtextbeschreibung sind aus dem zugeordneten Datenmaterial nicht sicher ableitbar.","description_source":"Stadt- oder Regionalkapitel","description_kind":"Ortsprofil","description_has_more":true,"detail_plans":[],"alternate_locations":[],"sources":[{"bookId":"sr4-the-twilight-horizon","title":"The Twilight Horizon","edition":"SR4","citation":"Stadt- oder Regionalkapitel","purpose":"description"}],"map_sources":[],"editions":["SR4"],"edition_descriptions":{"SR4":{"kind":"Ortsprofil","preview":"Las Vegas ist ein stark von Horizon, Casinos, Unterhaltung und organisierter Kriminalität geprägter Wüstenplex.","full":"Las Vegas ist ein stark von Horizon, Casinos, Unterhaltung und organisierter Kriminalität geprägter Wüstenplex. Die Position ist auf den belegten Stadt- oder Teilraum angenähert; eine hausgenaue Lage und eine weitergehende eigene Fließtextbeschreibung sind aus dem zugeordneten Datenmaterial nicht sicher ableitbar.","hasMore":true,"hasExcerpt":true,"sources":[{"bookId":"sr4-the-twilight-horizon","title":"The Twilight Horizon","edition":"SR4","citation":"Stadt- oder Regionalkapitel","purpose":"description"}]}}}},{"type":"Feature","geometry":null,"properties":{"id":5,"global_id":"las-vegas:place:5-link-club-las-vegas","name":"Link Club Las Vegas","aliases":[],"category":"Bars und Clubs","detail_map":"Las Vegas","source_pages":"Link Club","map_source":"Gestohlene Seelen","placement_note":"Keine belastbare Einzelposition; Eintrag bleibt im Katalog","accuracy":"Nur Stadt oder Lore-Teilraum belegt","source_map":"las-vegas-content","source_panel":"Las Vegas","description_preview":"Der lokale Ableger gehört zur internationalen Link-Club-Kette.","description_full":"Der lokale Ableger gehört zur internationalen Link-Club-Kette. Die Position ist auf den belegten Stadt- oder Teilraum angenähert; eine hausgenaue Lage und eine weitergehende eigene Fließtextbeschreibung sind aus dem zugeordneten Datenmaterial nicht sicher ableitbar.","description_source":"Link Club","description_kind":"Ortsprofil","description_has_more":true,"detail_plans":[],"alternate_locations":[],"sources":[{"bookId":"sr5-gestohlene-seelen","title":"Gestohlene Seelen","edition":"SR5","citation":"Link Club","purpose":"description"}],"map_sources":[],"editions":["SR5"],"edition_descriptions":{"SR5":{"kind":"Ortsprofil","preview":"Der lokale Ableger gehört zur internationalen Link-Club-Kette.","full":"Der lokale Ableger gehört zur internationalen Link-Club-Kette. Die Position ist auf den belegten Stadt- oder Teilraum angenähert; eine hausgenaue Lage und eine weitergehende eigene Fließtextbeschreibung sind aus dem zugeordneten Datenmaterial nicht sicher ableitbar.","hasMore":true,"hasExcerpt":true,"sources":[{"bookId":"sr5-gestohlene-seelen","title":"Gestohlene Seelen","edition":"SR5","citation":"Link Club","purpose":"description"}]}}}},{"type":"Feature","geometry":{"type":"Point","coordinates":[-115.139,36.108]},"properties":{"id":4,"global_id":"las-vegas:place:4-university-of-nevada-las-vegas","name":"University of Nevada Las Vegas","aliases":[],"category":"Bildung und Kultur","detail_map":"Las Vegas","source_pages":"University of Nevada Las Vegas","map_source":"The Twilight Horizon","placement_note":"Erhaltener geographischer Bezugspunkt","accuracy":"Geographischer Bezugspunkt","source_map":"las-vegas-content","source_panel":"Las Vegas","description_preview":"UNLV ist Bildungs-, Forschungs- und Veranstaltungsstandort.","description_full":"UNLV ist Bildungs-, Forschungs- und Veranstaltungsstandort. Die Position folgt einem erhaltenen heutigen Bezugspunkt.","description_source":"University of Nevada Las Vegas","description_kind":"Ortsprofil","description_has_more":true,"detail_plans":[],"alternate_locations":[],"sources":[{"bookId":"sr4-the-twilight-horizon","title":"The Twilight Horizon","edition":"SR4","citation":"University of Nevada Las Vegas","purpose":"description"}],"map_sources":[],"editions":["SR4"],"edition_descriptions":{"SR4":{"kind":"Ortsprofil","preview":"UNLV ist Bildungs-, Forschungs- und Veranstaltungsstandort.","full":"UNLV ist Bildungs-, Forschungs- und Veranstaltungsstandort. Die Position folgt einem erhaltenen heutigen Bezugspunkt.","hasMore":true,"hasExcerpt":true,"sources":[{"bookId":"sr4-the-twilight-horizon","title":"The Twilight Horizon","edition":"SR4","citation":"University of Nevada Las Vegas","purpose":"description"}]}}}}]}
