{"type":"FeatureCollection","name":"Nürnberg Orte","features":[{"type":"Feature","geometry":{"type":"Point","coordinates":[11.0767,49.4521]},"properties":{"id":1,"global_id":"nuernberg:place:1-nurnberg-lore-raum","name":"Nürnberg Lore-Raum","aliases":[],"category":"Bezirke","detail_map":"Nürnberg Lore-Raum","source_pages":"Stadt- oder Regionalkapitel","map_source":"Reiseführer in die deutschen Schatten","placement_note":"Geografischer Bezugspunkt des Lore-Distrikts Nürnberg Lore-Raum","accuracy":"Lore-Bezirkszentrum; Grenzpolygon noch nicht georeferenziert","source_map":"nuernberg-content","source_panel":"Nürnberg Lore-Raum","description_preview":"Nürnberg ist ein fränkisches Verwaltungs-, Industrie-, Kultur- und Verkehrszentrum der ADL.","description_full":"Nürnberg ist ein fränkisches Verwaltungs-, Industrie-, Kultur- und Verkehrszentrum der ADL. Die Position ist auf den belegten Stadt- oder Teilraum angenähert; eine hausgenaue Lage und eine weitergehende eigene Fließtextbeschreibung sind aus dem zugeordneten Datenmaterial nicht sicher ableitbar.","description_source":"Stadt- oder Regionalkapitel","description_kind":"Ortsprofil","description_has_more":true,"detail_plans":[],"alternate_locations":[],"sources":[{"bookId":"sr4-reisefuhrer-in-die-deutschen-schatten","title":"Reiseführer in die deutschen Schatten","edition":"SR4","citation":"Stadt- oder Regionalkapitel","purpose":"description"}],"map_sources":[],"editions":["SR4"],"edition_descriptions":{"SR4":{"kind":"Ortsprofil","preview":"Nürnberg ist ein fränkisches Verwaltungs-, Industrie-, Kultur- und Verkehrszentrum der ADL.","full":"Nürnberg ist ein fränkisches Verwaltungs-, Industrie-, Kultur- und Verkehrszentrum der ADL. Die Position ist auf den belegten Stadt- oder Teilraum angenähert; eine hausgenaue Lage und eine weitergehende eigene Fließtextbeschreibung sind aus dem zugeordneten Datenmaterial nicht sicher ableitbar.","hasMore":true,"hasExcerpt":true,"sources":[{"bookId":"sr4-reisefuhrer-in-die-deutschen-schatten","title":"Reiseführer in die deutschen Schatten","edition":"SR4","citation":"Stadt- oder Regionalkapitel","purpose":"description"}]}}}}]}
