{"type":"FeatureCollection","name":"Washington FDC Orte","features":[{"type":"Feature","geometry":{"type":"Point","coordinates":[-77.037,38.907]},"properties":{"id":1,"global_id":"washington-fdc:place:1-federal-district-of-columbia","name":"Federal District of Columbia","aliases":[],"category":"Bezirke","detail_map":"Federal District of Columbia","source_pages":"Kapitel Washington FDC","map_source":"Cutting Black","placement_note":"Geografischer Bezugspunkt des Lore-Distrikts Federal District of Columbia","accuracy":"Lore-Bezirkszentrum; Grenzpolygon noch nicht georeferenziert","source_map":"washington-fdc-content","source_panel":"Federal District of Columbia","description_preview":"Der Bundesdistrikt bündelt die wichtigsten politischen und administrativen Institutionen der UCAS.","description_full":"Der Bundesdistrikt bündelt die wichtigsten politischen und administrativen Institutionen der UCAS. Die Position ist auf den belegten Stadt- oder Teilraum angenähert; eine hausgenaue Lage und eine weitergehende eigene Fließtextbeschreibung sind aus dem zugeordneten Datenmaterial nicht sicher ableitbar.","description_source":"Kapitel Washington FDC","description_kind":"Ortsprofil","description_has_more":true,"detail_plans":[],"alternate_locations":[],"sources":[{"bookId":"sr6-cutting-black","title":"Cutting Black","edition":"SR6","citation":"Kapitel Washington FDC","purpose":"description"}],"map_sources":[],"editions":["SR6"],"edition_descriptions":{"SR6":{"kind":"Ortsprofil","preview":"Der Bundesdistrikt bündelt die wichtigsten politischen und administrativen Institutionen der UCAS.","full":"Der Bundesdistrikt bündelt die wichtigsten politischen und administrativen Institutionen der UCAS. Die Position ist auf den belegten Stadt- oder Teilraum angenähert; eine hausgenaue Lage und eine weitergehende eigene Fließtextbeschreibung sind aus dem zugeordneten Datenmaterial nicht sicher ableitbar.","hasMore":true,"hasExcerpt":true,"sources":[{"bookId":"sr6-cutting-black","title":"Cutting Black","edition":"SR6","citation":"Kapitel Washington FDC","purpose":"description"}]}}}}]}
