{"type":"FeatureCollection","name":"Teheran Orte","features":[{"type":"Feature","geometry":{"type":"Point","coordinates":[51.389,35.6892]},"properties":{"id":1,"global_id":"teheran:place:1-teheran-lore-raum","name":"Teheran Lore-Raum","aliases":[],"category":"Bezirke","detail_map":"Teheran Lore-Raum","source_pages":"Stadt- oder Regionalkapitel","map_source":"Survival of the Fittest","placement_note":"Geografischer Bezugspunkt des Lore-Distrikts Teheran Lore-Raum","accuracy":"Lore-Bezirkszentrum; Grenzpolygon noch nicht georeferenziert","source_map":"teheran-content","source_panel":"Teheran Lore-Raum","description_preview":"Teheran ist ein politisch, religiös und magisch aufgeladener iranischer Großraum und Abenteuerschauplatz.","description_full":"Teheran ist ein politisch, religiös und magisch aufgeladener iranischer Großraum und Abenteuerschauplatz. Die Position ist auf den belegten Stadt- oder Teilraum angenähert; eine hausgenaue Lage und eine weitergehende eigene Fließtextbeschreibung sind aus dem zugeordneten Datenmaterial nicht sicher ableitbar.","description_source":"Stadt- oder Regionalkapitel","description_kind":"Ortsprofil","description_has_more":true,"detail_plans":[],"alternate_locations":[],"sources":[{"bookId":"sr3-survival-of-the-fittest","title":"Survival of the Fittest","edition":"SR3","citation":"Stadt- oder Regionalkapitel","purpose":"description"}],"map_sources":[],"editions":["SR3"],"edition_descriptions":{"SR3":{"kind":"Ortsprofil","preview":"Teheran ist ein politisch, religiös und magisch aufgeladener iranischer Großraum und Abenteuerschauplatz.","full":"Teheran ist ein politisch, religiös und magisch aufgeladener iranischer Großraum und Abenteuerschauplatz. Die Position ist auf den belegten Stadt- oder Teilraum angenähert; eine hausgenaue Lage und eine weitergehende eigene Fließtextbeschreibung sind aus dem zugeordneten Datenmaterial nicht sicher ableitbar.","hasMore":true,"hasExcerpt":true,"sources":[{"bookId":"sr3-survival-of-the-fittest","title":"Survival of the Fittest","edition":"SR3","citation":"Stadt- oder Regionalkapitel","purpose":"description"}]}}}}]}
