{"type":"FeatureCollection","name":"Brüssel Orte","features":[{"type":"Feature","geometry":{"type":"Point","coordinates":[4.3517,50.8503]},"properties":{"id":1,"global_id":"bruessel:place:1-brussel-lore-raum","name":"Brüssel Lore-Raum","aliases":[],"category":"Bezirke","detail_map":"Brüssel Lore-Raum","source_pages":"Stadt- oder Regionalkapitel","map_source":"Shadows of Europe","placement_note":"Geografischer Bezugspunkt des Lore-Distrikts Brüssel Lore-Raum","accuracy":"Lore-Bezirkszentrum; Grenzpolygon noch nicht georeferenziert","source_map":"bruessel-content","source_panel":"Brüssel Lore-Raum","description_preview":"Brüssel ist ein europäisches Politik-, Diplomatie-, Konzern- und Lobbyzentrum.","description_full":"Brüssel ist ein europäisches Politik-, Diplomatie-, Konzern- und Lobbyzentrum. Die Position ist auf den belegten Stadt- oder Teilraum angenähert; eine hausgenaue Lage und eine weitergehende eigene Fließtextbeschreibung sind aus dem zugeordneten Datenmaterial nicht sicher ableitbar.","description_source":"Stadt- oder Regionalkapitel","description_kind":"Ortsprofil","description_has_more":true,"detail_plans":[],"alternate_locations":[],"sources":[{"bookId":"sr3-shadows-of-europe","title":"Shadows of Europe","edition":"SR3","citation":"Stadt- oder Regionalkapitel","purpose":"description"}],"map_sources":[],"editions":["SR3"],"edition_descriptions":{"SR3":{"kind":"Ortsprofil","preview":"Brüssel ist ein europäisches Politik-, Diplomatie-, Konzern- und Lobbyzentrum.","full":"Brüssel ist ein europäisches Politik-, Diplomatie-, Konzern- und Lobbyzentrum. Die Position ist auf den belegten Stadt- oder Teilraum angenähert; eine hausgenaue Lage und eine weitergehende eigene Fließtextbeschreibung sind aus dem zugeordneten Datenmaterial nicht sicher ableitbar.","hasMore":true,"hasExcerpt":true,"sources":[{"bookId":"sr3-shadows-of-europe","title":"Shadows of Europe","edition":"SR3","citation":"Stadt- oder Regionalkapitel","purpose":"description"}]}}}}]}
