{"type":"FeatureCollection","name":"Bremen Orte","features":[{"type":"Feature","geometry":{"type":"Point","coordinates":[8.8017,53.0793]},"properties":{"id":1,"global_id":"bremen:place:1-bremen-stadt","name":"Bremen-Stadt","aliases":[],"category":"Bezirke","detail_map":"Bremen-Stadt","source_pages":"Kapitel Bremen","map_source":"Deutschland in den Schatten II","placement_note":"Geografischer Bezugspunkt des Lore-Distrikts Bremen-Stadt","accuracy":"Lore-Bezirkszentrum; Grenzpolygon noch nicht georeferenziert","source_map":"bremen-content","source_panel":"Bremen-Stadt","description_preview":"Bremen-Stadt bildet Verwaltungs-, Handels- und Kulturkern.","description_full":"Bremen-Stadt bildet Verwaltungs-, Handels- und Kulturkern. Die Position ist auf den belegten Stadt- oder Teilraum angenähert; eine hausgenaue Lage und eine weitergehende eigene Fließtextbeschreibung sind aus dem zugeordneten Datenmaterial nicht sicher ableitbar.","description_source":"Kapitel Bremen","description_kind":"Ortsprofil","description_has_more":true,"detail_plans":[],"alternate_locations":[],"sources":[{"bookId":"sr3-deutschland-in-den-schatten-ii","title":"Deutschland in den Schatten II","edition":"SR3","citation":"Kapitel Bremen","purpose":"description"}],"map_sources":[],"editions":["SR3"],"edition_descriptions":{"SR3":{"kind":"Ortsprofil","preview":"Bremen-Stadt bildet Verwaltungs-, Handels- und Kulturkern.","full":"Bremen-Stadt bildet Verwaltungs-, Handels- und Kulturkern. Die Position ist auf den belegten Stadt- oder Teilraum angenähert; eine hausgenaue Lage und eine weitergehende eigene Fließtextbeschreibung sind aus dem zugeordneten Datenmaterial nicht sicher ableitbar.","hasMore":true,"hasExcerpt":true,"sources":[{"bookId":"sr3-deutschland-in-den-schatten-ii","title":"Deutschland in den Schatten II","edition":"SR3","citation":"Kapitel Bremen","purpose":"description"}]}}}},{"type":"Feature","geometry":null,"properties":{"id":6,"global_id":"bremen:place:6-bremer-hafen","name":"Bremer Hafen","aliases":[],"category":"Verkehr","detail_map":"Bremen-Stadt","source_pages":"Kapitel Bremen","map_source":"Deutschland in den Schatten","placement_note":"Keine belastbare Einzelposition; Eintrag bleibt im Katalog","accuracy":"Nur Stadt oder Lore-Teilraum belegt","source_map":"bremen-content","source_panel":"Bremen-Stadt","description_preview":"Der Hafen ist ein zentraler Wirtschafts-, Verkehrs- und Schmuggelraum.","description_full":"Der Hafen ist ein zentraler Wirtschafts-, Verkehrs- und Schmuggelraum. Die Position ist auf den belegten Stadt- oder Teilraum angenähert; eine hausgenaue Lage und eine weitergehende eigene Fließtextbeschreibung sind aus dem zugeordneten Datenmaterial nicht sicher ableitbar.","description_source":"Kapitel Bremen","description_kind":"Ortsprofil","description_has_more":true,"detail_plans":[],"alternate_locations":[],"sources":[{"bookId":"sr1-deutschland-in-den-schatten","title":"Deutschland in den Schatten","edition":"SR1","citation":"Kapitel Bremen","purpose":"description"}],"map_sources":[],"editions":["SR1"],"edition_descriptions":{"SR1":{"kind":"Ortsprofil","preview":"Der Hafen ist ein zentraler Wirtschafts-, Verkehrs- und Schmuggelraum.","full":"Der Hafen ist ein zentraler Wirtschafts-, Verkehrs- und Schmuggelraum. Die Position ist auf den belegten Stadt- oder Teilraum angenähert; eine hausgenaue Lage und eine weitergehende eigene Fließtextbeschreibung sind aus dem zugeordneten Datenmaterial nicht sicher ableitbar.","hasMore":true,"hasExcerpt":true,"sources":[{"bookId":"sr1-deutschland-in-den-schatten","title":"Deutschland in den Schatten","edition":"SR1","citation":"Kapitel Bremen","purpose":"description"}]}}}},{"type":"Feature","geometry":{"type":"Point","coordinates":[8.5809,53.5396]},"properties":{"id":4,"global_id":"bremen:place:4-bremerhaven","name":"Bremerhaven","aliases":[],"category":"Bezirke","detail_map":"Bremerhaven","source_pages":"Kapitel Bremen/Bremerhaven","map_source":"Deutschland in den Schatten II","placement_note":"Geografischer Bezugspunkt des Lore-Distrikts Bremerhaven","accuracy":"Lore-Bezirkszentrum; Grenzpolygon noch nicht georeferenziert","source_map":"bremen-content","source_panel":"Bremerhaven","description_preview":"Bremerhaven bildet den nördlichen Hafen- und Logistikteil des Stadtstaates.","description_full":"Bremerhaven bildet den nördlichen Hafen- und Logistikteil des Stadtstaates. Die Position ist auf den belegten Stadt- oder Teilraum angenähert; eine hausgenaue Lage und eine weitergehende eigene Fließtextbeschreibung sind aus dem zugeordneten Datenmaterial nicht sicher ableitbar.","description_source":"Kapitel Bremen/Bremerhaven","description_kind":"Ortsprofil","description_has_more":true,"detail_plans":[],"alternate_locations":[],"sources":[{"bookId":"sr3-deutschland-in-den-schatten-ii","title":"Deutschland in den Schatten II","edition":"SR3","citation":"Kapitel Bremen/Bremerhaven","purpose":"description"}],"map_sources":[],"editions":["SR3"],"edition_descriptions":{"SR3":{"kind":"Ortsprofil","preview":"Bremerhaven bildet den nördlichen Hafen- und Logistikteil des Stadtstaates.","full":"Bremerhaven bildet den nördlichen Hafen- und Logistikteil des Stadtstaates. Die Position ist auf den belegten Stadt- oder Teilraum angenähert; eine hausgenaue Lage und eine weitergehende eigene Fließtextbeschreibung sind aus dem zugeordneten Datenmaterial nicht sicher ableitbar.","hasMore":true,"hasExcerpt":true,"sources":[{"bookId":"sr3-deutschland-in-den-schatten-ii","title":"Deutschland in den Schatten II","edition":"SR3","citation":"Kapitel Bremen/Bremerhaven","purpose":"description"}]}}}},{"type":"Feature","geometry":{"type":"Point","coordinates":[8.875,53.105]},"properties":{"id":2,"global_id":"bremen:place:2-horn-lehe","name":"Horn/Lehe","aliases":[],"category":"Bezirke","detail_map":"Horn/Lehe","source_pages":"Horn/Lehe (B)","map_source":"Deutschland in den Schatten II","placement_note":"Geografischer Bezugspunkt des Lore-Distrikts Horn/Lehe","accuracy":"Lore-Bezirkszentrum; Grenzpolygon noch nicht georeferenziert","source_map":"bremen-content","source_panel":"Horn/Lehe","description_preview":"Horn/Lehe ist das Universitätsviertel mit Hochschulen für Technik, Nautik und Informatik.","description_full":"Horn/Lehe ist das Universitätsviertel mit Hochschulen für Technik, Nautik und Informatik. Die Position ist auf den belegten Stadt- oder Teilraum angenähert; eine hausgenaue Lage und eine weitergehende eigene Fließtextbeschreibung sind aus dem zugeordneten Datenmaterial nicht sicher ableitbar.","description_source":"Horn/Lehe (B)","description_kind":"Ortsprofil","description_has_more":true,"detail_plans":[],"alternate_locations":[],"sources":[{"bookId":"sr3-deutschland-in-den-schatten-ii","title":"Deutschland in den Schatten II","edition":"SR3","citation":"Horn/Lehe (B)","purpose":"description"}],"map_sources":[],"editions":["SR3"],"edition_descriptions":{"SR3":{"kind":"Ortsprofil","preview":"Horn/Lehe ist das Universitätsviertel mit Hochschulen für Technik, Nautik und Informatik.","full":"Horn/Lehe ist das Universitätsviertel mit Hochschulen für Technik, Nautik und Informatik. Die Position ist auf den belegten Stadt- oder Teilraum angenähert; eine hausgenaue Lage und eine weitergehende eigene Fließtextbeschreibung sind aus dem zugeordneten Datenmaterial nicht sicher ableitbar.","hasMore":true,"hasExcerpt":true,"sources":[{"bookId":"sr3-deutschland-in-den-schatten-ii","title":"Deutschland in den Schatten II","edition":"SR3","citation":"Horn/Lehe (B)","purpose":"description"}]}}}},{"type":"Feature","geometry":{"type":"Point","coordinates":[8.827,53.035]},"properties":{"id":3,"global_id":"bremen:place:3-kattenturm","name":"Kattenturm","aliases":[],"category":"Bezirke","detail_map":"Kattenturm","source_pages":"Kattenturm (F)","map_source":"Deutschland in den Schatten II","placement_note":"Geografischer Bezugspunkt des Lore-Distrikts Kattenturm","accuracy":"Lore-Bezirkszentrum; Grenzpolygon noch nicht georeferenziert","source_map":"bremen-content","source_panel":"Kattenturm","description_preview":"Kattenturm wurde nach schweren Unruhen zum Sonderbezirk und ist sozial stark ausgegrenzt.","description_full":"Kattenturm wurde nach schweren Unruhen zum Sonderbezirk und ist sozial stark ausgegrenzt. Die Position ist auf den belegten Stadt- oder Teilraum angenähert; eine hausgenaue Lage und eine weitergehende eigene Fließtextbeschreibung sind aus dem zugeordneten Datenmaterial nicht sicher ableitbar.","description_source":"Kattenturm (F)","description_kind":"Ortsprofil","description_has_more":true,"detail_plans":[],"alternate_locations":[],"sources":[{"bookId":"sr3-deutschland-in-den-schatten-ii","title":"Deutschland in den Schatten II","edition":"SR3","citation":"Kattenturm (F)","purpose":"description"}],"map_sources":[],"editions":["SR3"],"edition_descriptions":{"SR3":{"kind":"Ortsprofil","preview":"Kattenturm wurde nach schweren Unruhen zum Sonderbezirk und ist sozial stark ausgegrenzt.","full":"Kattenturm wurde nach schweren Unruhen zum Sonderbezirk und ist sozial stark ausgegrenzt. Die Position ist auf den belegten Stadt- oder Teilraum angenähert; eine hausgenaue Lage und eine weitergehende eigene Fließtextbeschreibung sind aus dem zugeordneten Datenmaterial nicht sicher ableitbar.","hasMore":true,"hasExcerpt":true,"sources":[{"bookId":"sr3-deutschland-in-den-schatten-ii","title":"Deutschland in den Schatten II","edition":"SR3","citation":"Kattenturm (F)","purpose":"description"}]}}}},{"type":"Feature","geometry":{"type":"Point","coordinates":[8.853,53.106]},"properties":{"id":5,"global_id":"bremen:place:5-universitat-bremen","name":"Universität Bremen","aliases":[],"category":"Bildung und Kultur","detail_map":"Horn/Lehe","source_pages":"Horn/Lehe (B)","map_source":"Deutschland in den Schatten II","placement_note":"Erhaltener geographischer Bezugspunkt","accuracy":"Geographischer Bezugspunkt","source_map":"bremen-content","source_panel":"Horn/Lehe","description_preview":"Die Universität prägt den Wissenschafts- und Bildungsstandort Horn/Lehe.","description_full":"Die Universität prägt den Wissenschafts- und Bildungsstandort Horn/Lehe. Die Position folgt einem erhaltenen heutigen Bezugspunkt.","description_source":"Horn/Lehe (B)","description_kind":"Ortsprofil","description_has_more":true,"detail_plans":[],"alternate_locations":[],"sources":[{"bookId":"sr3-deutschland-in-den-schatten-ii","title":"Deutschland in den Schatten II","edition":"SR3","citation":"Horn/Lehe (B)","purpose":"description"}],"map_sources":[],"editions":["SR3"],"edition_descriptions":{"SR3":{"kind":"Ortsprofil","preview":"Die Universität prägt den Wissenschafts- und Bildungsstandort Horn/Lehe.","full":"Die Universität prägt den Wissenschafts- und Bildungsstandort Horn/Lehe. Die Position folgt einem erhaltenen heutigen Bezugspunkt.","hasMore":true,"hasExcerpt":true,"sources":[{"bookId":"sr3-deutschland-in-den-schatten-ii","title":"Deutschland in den Schatten II","edition":"SR3","citation":"Horn/Lehe (B)","purpose":"description"}]}}}}]}
