{"type":"FeatureCollection","name":"Buenos Aires Orte","features":[{"type":"Feature","geometry":{"type":"Point","coordinates":[-58.3816,-34.6037]},"properties":{"id":1,"global_id":"buenos-aires:place:1-buenos-aires-lore-raum","name":"Buenos Aires Lore-Raum","aliases":[],"category":"Bezirke","detail_map":"Buenos Aires Lore-Raum","source_pages":"Stadt- oder Regionalkapitel","map_source":"Shadows of Latin America v1.2","placement_note":"Geografischer Bezugspunkt des Lore-Distrikts Buenos Aires Lore-Raum","accuracy":"Lore-Bezirkszentrum; Grenzpolygon noch nicht georeferenziert","source_map":"buenos-aires-content","source_panel":"Buenos Aires Lore-Raum","description_preview":"Buenos Aires ist Argentiniens politischer, kultureller, Hafen- und Wirtschaftskern.","description_full":"Buenos Aires ist Argentiniens politischer, kultureller, Hafen- und Wirtschaftskern. Die Position ist auf den belegten Stadt- oder Teilraum angenähert; eine hausgenaue Lage und eine weitergehende eigene Fließtextbeschreibung sind aus dem zugeordneten Datenmaterial nicht sicher ableitbar.","description_source":"Stadt- oder Regionalkapitel","description_kind":"Ortsprofil","description_has_more":true,"detail_plans":[],"alternate_locations":[],"sources":[{"bookId":"sr3-shadows-of-latin-america-v1-2","title":"Shadows of Latin America v1.2","edition":"SR3","citation":"Stadt- oder Regionalkapitel","purpose":"description"}],"map_sources":[],"editions":["SR3"],"edition_descriptions":{"SR3":{"kind":"Ortsprofil","preview":"Buenos Aires ist Argentiniens politischer, kultureller, Hafen- und Wirtschaftskern.","full":"Buenos Aires ist Argentiniens politischer, kultureller, Hafen- und Wirtschaftskern. Die Position ist auf den belegten Stadt- oder Teilraum angenähert; eine hausgenaue Lage und eine weitergehende eigene Fließtextbeschreibung sind aus dem zugeordneten Datenmaterial nicht sicher ableitbar.","hasMore":true,"hasExcerpt":true,"sources":[{"bookId":"sr3-shadows-of-latin-america-v1-2","title":"Shadows of Latin America v1.2","edition":"SR3","citation":"Stadt- oder Regionalkapitel","purpose":"description"}]}}}}]}
