{"type":"FeatureCollection","name":"Atlanta Orte","features":[{"type":"Feature","geometry":null,"properties":{"id":7,"global_id":"atlanta:place:7-atlanta-black-market","name":"Atlanta Black Market","aliases":[],"category":"Einkaufen","detail_map":"Atlanta","source_pages":"Black Market","map_source":"The Neo-Anarchist's Guide to North America","placement_note":"Keine belastbare Einzelposition; Eintrag bleibt im Katalog","accuracy":"Nur Stadt oder Lore-Teilraum belegt","source_map":"atlanta-content","source_panel":"Atlanta","description_preview":"Der Schwarze Markt ist ein zentraler Umschlagplatz der lokalen Schattenwirtschaft.","description_full":"Der Schwarze Markt ist ein zentraler Umschlagplatz der lokalen Schattenwirtschaft. Die Position ist auf den belegten Stadt- oder Teilraum angenähert; eine hausgenaue Lage und eine weitergehende eigene Fließtextbeschreibung sind aus dem zugeordneten Datenmaterial nicht sicher ableitbar.","description_source":"Black Market","description_kind":"Ortsprofil","description_has_more":true,"detail_plans":[],"alternate_locations":[],"sources":[{"bookId":"sr1-the-neo-anarchist-s-guide-to-north-america","title":"The Neo-Anarchist's Guide to North America","edition":"SR1","citation":"Black Market","purpose":"description"}],"map_sources":[],"editions":["SR1"],"edition_descriptions":{"SR1":{"kind":"Ortsprofil","preview":"Der Schwarze Markt ist ein zentraler Umschlagplatz der lokalen Schattenwirtschaft.","full":"Der Schwarze Markt ist ein zentraler Umschlagplatz der lokalen Schattenwirtschaft. Die Position ist auf den belegten Stadt- oder Teilraum angenähert; eine hausgenaue Lage und eine weitergehende eigene Fließtextbeschreibung sind aus dem zugeordneten Datenmaterial nicht sicher ableitbar.","hasMore":true,"hasExcerpt":true,"sources":[{"bookId":"sr1-the-neo-anarchist-s-guide-to-north-america","title":"The Neo-Anarchist's Guide to North America","edition":"SR1","citation":"Black Market","purpose":"description"}]}}}},{"type":"Feature","geometry":{"type":"Point","coordinates":[-84.388,33.749]},"properties":{"id":1,"global_id":"atlanta:place:1-atlanta-core","name":"Atlanta Core","aliases":[],"category":"Bezirke","detail_map":"Atlanta Core","source_pages":"Kapitel Atlanta","map_source":"The Neo-Anarchist's Guide to North America","placement_note":"Geografischer Bezugspunkt des Lore-Distrikts Atlanta Core","accuracy":"Lore-Bezirkszentrum; Grenzpolygon noch nicht georeferenziert","source_map":"atlanta-content","source_panel":"Atlanta Core","description_preview":"Der Kern bündelt Regierung, Konzernzentralen und kulturelle Einrichtungen der CAS-Hauptstadt.","description_full":"Der Kern bündelt Regierung, Konzernzentralen und kulturelle Einrichtungen der CAS-Hauptstadt. Die Position ist auf den belegten Stadt- oder Teilraum angenähert; eine hausgenaue Lage und eine weitergehende eigene Fließtextbeschreibung sind aus dem zugeordneten Datenmaterial nicht sicher ableitbar.","description_source":"Kapitel Atlanta","description_kind":"Ortsprofil","description_has_more":true,"detail_plans":[],"alternate_locations":[],"sources":[{"bookId":"sr1-the-neo-anarchist-s-guide-to-north-america","title":"The Neo-Anarchist's Guide to North America","edition":"SR1","citation":"Kapitel Atlanta","purpose":"description"}],"map_sources":[],"editions":["SR1"],"edition_descriptions":{"SR1":{"kind":"Ortsprofil","preview":"Der Kern bündelt Regierung, Konzernzentralen und kulturelle Einrichtungen der CAS-Hauptstadt.","full":"Der Kern bündelt Regierung, Konzernzentralen und kulturelle Einrichtungen der CAS-Hauptstadt. Die Position ist auf den belegten Stadt- oder Teilraum angenähert; eine hausgenaue Lage und eine weitergehende eigene Fließtextbeschreibung sind aus dem zugeordneten Datenmaterial nicht sicher ableitbar.","hasMore":true,"hasExcerpt":true,"sources":[{"bookId":"sr1-the-neo-anarchist-s-guide-to-north-america","title":"The Neo-Anarchist's Guide to North America","edition":"SR1","citation":"Kapitel Atlanta","purpose":"description"}]}}}},{"type":"Feature","geometry":{"type":"Point","coordinates":[-84.379,33.838]},"properties":{"id":2,"global_id":"atlanta:place:2-buckhead","name":"Buckhead","aliases":[],"category":"Bezirke","detail_map":"Buckhead","source_pages":"Buckhead (AA)","map_source":"The Neo-Anarchist's Guide to North America","placement_note":"Geografischer Bezugspunkt des Lore-Distrikts Buckhead","accuracy":"Lore-Bezirkszentrum; Grenzpolygon noch nicht georeferenziert","source_map":"atlanta-content","source_panel":"Buckhead","description_preview":"Buckhead ist ein besonders wohlhabender und stark gesicherter Wohn- und Geschäftsbezirk.","description_full":"Buckhead ist ein besonders wohlhabender und stark gesicherter Wohn- und Geschäftsbezirk. Die Position ist auf den belegten Stadt- oder Teilraum angenähert; eine hausgenaue Lage und eine weitergehende eigene Fließtextbeschreibung sind aus dem zugeordneten Datenmaterial nicht sicher ableitbar.","description_source":"Buckhead (AA)","description_kind":"Ortsprofil","description_has_more":true,"detail_plans":[],"alternate_locations":[],"sources":[{"bookId":"sr1-the-neo-anarchist-s-guide-to-north-america","title":"The Neo-Anarchist's Guide to North America","edition":"SR1","citation":"Buckhead (AA)","purpose":"description"}],"map_sources":[],"editions":["SR1"],"edition_descriptions":{"SR1":{"kind":"Ortsprofil","preview":"Buckhead ist ein besonders wohlhabender und stark gesicherter Wohn- und Geschäftsbezirk.","full":"Buckhead ist ein besonders wohlhabender und stark gesicherter Wohn- und Geschäftsbezirk. Die Position ist auf den belegten Stadt- oder Teilraum angenähert; eine hausgenaue Lage und eine weitergehende eigene Fließtextbeschreibung sind aus dem zugeordneten Datenmaterial nicht sicher ableitbar.","hasMore":true,"hasExcerpt":true,"sources":[{"bookId":"sr1-the-neo-anarchist-s-guide-to-north-america","title":"The Neo-Anarchist's Guide to North America","edition":"SR1","citation":"Buckhead (AA)","purpose":"description"}]}}}},{"type":"Feature","geometry":{"type":"Point","coordinates":[-84.296,33.775]},"properties":{"id":3,"global_id":"atlanta:place:3-decatur","name":"Decatur","aliases":[],"category":"Bezirke","detail_map":"Decatur","source_pages":"Decatur (B)","map_source":"The Neo-Anarchist's Guide to North America","placement_note":"Geografischer Bezugspunkt des Lore-Distrikts Decatur","accuracy":"Lore-Bezirkszentrum; Grenzpolygon noch nicht georeferenziert","source_map":"atlanta-content","source_panel":"Decatur","description_preview":"Decatur ist ein eigenständiger östlicher Teilraum des Atlanta-Plexes.","description_full":"Decatur ist ein eigenständiger östlicher Teilraum des Atlanta-Plexes. Die Position ist auf den belegten Stadt- oder Teilraum angenähert; eine hausgenaue Lage und eine weitergehende eigene Fließtextbeschreibung sind aus dem zugeordneten Datenmaterial nicht sicher ableitbar.","description_source":"Decatur (B)","description_kind":"Ortsprofil","description_has_more":true,"detail_plans":[],"alternate_locations":[],"sources":[{"bookId":"sr1-the-neo-anarchist-s-guide-to-north-america","title":"The Neo-Anarchist's Guide to North America","edition":"SR1","citation":"Decatur (B)","purpose":"description"}],"map_sources":[],"editions":["SR1"],"edition_descriptions":{"SR1":{"kind":"Ortsprofil","preview":"Decatur ist ein eigenständiger östlicher Teilraum des Atlanta-Plexes.","full":"Decatur ist ein eigenständiger östlicher Teilraum des Atlanta-Plexes. Die Position ist auf den belegten Stadt- oder Teilraum angenähert; eine hausgenaue Lage und eine weitergehende eigene Fließtextbeschreibung sind aus dem zugeordneten Datenmaterial nicht sicher ableitbar.","hasMore":true,"hasExcerpt":true,"sources":[{"bookId":"sr1-the-neo-anarchist-s-guide-to-north-america","title":"The Neo-Anarchist's Guide to North America","edition":"SR1","citation":"Decatur (B)","purpose":"description"}]}}}},{"type":"Feature","geometry":{"type":"Point","coordinates":[-84.747,33.751]},"properties":{"id":4,"global_id":"atlanta:place:4-douglasville","name":"Douglasville","aliases":[],"category":"Bezirke","detail_map":"Douglasville","source_pages":"Douglasville (C)","map_source":"The Neo-Anarchist's Guide to North America","placement_note":"Geografischer Bezugspunkt des Lore-Distrikts Douglasville","accuracy":"Lore-Bezirkszentrum; Grenzpolygon noch nicht georeferenziert","source_map":"atlanta-content","source_panel":"Douglasville","description_preview":"Douglasville bildet einen westlichen Rand- und Siedlungsraum.","description_full":"Douglasville bildet einen westlichen Rand- und Siedlungsraum. Die Position ist auf den belegten Stadt- oder Teilraum angenähert; eine hausgenaue Lage und eine weitergehende eigene Fließtextbeschreibung sind aus dem zugeordneten Datenmaterial nicht sicher ableitbar.","description_source":"Douglasville (C)","description_kind":"Ortsprofil","description_has_more":true,"detail_plans":[],"alternate_locations":[],"sources":[{"bookId":"sr1-the-neo-anarchist-s-guide-to-north-america","title":"The Neo-Anarchist's Guide to North America","edition":"SR1","citation":"Douglasville (C)","purpose":"description"}],"map_sources":[],"editions":["SR1"],"edition_descriptions":{"SR1":{"kind":"Ortsprofil","preview":"Douglasville bildet einen westlichen Rand- und Siedlungsraum.","full":"Douglasville bildet einen westlichen Rand- und Siedlungsraum. Die Position ist auf den belegten Stadt- oder Teilraum angenähert; eine hausgenaue Lage und eine weitergehende eigene Fließtextbeschreibung sind aus dem zugeordneten Datenmaterial nicht sicher ableitbar.","hasMore":true,"hasExcerpt":true,"sources":[{"bookId":"sr1-the-neo-anarchist-s-guide-to-north-america","title":"The Neo-Anarchist's Guide to North America","edition":"SR1","citation":"Douglasville (C)","purpose":"description"}]}}}},{"type":"Feature","geometry":null,"properties":{"id":6,"global_id":"atlanta:place:6-link-club-atlanta","name":"Link Club Atlanta","aliases":[],"category":"Bars und Clubs","detail_map":"Atlanta","source_pages":"Link Club","map_source":"Gestohlene Seelen","placement_note":"Keine belastbare Einzelposition; Eintrag bleibt im Katalog","accuracy":"Nur Stadt oder Lore-Teilraum belegt","source_map":"atlanta-content","source_panel":"Atlanta","description_preview":"Der Atlanta-Ableger gehört zur internationalen Link-Club-Kette.","description_full":"Der Atlanta-Ableger gehört zur internationalen Link-Club-Kette. Die Position ist auf den belegten Stadt- oder Teilraum angenähert; eine hausgenaue Lage und eine weitergehende eigene Fließtextbeschreibung sind aus dem zugeordneten Datenmaterial nicht sicher ableitbar.","description_source":"Link Club","description_kind":"Ortsprofil","description_has_more":true,"detail_plans":[],"alternate_locations":[],"sources":[{"bookId":"sr5-gestohlene-seelen","title":"Gestohlene Seelen","edition":"SR5","citation":"Link Club","purpose":"description"}],"map_sources":[],"editions":["SR5"],"edition_descriptions":{"SR5":{"kind":"Ortsprofil","preview":"Der Atlanta-Ableger gehört zur internationalen Link-Club-Kette.","full":"Der Atlanta-Ableger gehört zur internationalen Link-Club-Kette. Die Position ist auf den belegten Stadt- oder Teilraum angenähert; eine hausgenaue Lage und eine weitergehende eigene Fließtextbeschreibung sind aus dem zugeordneten Datenmaterial nicht sicher ableitbar.","hasMore":true,"hasExcerpt":true,"sources":[{"bookId":"sr5-gestohlene-seelen","title":"Gestohlene Seelen","edition":"SR5","citation":"Link Club","purpose":"description"}]}}}},{"type":"Feature","geometry":{"type":"Point","coordinates":[-84.41,33.68]},"properties":{"id":5,"global_id":"atlanta:place:5-southtown","name":"Southtown","aliases":[],"category":"Bezirke","detail_map":"Southtown","source_pages":"Southtown (E)","map_source":"The Neo-Anarchist's Guide to North America","placement_note":"Geografischer Bezugspunkt des Lore-Distrikts Southtown","accuracy":"Lore-Bezirkszentrum; Grenzpolygon noch nicht georeferenziert","source_map":"atlanta-content","source_panel":"Southtown","description_preview":"Southtown ist ein südlicher, deutlich schwächer eingestufter Teilraum des Plexes.","description_full":"Southtown ist ein südlicher, deutlich schwächer eingestufter Teilraum des Plexes. Die Position ist auf den belegten Stadt- oder Teilraum angenähert; eine hausgenaue Lage und eine weitergehende eigene Fließtextbeschreibung sind aus dem zugeordneten Datenmaterial nicht sicher ableitbar.","description_source":"Southtown (E)","description_kind":"Ortsprofil","description_has_more":true,"detail_plans":[],"alternate_locations":[],"sources":[{"bookId":"sr1-the-neo-anarchist-s-guide-to-north-america","title":"The Neo-Anarchist's Guide to North America","edition":"SR1","citation":"Southtown (E)","purpose":"description"}],"map_sources":[],"editions":["SR1"],"edition_descriptions":{"SR1":{"kind":"Ortsprofil","preview":"Southtown ist ein südlicher, deutlich schwächer eingestufter Teilraum des Plexes.","full":"Southtown ist ein südlicher, deutlich schwächer eingestufter Teilraum des Plexes. Die Position ist auf den belegten Stadt- oder Teilraum angenähert; eine hausgenaue Lage und eine weitergehende eigene Fließtextbeschreibung sind aus dem zugeordneten Datenmaterial nicht sicher ableitbar.","hasMore":true,"hasExcerpt":true,"sources":[{"bookId":"sr1-the-neo-anarchist-s-guide-to-north-america","title":"The Neo-Anarchist's Guide to North America","edition":"SR1","citation":"Southtown (E)","purpose":"description"}]}}}}]}
