{"type":"FeatureCollection","name":"Austin Orte","features":[{"type":"Feature","geometry":{"type":"Point","coordinates":[-97.7431,30.2672]},"properties":{"id":1,"global_id":"austin:place:1-austin-lore-raum","name":"Austin Lore-Raum","aliases":[],"category":"Bezirke","detail_map":"Austin Lore-Raum","source_pages":"Stadt- oder Regionalkapitel","map_source":"Lone Star","placement_note":"Geografischer Bezugspunkt des Lore-Distrikts Austin Lore-Raum","accuracy":"Lore-Bezirkszentrum; Grenzpolygon noch nicht georeferenziert","source_map":"austin-content","source_panel":"Austin Lore-Raum","description_preview":"Austin ist Regierungssitz des Freistaats Texas und eng mit Lone Star, Politik und regionaler Konzernwirtschaft verbunden.","description_full":"Austin ist Regierungssitz des Freistaats Texas und eng mit Lone Star, Politik und regionaler Konzernwirtschaft verbunden. Die Position ist auf den belegten Stadt- oder Teilraum angenähert; eine hausgenaue Lage und eine weitergehende eigene Fließtextbeschreibung sind aus dem zugeordneten Datenmaterial nicht sicher ableitbar.","description_source":"Stadt- oder Regionalkapitel","description_kind":"Ortsprofil","description_has_more":true,"detail_plans":[],"alternate_locations":[],"sources":[{"bookId":"sr2-lone-star","title":"Lone Star","edition":"SR2","citation":"Stadt- oder Regionalkapitel","purpose":"description"}],"map_sources":[],"editions":["SR2"],"edition_descriptions":{"SR2":{"kind":"Ortsprofil","preview":"Austin ist Regierungssitz des Freistaats Texas und eng mit Lone Star, Politik und regionaler Konzernwirtschaft verbunden.","full":"Austin ist Regierungssitz des Freistaats Texas und eng mit Lone Star, Politik und regionaler Konzernwirtschaft verbunden. Die Position ist auf den belegten Stadt- oder Teilraum angenähert; eine hausgenaue Lage und eine weitergehende eigene Fließtextbeschreibung sind aus dem zugeordneten Datenmaterial nicht sicher ableitbar.","hasMore":true,"hasExcerpt":true,"sources":[{"bookId":"sr2-lone-star","title":"Lone Star","edition":"SR2","citation":"Stadt- oder Regionalkapitel","purpose":"description"}]}}}}]}
