{"type":"FeatureCollection","name":"Vladivostok Orte","features":[{"type":"Feature","geometry":null,"properties":{"id":4,"global_id":"vladivostok:place:4-dyadya-yarovs","name":"Dyadya Yarov’s","aliases":[],"category":"Bars und Kneipen","detail_map":"Vladivostok Core","source_pages":"Dyadya Yarov’s","map_source":"Enhanced Fiction - The Vladivostok Gauntlet","placement_note":"Keine belastbare Einzelposition; Eintrag bleibt im Katalog","accuracy":"Nur Stadt oder Lore-Teilraum belegt","source_map":"vladivostok-content","source_panel":"Vladivostok Core","description_preview":"Dyadya Yarov’s ist ein lokaler Treff- und Kontaktort.","description_full":"Dyadya Yarov’s ist ein lokaler Treff- und Kontaktort. Die Position ist auf den belegten Stadt- oder Teilraum angenähert; eine hausgenaue Lage und eine weitergehende eigene Fließtextbeschreibung sind aus dem zugeordneten Datenmaterial nicht sicher ableitbar.","description_source":"Dyadya Yarov’s","description_kind":"Ortsprofil","description_has_more":true,"detail_plans":[],"alternate_locations":[],"sources":[{"bookId":"sr5-enhanced-fiction-the-vladivostok-gauntlet","title":"Enhanced Fiction - The Vladivostok Gauntlet","edition":"SR5","citation":"Dyadya Yarov’s","purpose":"description"}],"map_sources":[],"editions":["SR5"],"edition_descriptions":{"SR5":{"kind":"Ortsprofil","preview":"Dyadya Yarov’s ist ein lokaler Treff- und Kontaktort.","full":"Dyadya Yarov’s ist ein lokaler Treff- und Kontaktort. Die Position ist auf den belegten Stadt- oder Teilraum angenähert; eine hausgenaue Lage und eine weitergehende eigene Fließtextbeschreibung sind aus dem zugeordneten Datenmaterial nicht sicher ableitbar.","hasMore":true,"hasExcerpt":true,"sources":[{"bookId":"sr5-enhanced-fiction-the-vladivostok-gauntlet","title":"Enhanced Fiction - The Vladivostok Gauntlet","edition":"SR5","citation":"Dyadya Yarov’s","purpose":"description"}]}}}},{"type":"Feature","geometry":null,"properties":{"id":5,"global_id":"vladivostok:place:5-evo-aphrodite","name":"Evo Aphrodite","aliases":[],"category":"Konzerne","detail_map":"Vladivostok","source_pages":"Evo Aphrodite","map_source":"Enhanced Fiction - The Vladivostok Gauntlet","placement_note":"Keine belastbare Einzelposition; Eintrag bleibt im Katalog","accuracy":"Nur Stadt oder Lore-Teilraum belegt","source_map":"vladivostok-content","source_panel":"Vladivostok","description_preview":"Evo Aphrodite ist ein in der Erzählquelle belegter Konzernstandort.","description_full":"Evo Aphrodite ist ein in der Erzählquelle belegter Konzernstandort. Die Position ist auf den belegten Stadt- oder Teilraum angenähert; eine hausgenaue Lage und eine weitergehende eigene Fließtextbeschreibung sind aus dem zugeordneten Datenmaterial nicht sicher ableitbar.","description_source":"Evo Aphrodite","description_kind":"Ortsprofil","description_has_more":true,"detail_plans":[],"alternate_locations":[],"sources":[{"bookId":"sr5-enhanced-fiction-the-vladivostok-gauntlet","title":"Enhanced Fiction - The Vladivostok Gauntlet","edition":"SR5","citation":"Evo Aphrodite","purpose":"description"}],"map_sources":[],"editions":["SR5"],"edition_descriptions":{"SR5":{"kind":"Ortsprofil","preview":"Evo Aphrodite ist ein in der Erzählquelle belegter Konzernstandort.","full":"Evo Aphrodite ist ein in der Erzählquelle belegter Konzernstandort. Die Position ist auf den belegten Stadt- oder Teilraum angenähert; eine hausgenaue Lage und eine weitergehende eigene Fließtextbeschreibung sind aus dem zugeordneten Datenmaterial nicht sicher ableitbar.","hasMore":true,"hasExcerpt":true,"sources":[{"bookId":"sr5-enhanced-fiction-the-vladivostok-gauntlet","title":"Enhanced Fiction - The Vladivostok Gauntlet","edition":"SR5","citation":"Evo Aphrodite","purpose":"description"}]}}}},{"type":"Feature","geometry":null,"properties":{"id":7,"global_id":"vladivostok:place:7-link-club-vladivostok","name":"Link Club Vladivostok","aliases":[],"category":"Bars und Clubs","detail_map":"Vladivostok Core","source_pages":"Link Club","map_source":"Gestohlene Seelen","placement_note":"Keine belastbare Einzelposition; Eintrag bleibt im Katalog","accuracy":"Nur Stadt oder Lore-Teilraum belegt","source_map":"vladivostok-content","source_panel":"Vladivostok Core","description_preview":"Der Vladivostoker Ableger gehört zur internationalen Link-Club-Kette.","description_full":"Der Vladivostoker Ableger gehört zur internationalen Link-Club-Kette. Die Position ist auf den belegten Stadt- oder Teilraum angenähert; eine hausgenaue Lage und eine weitergehende eigene Fließtextbeschreibung sind aus dem zugeordneten Datenmaterial nicht sicher ableitbar.","description_source":"Link Club","description_kind":"Ortsprofil","description_has_more":true,"detail_plans":[],"alternate_locations":[],"sources":[{"bookId":"sr5-gestohlene-seelen","title":"Gestohlene Seelen","edition":"SR5","citation":"Link Club","purpose":"description"}],"map_sources":[],"editions":["SR5"],"edition_descriptions":{"SR5":{"kind":"Ortsprofil","preview":"Der Vladivostoker Ableger gehört zur internationalen Link-Club-Kette.","full":"Der Vladivostoker Ableger gehört zur internationalen Link-Club-Kette. Die Position ist auf den belegten Stadt- oder Teilraum angenähert; eine hausgenaue Lage und eine weitergehende eigene Fließtextbeschreibung sind aus dem zugeordneten Datenmaterial nicht sicher ableitbar.","hasMore":true,"hasExcerpt":true,"sources":[{"bookId":"sr5-gestohlene-seelen","title":"Gestohlene Seelen","edition":"SR5","citation":"Link Club","purpose":"description"}]}}}},{"type":"Feature","geometry":null,"properties":{"id":3,"global_id":"vladivostok:place:3-titty-coffee-bar","name":"Titty Coffee Bar","aliases":[],"category":"Bars und Kneipen","detail_map":"Vladivostok Core","source_pages":"Titty Coffee Bar","map_source":"Enhanced Fiction - The Vladivostok Gauntlet","placement_note":"Keine belastbare Einzelposition; Eintrag bleibt im Katalog","accuracy":"Nur Stadt oder Lore-Teilraum belegt","source_map":"vladivostok-content","source_panel":"Vladivostok Core","description_preview":"Die Coffee Bar ist ein Treffpunkt des späteren Vladivostok-Quellenstands.","description_full":"Die Coffee Bar ist ein Treffpunkt des späteren Vladivostok-Quellenstands. Die Position ist auf den belegten Stadt- oder Teilraum angenähert; eine hausgenaue Lage und eine weitergehende eigene Fließtextbeschreibung sind aus dem zugeordneten Datenmaterial nicht sicher ableitbar.","description_source":"Titty Coffee Bar","description_kind":"Ortsprofil","description_has_more":true,"detail_plans":[],"alternate_locations":[],"sources":[{"bookId":"sr5-enhanced-fiction-the-vladivostok-gauntlet","title":"Enhanced Fiction - The Vladivostok Gauntlet","edition":"SR5","citation":"Titty Coffee Bar","purpose":"description"}],"map_sources":[],"editions":["SR5"],"edition_descriptions":{"SR5":{"kind":"Ortsprofil","preview":"Die Coffee Bar ist ein Treffpunkt des späteren Vladivostok-Quellenstands.","full":"Die Coffee Bar ist ein Treffpunkt des späteren Vladivostok-Quellenstands. Die Position ist auf den belegten Stadt- oder Teilraum angenähert; eine hausgenaue Lage und eine weitergehende eigene Fließtextbeschreibung sind aus dem zugeordneten Datenmaterial nicht sicher ableitbar.","hasMore":true,"hasExcerpt":true,"sources":[{"bookId":"sr5-enhanced-fiction-the-vladivostok-gauntlet","title":"Enhanced Fiction - The Vladivostok Gauntlet","edition":"SR5","citation":"Titty Coffee Bar","purpose":"description"}]}}}},{"type":"Feature","geometry":{"type":"Point","coordinates":[131.889,43.117]},"properties":{"id":2,"global_id":"vladivostok:place:2-vladivostok-core","name":"Vladivostok Core","aliases":[],"category":"Bezirke","detail_map":"Vladivostok Core","source_pages":"Kapitel Vladivostok","map_source":"Target Smuggler Havens","placement_note":"Geografischer Bezugspunkt des Lore-Distrikts Vladivostok Core","accuracy":"Lore-Bezirkszentrum; Grenzpolygon noch nicht georeferenziert","source_map":"vladivostok-content","source_panel":"Vladivostok Core","description_preview":"Der Stadtkern bündelt Verwaltung, Geschäftswelt, Unterwelt und Nachtleben.","description_full":"Der Stadtkern bündelt Verwaltung, Geschäftswelt, Unterwelt und Nachtleben. Die Position ist auf den belegten Stadt- oder Teilraum angenähert; eine hausgenaue Lage und eine weitergehende eigene Fließtextbeschreibung sind aus dem zugeordneten Datenmaterial nicht sicher ableitbar.","description_source":"Kapitel Vladivostok","description_kind":"Ortsprofil","description_has_more":true,"detail_plans":[],"alternate_locations":[],"sources":[{"bookId":"sr2-target-smuggler-havens","title":"Target Smuggler Havens","edition":"SR2","citation":"Kapitel Vladivostok","purpose":"description"}],"map_sources":[],"editions":["SR2"],"edition_descriptions":{"SR2":{"kind":"Ortsprofil","preview":"Der Stadtkern bündelt Verwaltung, Geschäftswelt, Unterwelt und Nachtleben.","full":"Der Stadtkern bündelt Verwaltung, Geschäftswelt, Unterwelt und Nachtleben. Die Position ist auf den belegten Stadt- oder Teilraum angenähert; eine hausgenaue Lage und eine weitergehende eigene Fließtextbeschreibung sind aus dem zugeordneten Datenmaterial nicht sicher ableitbar.","hasMore":true,"hasExcerpt":true,"sources":[{"bookId":"sr2-target-smuggler-havens","title":"Target Smuggler Havens","edition":"SR2","citation":"Kapitel Vladivostok","purpose":"description"}]}}}},{"type":"Feature","geometry":{"type":"Point","coordinates":[131.875,43.105]},"properties":{"id":1,"global_id":"vladivostok:place:1-vladivostok-harbor","name":"Vladivostok Harbor","aliases":[],"category":"Bezirke","detail_map":"Vladivostok Harbor","source_pages":"Kapitel Vladivostok","map_source":"Target Smuggler Havens","placement_note":"Geografischer Bezugspunkt des Lore-Distrikts Vladivostok Harbor","accuracy":"Lore-Bezirkszentrum; Grenzpolygon noch nicht georeferenziert","source_map":"vladivostok-content","source_panel":"Vladivostok Harbor","description_preview":"Der Hafen ist logistisches Herz, Schmuggelroute und zentraler Konfliktraum.","description_full":"Der Hafen ist logistisches Herz, Schmuggelroute und zentraler Konfliktraum. Die Position ist auf den belegten Stadt- oder Teilraum angenähert; eine hausgenaue Lage und eine weitergehende eigene Fließtextbeschreibung sind aus dem zugeordneten Datenmaterial nicht sicher ableitbar.","description_source":"Kapitel Vladivostok","description_kind":"Ortsprofil","description_has_more":true,"detail_plans":[],"alternate_locations":[],"sources":[{"bookId":"sr2-target-smuggler-havens","title":"Target Smuggler Havens","edition":"SR2","citation":"Kapitel Vladivostok","purpose":"description"}],"map_sources":[],"editions":["SR2"],"edition_descriptions":{"SR2":{"kind":"Ortsprofil","preview":"Der Hafen ist logistisches Herz, Schmuggelroute und zentraler Konfliktraum.","full":"Der Hafen ist logistisches Herz, Schmuggelroute und zentraler Konfliktraum. Die Position ist auf den belegten Stadt- oder Teilraum angenähert; eine hausgenaue Lage und eine weitergehende eigene Fließtextbeschreibung sind aus dem zugeordneten Datenmaterial nicht sicher ableitbar.","hasMore":true,"hasExcerpt":true,"sources":[{"bookId":"sr2-target-smuggler-havens","title":"Target Smuggler Havens","edition":"SR2","citation":"Kapitel Vladivostok","purpose":"description"}]}}}},{"type":"Feature","geometry":null,"properties":{"id":6,"global_id":"vladivostok:place:6-yamatetsu-naval-technologies","name":"Yamatetsu Naval Technologies","aliases":[],"category":"Konzerne","detail_map":"Vladivostok Harbor","source_pages":"Yamatetsu Naval Technologies","map_source":"Shadowrun - Corporate Download","placement_note":"Keine belastbare Einzelposition; Eintrag bleibt im Katalog","accuracy":"Nur Stadt oder Lore-Teilraum belegt","source_map":"vladivostok-content","source_panel":"Vladivostok Harbor","description_preview":"Der historische Yamatetsu-Standort verbindet Konzern- und Marinetechnologie.","description_full":"Der historische Yamatetsu-Standort verbindet Konzern- und Marinetechnologie. Die Position ist auf den belegten Stadt- oder Teilraum angenähert; eine hausgenaue Lage und eine weitergehende eigene Fließtextbeschreibung sind aus dem zugeordneten Datenmaterial nicht sicher ableitbar.","description_source":"Yamatetsu Naval Technologies","description_kind":"Ortsprofil","description_has_more":true,"detail_plans":[],"alternate_locations":[],"sources":[{"bookId":"sr1-shadowrun-corporate-download","title":"Shadowrun - Corporate Download","edition":"SR1","citation":"Yamatetsu Naval Technologies","purpose":"description"}],"map_sources":[],"editions":["SR1"],"edition_descriptions":{"SR1":{"kind":"Ortsprofil","preview":"Der historische Yamatetsu-Standort verbindet Konzern- und Marinetechnologie.","full":"Der historische Yamatetsu-Standort verbindet Konzern- und Marinetechnologie. Die Position ist auf den belegten Stadt- oder Teilraum angenähert; eine hausgenaue Lage und eine weitergehende eigene Fließtextbeschreibung sind aus dem zugeordneten Datenmaterial nicht sicher ableitbar.","hasMore":true,"hasExcerpt":true,"sources":[{"bookId":"sr1-shadowrun-corporate-download","title":"Shadowrun - Corporate Download","edition":"SR1","citation":"Yamatetsu Naval Technologies","purpose":"description"}]}}}}]}
