{"type":"FeatureCollection","name":"Vladivostok – geprüfte zusätzliche Quellenorte","features":[{"type":"Feature","geometry":null,"properties":{"id":8,"global_id":"vladivostok:source-place:popov-island","name":"Popov Island","aliases":[],"category":"Sonstige Spots","detail_map":"Vladivostok","source_pages":"PDF-Seite 49","map_source":"Target Smuggler Havens","placement_note":"Keine belastbare Einzelposition; Eintrag bleibt im Katalog","accuracy":"Nur Stadt oder Lore-Teilraum belegt","source_map":"source-supplement","source_panel":"Vladivostok","description_preview":"Popov Island ist in Target Smuggler Havens als benannter Schauplatz mit Bezug zu Vladivostok belegt.","description_full":"Popov Island ist in Target Smuggler Havens als benannter Schauplatz mit Bezug zu Vladivostok belegt. Das Dossier fasst den belegten Quellenstand redaktionell zusammen; eine nicht belegte Kartenposition wird nicht ergänzt.","description_source":"PDF-Seite 49","description_kind":"Ortsdossier","description_has_more":true,"detail_plans":[],"alternate_locations":[],"sources":[{"bookId":"sr2-target-smuggler-havens","title":"Target Smuggler Havens","edition":"SR2","citation":"PDF-Seite 49","purpose":"description"}],"map_sources":[],"editions":["SR2"],"edition_descriptions":{"SR2":{"kind":"Ortsdossier","preview":"Popov Island ist in Target Smuggler Havens als benannter Schauplatz mit Bezug zu Vladivostok belegt.","full":"Popov Island ist in Target Smuggler Havens als benannter Schauplatz mit Bezug zu Vladivostok belegt. Das Dossier fasst den belegten Quellenstand redaktionell zusammen; eine nicht belegte Kartenposition wird nicht ergänzt.","hasMore":true,"hasExcerpt":true,"sources":[{"bookId":"sr2-target-smuggler-havens","title":"Target Smuggler Havens","edition":"SR2","citation":"PDF-Seite 49","purpose":"description"}]}}}},{"type":"Feature","geometry":null,"properties":{"id":9,"global_id":"vladivostok:source-place:russky-island","name":"Russky Island","aliases":[],"category":"Sonstige Spots","detail_map":"Vladivostok","source_pages":"PDF-Seite 48","map_source":"Target Smuggler Havens","placement_note":"Keine belastbare Einzelposition; Eintrag bleibt im Katalog","accuracy":"Nur Stadt oder Lore-Teilraum belegt","source_map":"source-supplement","source_panel":"Vladivostok","description_preview":"Russky Island ist in Target Smuggler Havens als benannter Schauplatz mit Bezug zu Vladivostok belegt.","description_full":"Russky Island ist in Target Smuggler Havens als benannter Schauplatz mit Bezug zu Vladivostok belegt. Das Dossier fasst den belegten Quellenstand redaktionell zusammen; eine nicht belegte Kartenposition wird nicht ergänzt.","description_source":"PDF-Seite 48","description_kind":"Ortsdossier","description_has_more":true,"detail_plans":[],"alternate_locations":[],"sources":[{"bookId":"sr2-target-smuggler-havens","title":"Target Smuggler Havens","edition":"SR2","citation":"PDF-Seite 48","purpose":"description"}],"map_sources":[],"editions":["SR2"],"edition_descriptions":{"SR2":{"kind":"Ortsdossier","preview":"Russky Island ist in Target Smuggler Havens als benannter Schauplatz mit Bezug zu Vladivostok belegt.","full":"Russky Island ist in Target Smuggler Havens als benannter Schauplatz mit Bezug zu Vladivostok belegt. Das Dossier fasst den belegten Quellenstand redaktionell zusammen; eine nicht belegte Kartenposition wird nicht ergänzt.","hasMore":true,"hasExcerpt":true,"sources":[{"bookId":"sr2-target-smuggler-havens","title":"Target Smuggler Havens","edition":"SR2","citation":"PDF-Seite 48","purpose":"description"}]}}}},{"type":"Feature","geometry":null,"properties":{"id":10,"global_id":"vladivostok:source-place:sakhalin-island","name":"Sakhalin Island","aliases":[],"category":"Sonstige Spots","detail_map":"Vladivostok","source_pages":"PDF-Seite 33","map_source":"Target Smuggler Havens","placement_note":"Keine belastbare Einzelposition; Eintrag bleibt im Katalog","accuracy":"Nur Stadt oder Lore-Teilraum belegt","source_map":"source-supplement","source_panel":"Vladivostok","description_preview":"Sakhalin Island ist in Target Smuggler Havens als benannter Schauplatz mit Bezug zu Vladivostok belegt.","description_full":"Sakhalin Island ist in Target Smuggler Havens als benannter Schauplatz mit Bezug zu Vladivostok belegt. Das Dossier fasst den belegten Quellenstand redaktionell zusammen; eine nicht belegte Kartenposition wird nicht ergänzt.","description_source":"PDF-Seite 33","description_kind":"Ortsdossier","description_has_more":true,"detail_plans":[],"alternate_locations":[],"sources":[{"bookId":"sr2-target-smuggler-havens","title":"Target Smuggler Havens","edition":"SR2","citation":"PDF-Seite 33","purpose":"description"}],"map_sources":[],"editions":["SR2"],"edition_descriptions":{"SR2":{"kind":"Ortsdossier","preview":"Sakhalin Island ist in Target Smuggler Havens als benannter Schauplatz mit Bezug zu Vladivostok belegt.","full":"Sakhalin Island ist in Target Smuggler Havens als benannter Schauplatz mit Bezug zu Vladivostok belegt. Das Dossier fasst den belegten Quellenstand redaktionell zusammen; eine nicht belegte Kartenposition wird nicht ergänzt.","hasMore":true,"hasExcerpt":true,"sources":[{"bookId":"sr2-target-smuggler-havens","title":"Target Smuggler Havens","edition":"SR2","citation":"PDF-Seite 33","purpose":"description"}]}}}}]}
