{"type":"FeatureCollection","name":"St. Louis Orte","features":[{"type":"Feature","geometry":{"type":"Point","coordinates":[-90.1994,38.627]},"properties":{"id":1,"global_id":"st-louis:place:1-st-louis-lore-raum","name":"St. Louis Lore-Raum","aliases":[],"category":"Bezirke","detail_map":"St. Louis Lore-Raum","source_pages":"Stadt- oder Regionalkapitel","map_source":"The Neo-Anarchist's Guide to North America","placement_note":"Geografischer Bezugspunkt des Lore-Distrikts St. Louis Lore-Raum","accuracy":"Lore-Bezirkszentrum; Grenzpolygon noch nicht georeferenziert","source_map":"st-louis-content","source_panel":"St. Louis Lore-Raum","description_preview":"St. Louis ist ein bedeutender Mississippi-Verkehrsraum mit UCAS-, CAS- und Unterweltbezügen.","description_full":"St. Louis ist ein bedeutender Mississippi-Verkehrsraum mit UCAS-, CAS- und Unterweltbezügen. Die Position ist auf den belegten Stadt- oder Teilraum angenähert; eine hausgenaue Lage und eine weitergehende eigene Fließtextbeschreibung sind aus dem zugeordneten Datenmaterial nicht sicher ableitbar.","description_source":"Stadt- oder Regionalkapitel","description_kind":"Ortsprofil","description_has_more":true,"detail_plans":[],"alternate_locations":[],"sources":[{"bookId":"sr1-the-neo-anarchist-s-guide-to-north-america","title":"The Neo-Anarchist's Guide to North America","edition":"SR1","citation":"Stadt- oder Regionalkapitel","purpose":"description"}],"map_sources":[],"editions":["SR1"],"edition_descriptions":{"SR1":{"kind":"Ortsprofil","preview":"St. Louis ist ein bedeutender Mississippi-Verkehrsraum mit UCAS-, CAS- und Unterweltbezügen.","full":"St. Louis ist ein bedeutender Mississippi-Verkehrsraum mit UCAS-, CAS- und Unterweltbezügen. Die Position ist auf den belegten Stadt- oder Teilraum angenähert; eine hausgenaue Lage und eine weitergehende eigene Fließtextbeschreibung sind aus dem zugeordneten Datenmaterial nicht sicher ableitbar.","hasMore":true,"hasExcerpt":true,"sources":[{"bookId":"sr1-the-neo-anarchist-s-guide-to-north-america","title":"The Neo-Anarchist's Guide to North America","edition":"SR1","citation":"Stadt- oder Regionalkapitel","purpose":"description"}]}}}}]}
