{"type":"FeatureCollection","name":"Hannover Orte","features":[{"type":"Feature","geometry":null,"properties":{"id":7,"global_id":"hannover:place:7-bundesrat-der-adl","name":"Bundesrat der ADL","aliases":[],"category":"Behörden","detail_map":"Regierungsviertel Hannover","source_pages":"Hannover","map_source":"Datapuls","placement_note":"Keine belastbare Einzelposition; Eintrag bleibt im Katalog","accuracy":"Nur Stadt oder Lore-Teilraum belegt","source_map":"hannover-content","source_panel":"Regierungsviertel Hannover","description_preview":"Der Bundesrat ist eine der zentralen Institutionen im Regierungszentrum.","description_full":"Der Bundesrat ist eine der zentralen Institutionen im Regierungszentrum. Die Position ist auf den belegten Stadt- oder Teilraum angenähert; eine hausgenaue Lage und eine weitergehende eigene Fließtextbeschreibung sind aus dem zugeordneten Datenmaterial nicht sicher ableitbar.","description_source":"Hannover","description_kind":"Ortsprofil","description_has_more":true,"detail_plans":[],"alternate_locations":[],"sources":[{"bookId":"sr5-datapuls","title":"Datapuls","edition":"SR5","citation":"Hannover","purpose":"description"}],"map_sources":[],"editions":["SR5"],"edition_descriptions":{"SR5":{"kind":"Ortsprofil","preview":"Der Bundesrat ist eine der zentralen Institutionen im Regierungszentrum.","full":"Der Bundesrat ist eine der zentralen Institutionen im Regierungszentrum. Die Position ist auf den belegten Stadt- oder Teilraum angenähert; eine hausgenaue Lage und eine weitergehende eigene Fließtextbeschreibung sind aus dem zugeordneten Datenmaterial nicht sicher ableitbar.","hasMore":true,"hasExcerpt":true,"sources":[{"bookId":"sr5-datapuls","title":"Datapuls","edition":"SR5","citation":"Hannover","purpose":"description"}]}}}},{"type":"Feature","geometry":null,"properties":{"id":6,"global_id":"hannover:place:6-bundestag-der-adl","name":"Bundestag der ADL","aliases":[],"category":"Behörden","detail_map":"Regierungsviertel Hannover","source_pages":"Hannover","map_source":"Datapuls","placement_note":"Keine belastbare Einzelposition; Eintrag bleibt im Katalog","accuracy":"Nur Stadt oder Lore-Teilraum belegt","source_map":"hannover-content","source_panel":"Regierungsviertel Hannover","description_preview":"Der Bundestag gehört zu den zentralen politischen Institutionen der Allianzhauptstadt.","description_full":"Der Bundestag gehört zu den zentralen politischen Institutionen der Allianzhauptstadt. Die Position ist auf den belegten Stadt- oder Teilraum angenähert; eine hausgenaue Lage und eine weitergehende eigene Fließtextbeschreibung sind aus dem zugeordneten Datenmaterial nicht sicher ableitbar.","description_source":"Hannover","description_kind":"Ortsprofil","description_has_more":true,"detail_plans":[],"alternate_locations":[],"sources":[{"bookId":"sr5-datapuls","title":"Datapuls","edition":"SR5","citation":"Hannover","purpose":"description"}],"map_sources":[],"editions":["SR5"],"edition_descriptions":{"SR5":{"kind":"Ortsprofil","preview":"Der Bundestag gehört zu den zentralen politischen Institutionen der Allianzhauptstadt.","full":"Der Bundestag gehört zu den zentralen politischen Institutionen der Allianzhauptstadt. Die Position ist auf den belegten Stadt- oder Teilraum angenähert; eine hausgenaue Lage und eine weitergehende eigene Fließtextbeschreibung sind aus dem zugeordneten Datenmaterial nicht sicher ableitbar.","hasMore":true,"hasExcerpt":true,"sources":[{"bookId":"sr5-datapuls","title":"Datapuls","edition":"SR5","citation":"Hannover","purpose":"description"}]}}}},{"type":"Feature","geometry":{"type":"Point","coordinates":[9.685,52.461]},"properties":{"id":4,"global_id":"hannover:place:4-flughafen-hannover-langenhagen","name":"Flughafen Hannover-Langenhagen","aliases":[],"category":"Verkehr","detail_map":"Hannover","source_pages":"Drehkreuz der Politik","map_source":"Machtspiele - Handbuch für Spione","placement_note":"Erhaltener geographischer Bezugspunkt","accuracy":"Geographischer Bezugspunkt","source_map":"hannover-content","source_panel":"Hannover","description_preview":"Der Flughafen ist vor allem für Politik, Verwaltung, Diplomatie und Konzernverkehr bedeutend.","description_full":"Der Flughafen ist vor allem für Politik, Verwaltung, Diplomatie und Konzernverkehr bedeutend. Die Position folgt einem erhaltenen heutigen Bezugspunkt.","description_source":"Drehkreuz der Politik","description_kind":"Ortsprofil","description_has_more":true,"detail_plans":[],"alternate_locations":[],"sources":[{"bookId":"sr4-machtspiele-handbuch-fur-spione","title":"Machtspiele - Handbuch für Spione","edition":"SR4","citation":"Drehkreuz der Politik","purpose":"description"}],"map_sources":[],"editions":["SR4"],"edition_descriptions":{"SR4":{"kind":"Ortsprofil","preview":"Der Flughafen ist vor allem für Politik, Verwaltung, Diplomatie und Konzernverkehr bedeutend.","full":"Der Flughafen ist vor allem für Politik, Verwaltung, Diplomatie und Konzernverkehr bedeutend. Die Position folgt einem erhaltenen heutigen Bezugspunkt.","hasMore":true,"hasExcerpt":true,"sources":[{"bookId":"sr4-machtspiele-handbuch-fur-spione","title":"Machtspiele - Handbuch für Spione","edition":"SR4","citation":"Drehkreuz der Politik","purpose":"description"}]}}}},{"type":"Feature","geometry":{"type":"Point","coordinates":[9.51,52.422]},"properties":{"id":3,"global_id":"hannover:place:3-gummer","name":"Gümmer","aliases":[],"category":"Bezirke","detail_map":"Gümmer","source_pages":"Die italienische Mafia","map_source":"Machtspiele - Handbuch für Spione","placement_note":"Geografischer Bezugspunkt des Lore-Distrikts Gümmer","accuracy":"Lore-Bezirkszentrum; Grenzpolygon noch nicht georeferenziert","source_map":"hannover-content","source_panel":"Gümmer","description_preview":"Gümmer liegt knapp außerhalb der Stadt und beherbergt einen wichtigen Offizierstreff.","description_full":"Gümmer liegt knapp außerhalb der Stadt und beherbergt einen wichtigen Offizierstreff. Die Position ist auf den belegten Stadt- oder Teilraum angenähert; eine hausgenaue Lage und eine weitergehende eigene Fließtextbeschreibung sind aus dem zugeordneten Datenmaterial nicht sicher ableitbar.","description_source":"Die italienische Mafia","description_kind":"Ortsprofil","description_has_more":true,"detail_plans":[],"alternate_locations":[],"sources":[{"bookId":"sr4-machtspiele-handbuch-fur-spione","title":"Machtspiele - Handbuch für Spione","edition":"SR4","citation":"Die italienische Mafia","purpose":"description"}],"map_sources":[],"editions":["SR4"],"edition_descriptions":{"SR4":{"kind":"Ortsprofil","preview":"Gümmer liegt knapp außerhalb der Stadt und beherbergt einen wichtigen Offizierstreff.","full":"Gümmer liegt knapp außerhalb der Stadt und beherbergt einen wichtigen Offizierstreff. Die Position ist auf den belegten Stadt- oder Teilraum angenähert; eine hausgenaue Lage und eine weitergehende eigene Fließtextbeschreibung sind aus dem zugeordneten Datenmaterial nicht sicher ableitbar.","hasMore":true,"hasExcerpt":true,"sources":[{"bookId":"sr4-machtspiele-handbuch-fur-spione","title":"Machtspiele - Handbuch für Spione","edition":"SR4","citation":"Die italienische Mafia","purpose":"description"}]}}}},{"type":"Feature","geometry":{"type":"Point","coordinates":[9.666,52.342]},"properties":{"id":2,"global_id":"hannover:place:2-muhlenberg","name":"Mühlenberg","aliases":[],"category":"Bezirke","detail_map":"Mühlenberg","source_pages":"Vory v Zakone","map_source":"Machtspiele - Handbuch für Spione","placement_note":"Geografischer Bezugspunkt des Lore-Distrikts Mühlenberg","accuracy":"Lore-Bezirkszentrum; Grenzpolygon noch nicht georeferenziert","source_map":"hannover-content","source_panel":"Mühlenberg","description_preview":"Mühlenberg ist ein Schwerpunkt der Vory-Aktivitäten im Stadtgebiet.","description_full":"Mühlenberg ist ein Schwerpunkt der Vory-Aktivitäten im Stadtgebiet. Die Position ist auf den belegten Stadt- oder Teilraum angenähert; eine hausgenaue Lage und eine weitergehende eigene Fließtextbeschreibung sind aus dem zugeordneten Datenmaterial nicht sicher ableitbar.","description_source":"Vory v Zakone","description_kind":"Ortsprofil","description_has_more":true,"detail_plans":[],"alternate_locations":[],"sources":[{"bookId":"sr4-machtspiele-handbuch-fur-spione","title":"Machtspiele - Handbuch für Spione","edition":"SR4","citation":"Vory v Zakone","purpose":"description"}],"map_sources":[],"editions":["SR4"],"edition_descriptions":{"SR4":{"kind":"Ortsprofil","preview":"Mühlenberg ist ein Schwerpunkt der Vory-Aktivitäten im Stadtgebiet.","full":"Mühlenberg ist ein Schwerpunkt der Vory-Aktivitäten im Stadtgebiet. Die Position ist auf den belegten Stadt- oder Teilraum angenähert; eine hausgenaue Lage und eine weitergehende eigene Fließtextbeschreibung sind aus dem zugeordneten Datenmaterial nicht sicher ableitbar.","hasMore":true,"hasExcerpt":true,"sources":[{"bookId":"sr4-machtspiele-handbuch-fur-spione","title":"Machtspiele - Handbuch für Spione","edition":"SR4","citation":"Vory v Zakone","purpose":"description"}]}}}},{"type":"Feature","geometry":{"type":"Point","coordinates":[9.735,52.37]},"properties":{"id":1,"global_id":"hannover:place:1-regierungsviertel-hannover","name":"Regierungsviertel Hannover","aliases":[],"category":"Bezirke","detail_map":"Regierungsviertel Hannover","source_pages":"Hannover","map_source":"Datapuls","placement_note":"Geografischer Bezugspunkt des Lore-Distrikts Regierungsviertel Hannover","accuracy":"Lore-Bezirkszentrum; Grenzpolygon noch nicht georeferenziert","source_map":"hannover-content","source_panel":"Regierungsviertel Hannover","description_preview":"Das Regierungsviertel bündelt die zentralen Institutionen der Allianz.","description_full":"Das Regierungsviertel bündelt die zentralen Institutionen der Allianz. Die Position ist auf den belegten Stadt- oder Teilraum angenähert; eine hausgenaue Lage und eine weitergehende eigene Fließtextbeschreibung sind aus dem zugeordneten Datenmaterial nicht sicher ableitbar.","description_source":"Hannover","description_kind":"Ortsprofil","description_has_more":true,"detail_plans":[],"alternate_locations":[],"sources":[{"bookId":"sr5-datapuls","title":"Datapuls","edition":"SR5","citation":"Hannover","purpose":"description"}],"map_sources":[],"editions":["SR5"],"edition_descriptions":{"SR5":{"kind":"Ortsprofil","preview":"Das Regierungsviertel bündelt die zentralen Institutionen der Allianz.","full":"Das Regierungsviertel bündelt die zentralen Institutionen der Allianz. Die Position ist auf den belegten Stadt- oder Teilraum angenähert; eine hausgenaue Lage und eine weitergehende eigene Fließtextbeschreibung sind aus dem zugeordneten Datenmaterial nicht sicher ableitbar.","hasMore":true,"hasExcerpt":true,"sources":[{"bookId":"sr5-datapuls","title":"Datapuls","edition":"SR5","citation":"Hannover","purpose":"description"}]}}}},{"type":"Feature","geometry":null,"properties":{"id":5,"global_id":"hannover:place:5-scharnhorst-lounge","name":"Scharnhorst Lounge","aliases":[],"category":"Bars und Clubs","detail_map":"Gümmer","source_pages":"Die italienische Mafia","map_source":"Machtspiele - Handbuch für Spione","placement_note":"Keine belastbare Einzelposition; Eintrag bleibt im Katalog","accuracy":"Nur Stadt oder Lore-Teilraum belegt","source_map":"hannover-content","source_panel":"Gümmer","description_preview":"Die elitäre Offizierslounge ist ein diskreter Treffpunkt für Militär und Polizei.","description_full":"Die elitäre Offizierslounge ist ein diskreter Treffpunkt für Militär und Polizei. Die Position ist auf den belegten Stadt- oder Teilraum angenähert; eine hausgenaue Lage und eine weitergehende eigene Fließtextbeschreibung sind aus dem zugeordneten Datenmaterial nicht sicher ableitbar.","description_source":"Die italienische Mafia","description_kind":"Ortsprofil","description_has_more":true,"detail_plans":[],"alternate_locations":[],"sources":[{"bookId":"sr4-machtspiele-handbuch-fur-spione","title":"Machtspiele - Handbuch für Spione","edition":"SR4","citation":"Die italienische Mafia","purpose":"description"}],"map_sources":[],"editions":["SR4"],"edition_descriptions":{"SR4":{"kind":"Ortsprofil","preview":"Die elitäre Offizierslounge ist ein diskreter Treffpunkt für Militär und Polizei.","full":"Die elitäre Offizierslounge ist ein diskreter Treffpunkt für Militär und Polizei. Die Position ist auf den belegten Stadt- oder Teilraum angenähert; eine hausgenaue Lage und eine weitergehende eigene Fließtextbeschreibung sind aus dem zugeordneten Datenmaterial nicht sicher ableitbar.","hasMore":true,"hasExcerpt":true,"sources":[{"bookId":"sr4-machtspiele-handbuch-fur-spione","title":"Machtspiele - Handbuch für Spione","edition":"SR4","citation":"Die italienische Mafia","purpose":"description"}]}}}},{"type":"Feature","geometry":null,"properties":{"id":8,"global_id":"hannover:place:8-shadowtech-shop-hannover","name":"Shadowtech-Shop Hannover","aliases":[],"category":"Einkaufen","detail_map":"Hannover","source_pages":"Shadowtech-Shop","map_source":"Deutschland in den Schatten","placement_note":"Keine belastbare Einzelposition; Eintrag bleibt im Katalog","accuracy":"Nur Stadt oder Lore-Teilraum belegt","source_map":"hannover-content","source_panel":"Hannover","description_preview":"Der Shop ist ein im frühen Quellenstand belegter Ausrüstungs- und Szenestandort.","description_full":"Der Shop ist ein im frühen Quellenstand belegter Ausrüstungs- und Szenestandort. Die Position ist auf den belegten Stadt- oder Teilraum angenähert; eine hausgenaue Lage und eine weitergehende eigene Fließtextbeschreibung sind aus dem zugeordneten Datenmaterial nicht sicher ableitbar.","description_source":"Shadowtech-Shop","description_kind":"Ortsprofil","description_has_more":true,"detail_plans":[],"alternate_locations":[],"sources":[{"bookId":"sr2-deutschland-in-den-schatten","title":"Deutschland in den Schatten","edition":"SR2","citation":"Shadowtech-Shop","purpose":"description"}],"map_sources":[],"editions":["SR2"],"edition_descriptions":{"SR2":{"kind":"Ortsprofil","preview":"Der Shop ist ein im frühen Quellenstand belegter Ausrüstungs- und Szenestandort.","full":"Der Shop ist ein im frühen Quellenstand belegter Ausrüstungs- und Szenestandort. Die Position ist auf den belegten Stadt- oder Teilraum angenähert; eine hausgenaue Lage und eine weitergehende eigene Fließtextbeschreibung sind aus dem zugeordneten Datenmaterial nicht sicher ableitbar.","hasMore":true,"hasExcerpt":true,"sources":[{"bookId":"sr2-deutschland-in-den-schatten","title":"Deutschland in den Schatten","edition":"SR2","citation":"Shadowtech-Shop","purpose":"description"}]}}}}]}
