{"type":"FeatureCollection","name":"Dubai Orte","features":[{"type":"Feature","geometry":{"type":"Point","coordinates":[55.2708,25.2048]},"properties":{"id":1,"global_id":"dubai:place:1-dubai-lore-raum","name":"Dubai Lore-Raum","aliases":[],"category":"Bezirke","detail_map":"Dubai Lore-Raum","source_pages":"Stadt- oder Regionalkapitel","map_source":"Corporate Enclaves","placement_note":"Geografischer Bezugspunkt des Lore-Distrikts Dubai Lore-Raum","accuracy":"Lore-Bezirkszentrum; Grenzpolygon noch nicht georeferenziert","source_map":"dubai-content","source_panel":"Dubai Lore-Raum","description_preview":"Dubai ist eine luxuriöse Konzernenklave und globaler Geschäfts-, Reise- und Sicherheitsknoten.","description_full":"Dubai ist eine luxuriöse Konzernenklave und globaler Geschäfts-, Reise- und Sicherheitsknoten. Die Position ist auf den belegten Stadt- oder Teilraum angenähert; eine hausgenaue Lage und eine weitergehende eigene Fließtextbeschreibung sind aus dem zugeordneten Datenmaterial nicht sicher ableitbar.","description_source":"Stadt- oder Regionalkapitel","description_kind":"Ortsprofil","description_has_more":true,"detail_plans":[],"alternate_locations":[],"sources":[{"bookId":"sr4-corporate-enclaves","title":"Corporate Enclaves","edition":"SR4","citation":"Stadt- oder Regionalkapitel","purpose":"description"}],"map_sources":[],"editions":["SR4"],"edition_descriptions":{"SR4":{"kind":"Ortsprofil","preview":"Dubai ist eine luxuriöse Konzernenklave und globaler Geschäfts-, Reise- und Sicherheitsknoten.","full":"Dubai ist eine luxuriöse Konzernenklave und globaler Geschäfts-, Reise- und Sicherheitsknoten. Die Position ist auf den belegten Stadt- oder Teilraum angenähert; eine hausgenaue Lage und eine weitergehende eigene Fließtextbeschreibung sind aus dem zugeordneten Datenmaterial nicht sicher ableitbar.","hasMore":true,"hasExcerpt":true,"sources":[{"bookId":"sr4-corporate-enclaves","title":"Corporate Enclaves","edition":"SR4","citation":"Stadt- oder Regionalkapitel","purpose":"description"}]}}}}]}
