{"type":"FeatureCollection","name":"Dubai – geprüfte zusätzliche Quellenorte","features":[{"type":"Feature","geometry":null,"properties":{"id":2,"global_id":"dubai:source-place:the-red-square","name":"The Red Square","aliases":[],"category":"Sonstige Spots","detail_map":"Dubai","source_pages":"Textzeile 2904","map_source":"Boardroom Backstabs 1 - Damage Control","placement_note":"Keine belastbare Einzelposition; Eintrag bleibt im Katalog","accuracy":"Nur Stadt oder Lore-Teilraum belegt","source_map":"source-supplement","source_panel":"Dubai","description_preview":"The Red Square ist in Boardroom Backstabs 1 - Damage Control als benannter Schauplatz mit Bezug zu Dubai belegt.","description_full":"The Red Square ist in Boardroom Backstabs 1 - Damage Control als benannter Schauplatz mit Bezug zu Dubai belegt. Das Dossier fasst den belegten Quellenstand redaktionell zusammen; eine nicht belegte Kartenposition wird nicht ergänzt.","description_source":"Textzeile 2904","description_kind":"Ortsdossier","description_has_more":true,"detail_plans":[],"alternate_locations":[],"sources":[{"bookId":"sr4-boardroom-backstabs-1-damage-control","title":"Boardroom Backstabs 1 - Damage Control","edition":"SR4","citation":"Textzeile 2904","purpose":"description"}],"map_sources":[],"editions":["SR4"],"edition_descriptions":{"SR4":{"kind":"Ortsdossier","preview":"The Red Square ist in Boardroom Backstabs 1 - Damage Control als benannter Schauplatz mit Bezug zu Dubai belegt.","full":"The Red Square ist in Boardroom Backstabs 1 - Damage Control als benannter Schauplatz mit Bezug zu Dubai belegt. Das Dossier fasst den belegten Quellenstand redaktionell zusammen; eine nicht belegte Kartenposition wird nicht ergänzt.","hasMore":true,"hasExcerpt":true,"sources":[{"bookId":"sr4-boardroom-backstabs-1-damage-control","title":"Boardroom Backstabs 1 - Damage Control","edition":"SR4","citation":"Textzeile 2904","purpose":"description"}]}}}}]}
