{"type":"FeatureCollection","name":"Phoenix Orte","features":[{"type":"Feature","geometry":{"type":"Point","coordinates":[-112.074,33.4484]},"properties":{"id":1,"global_id":"phoenix:place:1-phoenix-lore-raum","name":"Phoenix Lore-Raum","aliases":[],"category":"Bezirke","detail_map":"Phoenix Lore-Raum","source_pages":"Stadt- oder Regionalkapitel","map_source":"The Neo-Anarchist's Guide to North America","placement_note":"Geografischer Bezugspunkt des Lore-Distrikts Phoenix Lore-Raum","accuracy":"Lore-Bezirkszentrum; Grenzpolygon noch nicht georeferenziert","source_map":"phoenix-content","source_panel":"Phoenix Lore-Raum","description_preview":"Phoenix ist ein weitläufiger Wüstensprawl mit Konzern-, Syndikats- und Schmuggelbezügen.","description_full":"Phoenix ist ein weitläufiger Wüstensprawl mit Konzern-, Syndikats- und Schmuggelbezügen. Die Position ist auf den belegten Stadt- oder Teilraum angenähert; eine hausgenaue Lage und eine weitergehende eigene Fließtextbeschreibung sind aus dem zugeordneten Datenmaterial nicht sicher ableitbar.","description_source":"Stadt- oder Regionalkapitel","description_kind":"Ortsprofil","description_has_more":true,"detail_plans":[],"alternate_locations":[],"sources":[{"bookId":"sr1-the-neo-anarchist-s-guide-to-north-america","title":"The Neo-Anarchist's Guide to North America","edition":"SR1","citation":"Stadt- oder Regionalkapitel","purpose":"description"}],"map_sources":[],"editions":["SR1"],"edition_descriptions":{"SR1":{"kind":"Ortsprofil","preview":"Phoenix ist ein weitläufiger Wüstensprawl mit Konzern-, Syndikats- und Schmuggelbezügen.","full":"Phoenix ist ein weitläufiger Wüstensprawl mit Konzern-, Syndikats- und Schmuggelbezügen. Die Position ist auf den belegten Stadt- oder Teilraum angenähert; eine hausgenaue Lage und eine weitergehende eigene Fließtextbeschreibung sind aus dem zugeordneten Datenmaterial nicht sicher ableitbar.","hasMore":true,"hasExcerpt":true,"sources":[{"bookId":"sr1-the-neo-anarchist-s-guide-to-north-america","title":"The Neo-Anarchist's Guide to North America","edition":"SR1","citation":"Stadt- oder Regionalkapitel","purpose":"description"}]}}}}]}
