{"type":"FeatureCollection","name":"ADL Orte","features":[{"type":"Feature","geometry":{"type":"Point","coordinates":[11.0,47.5]},"properties":{"id":23,"global_id":"adl-2082:place:23-alpen","name":"Alpen","aliases":[],"category":"Sondergebiete","detail_map":"Alpen","source_pages":"gesamter Band","map_source":"Datapuls: Alpen","placement_note":"Nach Quellenbezug im Teilraum Alpen angenähert","accuracy":"Teilraumzuordnung; Feinposition vorläufig","source_map":"adl-2082-content","source_panel":"Alpen","description_preview":"Der Alpenraum verbindet schwer zugängliche Hochgebirge, arkane Phänomene, Tourismus, Schmuggelwege und grenzüberschreitende Interessen.","description_full":"Der Alpenraum verbindet schwer zugängliche Hochgebirge, arkane Phänomene, Tourismus, Schmuggelwege und grenzüberschreitende Interessen. Die Position ist auf den belegten Stadt- oder Teilraum angenähert; eine hausgenaue Lage und eine weitergehende eigene Fließtextbeschreibung sind aus dem zugeordneten Datenmaterial nicht sicher ableitbar.","description_source":"gesamter Band","description_kind":"Ortsprofil","description_has_more":true,"detail_plans":[],"alternate_locations":[],"sources":[{"bookId":"sr6-datapuls-alpen","title":"Datapuls: Alpen","edition":"SR6","citation":"gesamter Band","purpose":"description"}],"map_sources":[],"editions":["SR6"],"edition_descriptions":{"SR6":{"kind":"Ortsprofil","preview":"Der Alpenraum verbindet schwer zugängliche Hochgebirge, arkane Phänomene, Tourismus, Schmuggelwege und grenzüberschreitende Interessen.","full":"Der Alpenraum verbindet schwer zugängliche Hochgebirge, arkane Phänomene, Tourismus, Schmuggelwege und grenzüberschreitende Interessen. Die Position ist auf den belegten Stadt- oder Teilraum angenähert; eine hausgenaue Lage und eine weitergehende eigene Fließtextbeschreibung sind aus dem zugeordneten Datenmaterial nicht sicher ableitbar.","hasMore":true,"hasExcerpt":true,"sources":[{"bookId":"sr6-datapuls-alpen","title":"Datapuls: Alpen","edition":"SR6","citation":"gesamter Band","purpose":"description"}]}}}},{"type":"Feature","geometry":{"type":"Point","coordinates":[13.405,52.52]},"properties":{"id":1,"global_id":"adl-2082:place:1-berlin","name":"Berlin","aliases":[],"category":"Allianzländer und Regionen","detail_map":"Berlin","source_pages":"Kapitel Berlin","map_source":"Datapuls ADL","placement_note":"Geografisches Zentrum des Lore-Raums Berlin","accuracy":"Regionaler Bezugspunkt; keine flächengenaue Grenze","source_map":"adl-2082-content","source_panel":"Berlin","description_preview":"Das geteilte Berlin verbindet anarchistische Kieze, Konzernbezirke und extraterritoriale Enklaven; die Stadt besitzt eine eigene Detailkarte.","description_full":"Das geteilte Berlin verbindet anarchistische Kieze, Konzernbezirke und extraterritoriale Enklaven; die Stadt besitzt eine eigene Detailkarte. Die Position ist auf den belegten Stadt- oder Teilraum angenähert; eine hausgenaue Lage und eine weitergehende eigene Fließtextbeschreibung sind aus dem zugeordneten Datenmaterial nicht sicher ableitbar.","description_source":"Kapitel Berlin","description_kind":"Ortsprofil","description_has_more":true,"detail_plans":[],"alternate_locations":[],"sources":[{"bookId":"sr5-datapuls-adl","title":"Datapuls ADL","edition":"SR5","citation":"Kapitel Berlin","purpose":"description"},{"bookId":"sr1-deutschland-in-den-schatten","title":"Deutschland in den Schatten","edition":"SR1","citation":"Kapitel Berlin","purpose":"description"},{"bookId":"sr2-deutschland-in-den-schatten","title":"Deutschland in den Schatten","edition":"SR2","citation":"Kapitel Berlin","purpose":"description"},{"bookId":"sr3-deutschland-in-den-schatten-ii","title":"Deutschland in den Schatten II","edition":"SR3","citation":"Kapitel Berlin","purpose":"description"},{"bookId":"sr4-reisefuhrer-in-die-deutschen-schatten","title":"Reiseführer in die deutschen Schatten","edition":"SR4","citation":"Kapitel Berlin","purpose":"description"}],"map_sources":[],"editions":["SR5","SR1","SR2","SR3","SR4"],"edition_descriptions":{"SR5":{"kind":"Ortsprofil","preview":"Das geteilte Berlin verbindet anarchistische Kieze, Konzernbezirke und extraterritoriale Enklaven; die Stadt besitzt eine eigene Detailkarte.","full":"Das geteilte Berlin verbindet anarchistische Kieze, Konzernbezirke und extraterritoriale Enklaven; die Stadt besitzt eine eigene Detailkarte. Die Position ist auf den belegten Stadt- oder Teilraum angenähert; eine hausgenaue Lage und eine weitergehende eigene Fließtextbeschreibung sind aus dem zugeordneten Datenmaterial nicht sicher ableitbar.","hasMore":true,"hasExcerpt":true,"sources":[{"bookId":"sr5-datapuls-adl","title":"Datapuls ADL","edition":"SR5","citation":"Kapitel Berlin","purpose":"description"}]},"SR1":{"kind":"Quellennachweis","preview":"Berlin ist für SR1 in Deutschland in den Schatten belegt.","full":"Berlin ist für SR1 in Deutschland in den Schatten belegt. Der Eintrag wird editionsübergreifend mit demselben Ort zusammengeführt.","hasMore":true,"hasExcerpt":false,"sources":[{"bookId":"sr1-deutschland-in-den-schatten","title":"Deutschland in den Schatten","edition":"SR1","citation":"Kapitel Berlin","purpose":"description"}]},"SR2":{"kind":"Quellennachweis","preview":"Berlin ist für SR2 in Deutschland in den Schatten belegt.","full":"Berlin ist für SR2 in Deutschland in den Schatten belegt. Der Eintrag wird editionsübergreifend mit demselben Ort zusammengeführt.","hasMore":true,"hasExcerpt":false,"sources":[{"bookId":"sr2-deutschland-in-den-schatten","title":"Deutschland in den Schatten","edition":"SR2","citation":"Kapitel Berlin","purpose":"description"}]},"SR3":{"kind":"Quellennachweis","preview":"Berlin ist für SR3 in Deutschland in den Schatten II belegt.","full":"Berlin ist für SR3 in Deutschland in den Schatten II belegt. Der Eintrag wird editionsübergreifend mit demselben Ort zusammengeführt.","hasMore":true,"hasExcerpt":false,"sources":[{"bookId":"sr3-deutschland-in-den-schatten-ii","title":"Deutschland in den Schatten II","edition":"SR3","citation":"Kapitel Berlin","purpose":"description"}]},"SR4":{"kind":"Quellennachweis","preview":"Berlin ist für SR4 in Reiseführer in die deutschen Schatten belegt.","full":"Berlin ist für SR4 in Reiseführer in die deutschen Schatten belegt. Der Eintrag wird editionsübergreifend mit demselben Ort zusammengeführt.","hasMore":true,"hasExcerpt":false,"sources":[{"bookId":"sr4-reisefuhrer-in-die-deutschen-schatten","title":"Reiseführer in die deutschen Schatten","edition":"SR4","citation":"Kapitel Berlin","purpose":"description"}]}},"linked_city_id":"berlin-2080"}},{"type":"Feature","geometry":{"type":"Point","coordinates":[12.5316,52.4125]},"properties":{"id":2,"global_id":"adl-2082:place:2-brandenburg","name":"Brandenburg","aliases":[],"category":"Allianzländer und Regionen","detail_map":"Brandenburg","source_pages":"Kapitel Brandenburg","map_source":"Datapuls ADL","placement_note":"Geografisches Zentrum des Lore-Raums Brandenburg","accuracy":"Regionaler Bezugspunkt; keine flächengenaue Grenze","source_map":"adl-2082-content","source_panel":"Brandenburg","description_preview":"Brandenburg umschließt Berlin als dünner besiedeltes Flächenland und ist durch die Verwerfungen zwischen Hauptstadtregion, Wildnis und lokalen Machtzentren geprägt.","description_full":"Brandenburg umschließt Berlin als dünner besiedeltes Flächenland und ist durch die Verwerfungen zwischen Hauptstadtregion, Wildnis und lokalen Machtzentren geprägt. Die Position ist auf den belegten Stadt- oder Teilraum angenähert; eine hausgenaue Lage und eine weitergehende eigene Fließtextbeschreibung sind aus dem zugeordneten Datenmaterial nicht sicher ableitbar.","description_source":"Kapitel Brandenburg","description_kind":"Ortsprofil","description_has_more":true,"detail_plans":[],"alternate_locations":[],"sources":[{"bookId":"sr5-datapuls-adl","title":"Datapuls ADL","edition":"SR5","citation":"Kapitel Brandenburg","purpose":"description"}],"map_sources":[],"editions":["SR5"],"edition_descriptions":{"SR5":{"kind":"Ortsprofil","preview":"Brandenburg umschließt Berlin als dünner besiedeltes Flächenland und ist durch die Verwerfungen zwischen Hauptstadtregion, Wildnis und lokalen Machtzentren geprägt.","full":"Brandenburg umschließt Berlin als dünner besiedeltes Flächenland und ist durch die Verwerfungen zwischen Hauptstadtregion, Wildnis und lokalen Machtzentren geprägt. Die Position ist auf den belegten Stadt- oder Teilraum angenähert; eine hausgenaue Lage und eine weitergehende eigene Fließtextbeschreibung sind aus dem zugeordneten Datenmaterial nicht sicher ableitbar.","hasMore":true,"hasExcerpt":true,"sources":[{"bookId":"sr5-datapuls-adl","title":"Datapuls ADL","edition":"SR5","citation":"Kapitel Brandenburg","purpose":"description"}]}}}},{"type":"Feature","geometry":{"type":"Point","coordinates":[11.4039,48.9468]},"properties":{"id":3,"global_id":"adl-2082:place:3-freistaat-bayern","name":"Freistaat Bayern","aliases":[],"category":"Allianzländer und Regionen","detail_map":"Freistaat Bayern","source_pages":"Kapitel Freistaat Bayern","map_source":"Datapuls ADL","placement_note":"Geografisches Zentrum des Lore-Raums Freistaat Bayern","accuracy":"Regionaler Bezugspunkt; keine flächengenaue Grenze","source_map":"adl-2082-content","source_panel":"Freistaat Bayern","description_preview":"Der Freistaat Bayern ist ein eigenständiges, wirtschaftsstarkes Allianzbundesland; München bildet sein dominierendes urbanes Zentrum.","description_full":"Der Freistaat Bayern ist ein eigenständiges, wirtschaftsstarkes Allianzbundesland; München bildet sein dominierendes urbanes Zentrum. Die Position ist auf den belegten Stadt- oder Teilraum angenähert; eine hausgenaue Lage und eine weitergehende eigene Fließtextbeschreibung sind aus dem zugeordneten Datenmaterial nicht sicher ableitbar.","description_source":"Kapitel Freistaat Bayern","description_kind":"Ortsprofil","description_has_more":true,"detail_plans":[],"alternate_locations":[],"sources":[{"bookId":"sr5-datapuls-adl","title":"Datapuls ADL","edition":"SR5","citation":"Kapitel Freistaat Bayern","purpose":"description"}],"map_sources":[],"editions":["SR5"],"edition_descriptions":{"SR5":{"kind":"Ortsprofil","preview":"Der Freistaat Bayern ist ein eigenständiges, wirtschaftsstarkes Allianzbundesland; München bildet sein dominierendes urbanes Zentrum.","full":"Der Freistaat Bayern ist ein eigenständiges, wirtschaftsstarkes Allianzbundesland; München bildet sein dominierendes urbanes Zentrum. Die Position ist auf den belegten Stadt- oder Teilraum angenähert; eine hausgenaue Lage und eine weitergehende eigene Fließtextbeschreibung sind aus dem zugeordneten Datenmaterial nicht sicher ableitbar.","hasMore":true,"hasExcerpt":true,"sources":[{"bookId":"sr5-datapuls-adl","title":"Datapuls ADL","edition":"SR5","citation":"Kapitel Freistaat Bayern","purpose":"description"}]}}}},{"type":"Feature","geometry":{"type":"Point","coordinates":[13.2017,51.1045]},"properties":{"id":4,"global_id":"adl-2082:place:4-freistaat-sachsen","name":"Freistaat Sachsen","aliases":[],"category":"Allianzländer und Regionen","detail_map":"Freistaat Sachsen","source_pages":"Kapitel Freistaat Sachsen","map_source":"Datapuls ADL","placement_note":"Geografisches Zentrum des Lore-Raums Freistaat Sachsen","accuracy":"Regionaler Bezugspunkt; keine flächengenaue Grenze","source_map":"adl-2082-content","source_panel":"Freistaat Sachsen","description_preview":"Sachsen ist ein östliches Allianzbundesland mit Leipzig-Halle als wichtigstem Ballungsraum und eigenen politischen sowie industriellen Konfliktlinien.","description_full":"Sachsen ist ein östliches Allianzbundesland mit Leipzig-Halle als wichtigstem Ballungsraum und eigenen politischen sowie industriellen Konfliktlinien. Die Position ist auf den belegten Stadt- oder Teilraum angenähert; eine hausgenaue Lage und eine weitergehende eigene Fließtextbeschreibung sind aus dem zugeordneten Datenmaterial nicht sicher ableitbar.","description_source":"Kapitel Freistaat Sachsen","description_kind":"Ortsprofil","description_has_more":true,"detail_plans":[],"alternate_locations":[],"sources":[{"bookId":"sr5-datapuls-adl","title":"Datapuls ADL","edition":"SR5","citation":"Kapitel Freistaat Sachsen","purpose":"description"}],"map_sources":[],"editions":["SR5"],"edition_descriptions":{"SR5":{"kind":"Ortsprofil","preview":"Sachsen ist ein östliches Allianzbundesland mit Leipzig-Halle als wichtigstem Ballungsraum und eigenen politischen sowie industriellen Konfliktlinien.","full":"Sachsen ist ein östliches Allianzbundesland mit Leipzig-Halle als wichtigstem Ballungsraum und eigenen politischen sowie industriellen Konfliktlinien. Die Position ist auf den belegten Stadt- oder Teilraum angenähert; eine hausgenaue Lage und eine weitergehende eigene Fließtextbeschreibung sind aus dem zugeordneten Datenmaterial nicht sicher ableitbar.","hasMore":true,"hasExcerpt":true,"sources":[{"bookId":"sr5-datapuls-adl","title":"Datapuls ADL","edition":"SR5","citation":"Kapitel Freistaat Sachsen","purpose":"description"}]}}}},{"type":"Feature","geometry":{"type":"Point","coordinates":[11.0299,50.9848]},"properties":{"id":5,"global_id":"adl-2082:place:5-freistaat-thuringen","name":"Freistaat Thüringen","aliases":[],"category":"Allianzländer und Regionen","detail_map":"Freistaat Thüringen","source_pages":"Kapitel Freistaat Thüringen","map_source":"Datapuls ADL","placement_note":"Geografisches Zentrum des Lore-Raums Freistaat Thüringen","accuracy":"Regionaler Bezugspunkt; keine flächengenaue Grenze","source_map":"adl-2082-content","source_panel":"Freistaat Thüringen","description_preview":"Thüringen ist ein zentral gelegenes Allianzbundesland zwischen urbanen Korridoren, bewaldeten Rückzugsräumen und erwachten Besonderheiten.","description_full":"Thüringen ist ein zentral gelegenes Allianzbundesland zwischen urbanen Korridoren, bewaldeten Rückzugsräumen und erwachten Besonderheiten. Die Position ist auf den belegten Stadt- oder Teilraum angenähert; eine hausgenaue Lage und eine weitergehende eigene Fließtextbeschreibung sind aus dem zugeordneten Datenmaterial nicht sicher ableitbar.","description_source":"Kapitel Freistaat Thüringen","description_kind":"Ortsprofil","description_has_more":true,"detail_plans":[],"alternate_locations":[],"sources":[{"bookId":"sr5-datapuls-adl","title":"Datapuls ADL","edition":"SR5","citation":"Kapitel Freistaat Thüringen","purpose":"description"}],"map_sources":[],"editions":["SR5"],"edition_descriptions":{"SR5":{"kind":"Ortsprofil","preview":"Thüringen ist ein zentral gelegenes Allianzbundesland zwischen urbanen Korridoren, bewaldeten Rückzugsräumen und erwachten Besonderheiten.","full":"Thüringen ist ein zentral gelegenes Allianzbundesland zwischen urbanen Korridoren, bewaldeten Rückzugsräumen und erwachten Besonderheiten. Die Position ist auf den belegten Stadt- oder Teilraum angenähert; eine hausgenaue Lage und eine weitergehende eigene Fließtextbeschreibung sind aus dem zugeordneten Datenmaterial nicht sicher ableitbar.","hasMore":true,"hasExcerpt":true,"sources":[{"bookId":"sr5-datapuls-adl","title":"Datapuls ADL","edition":"SR5","citation":"Kapitel Freistaat Thüringen","purpose":"description"}]}}}},{"type":"Feature","geometry":{"type":"Point","coordinates":[7.6257,51.9624]},"properties":{"id":6,"global_id":"adl-2082:place:6-freistaat-westphalen","name":"Freistaat Westphalen","aliases":[],"category":"Allianzländer und Regionen","detail_map":"Freistaat Westphalen","source_pages":"S. 2–31","map_source":"Datapuls: Westphalen","placement_note":"Geografisches Zentrum des Lore-Raums Freistaat Westphalen","accuracy":"Regionaler Bezugspunkt; keine flächengenaue Grenze","source_map":"adl-2082-content","source_panel":"Freistaat Westphalen","description_preview":"Westphalen ist ein stark von der Deutsch-Katholischen Kirche geprägter Freistaat, dessen Ordnung, Theurgie und Sicherheitsapparat das öffentliche Leben bestimmen.","description_full":"Westphalen ist ein stark von der Deutsch-Katholischen Kirche geprägter Freistaat, dessen Ordnung, Theurgie und Sicherheitsapparat das öffentliche Leben bestimmen. Die Position ist auf den belegten Stadt- oder Teilraum angenähert; eine hausgenaue Lage und eine weitergehende eigene Fließtextbeschreibung sind aus dem zugeordneten Datenmaterial nicht sicher ableitbar.","description_source":"S. 2–31","description_kind":"Ortsprofil","description_has_more":true,"detail_plans":[],"alternate_locations":[],"sources":[{"bookId":"sr6-datapuls-westphalen","title":"Datapuls: Westphalen","edition":"SR6","citation":"S. 2–31","purpose":"description"}],"map_sources":[],"editions":["SR6"],"edition_descriptions":{"SR6":{"kind":"Ortsprofil","preview":"Westphalen ist ein stark von der Deutsch-Katholischen Kirche geprägter Freistaat, dessen Ordnung, Theurgie und Sicherheitsapparat das öffentliche Leben bestimmen.","full":"Westphalen ist ein stark von der Deutsch-Katholischen Kirche geprägter Freistaat, dessen Ordnung, Theurgie und Sicherheitsapparat das öffentliche Leben bestimmen. Die Position ist auf den belegten Stadt- oder Teilraum angenähert; eine hausgenaue Lage und eine weitergehende eigene Fließtextbeschreibung sind aus dem zugeordneten Datenmaterial nicht sicher ableitbar.","hasMore":true,"hasExcerpt":true,"sources":[{"bookId":"sr6-datapuls-westphalen","title":"Datapuls: Westphalen","edition":"SR6","citation":"S. 2–31","purpose":"description"}]}}}},{"type":"Feature","geometry":{"type":"Point","coordinates":[8.6821,50.1109]},"properties":{"id":7,"global_id":"adl-2082:place:7-gro-frankfurt","name":"Groß-Frankfurt","aliases":[],"category":"Allianzländer und Regionen","detail_map":"Groß-Frankfurt","source_pages":"gesamter Band","map_source":"Datapuls Frankfurt","placement_note":"Geografisches Zentrum des Lore-Raums Groß-Frankfurt","accuracy":"Regionaler Bezugspunkt; keine flächengenaue Grenze","source_map":"adl-2082-content","source_panel":"Groß-Frankfurt","description_preview":"Groß-Frankfurt ist ein finanz- und konzerngeprägter Plex, in dem Banken, Börse, Flughafen und Schattenwirtschaft eng miteinander verflochten sind.","description_full":"Groß-Frankfurt ist ein finanz- und konzerngeprägter Plex, in dem Banken, Börse, Flughafen und Schattenwirtschaft eng miteinander verflochten sind. Die Position ist auf den belegten Stadt- oder Teilraum angenähert; eine hausgenaue Lage und eine weitergehende eigene Fließtextbeschreibung sind aus dem zugeordneten Datenmaterial nicht sicher ableitbar.","description_source":"gesamter Band","description_kind":"Ortsprofil","description_has_more":true,"detail_plans":[],"alternate_locations":[],"sources":[{"bookId":"sr5-datapuls-frankfurt","title":"Datapuls Frankfurt","edition":"SR5","citation":"gesamter Band","purpose":"description"}],"map_sources":[],"editions":["SR5"],"edition_descriptions":{"SR5":{"kind":"Ortsprofil","preview":"Groß-Frankfurt ist ein finanz- und konzerngeprägter Plex, in dem Banken, Börse, Flughafen und Schattenwirtschaft eng miteinander verflochten sind.","full":"Groß-Frankfurt ist ein finanz- und konzerngeprägter Plex, in dem Banken, Börse, Flughafen und Schattenwirtschaft eng miteinander verflochten sind. Die Position ist auf den belegten Stadt- oder Teilraum angenähert; eine hausgenaue Lage und eine weitergehende eigene Fließtextbeschreibung sind aus dem zugeordneten Datenmaterial nicht sicher ableitbar.","hasMore":true,"hasExcerpt":true,"sources":[{"bookId":"sr5-datapuls-frankfurt","title":"Datapuls Frankfurt","edition":"SR5","citation":"gesamter Band","purpose":"description"}]}}}},{"type":"Feature","geometry":{"type":"Point","coordinates":[6.641,49.756]},"properties":{"id":8,"global_id":"adl-2082:place:8-groherzogtum-westrhein-luxemburg","name":"Großherzogtum Westrhein-Luxemburg","aliases":[],"category":"Allianzländer und Regionen","detail_map":"Großherzogtum Westrhein-Luxemburg","source_pages":"Kapitel Westrhein-Luxemburg","map_source":"Datapuls ADL","placement_note":"Geografisches Zentrum des Lore-Raums Großherzogtum Westrhein-Luxemburg","accuracy":"Regionaler Bezugspunkt; keine flächengenaue Grenze","source_map":"adl-2082-content","source_panel":"Großherzogtum Westrhein-Luxemburg","description_preview":"Das Großherzogtum Westrhein-Luxemburg bildet einen westlichen Grenzraum der ADL mit eigener monarchischer Ordnung und starker europäischer Verflechtung.","description_full":"Das Großherzogtum Westrhein-Luxemburg bildet einen westlichen Grenzraum der ADL mit eigener monarchischer Ordnung und starker europäischer Verflechtung. Die Position ist auf den belegten Stadt- oder Teilraum angenähert; eine hausgenaue Lage und eine weitergehende eigene Fließtextbeschreibung sind aus dem zugeordneten Datenmaterial nicht sicher ableitbar.","description_source":"Kapitel Westrhein-Luxemburg","description_kind":"Ortsprofil","description_has_more":true,"detail_plans":[],"alternate_locations":[],"sources":[{"bookId":"sr5-datapuls-adl","title":"Datapuls ADL","edition":"SR5","citation":"Kapitel Westrhein-Luxemburg","purpose":"description"}],"map_sources":[],"editions":["SR5"],"edition_descriptions":{"SR5":{"kind":"Ortsprofil","preview":"Das Großherzogtum Westrhein-Luxemburg bildet einen westlichen Grenzraum der ADL mit eigener monarchischer Ordnung und starker europäischer Verflechtung.","full":"Das Großherzogtum Westrhein-Luxemburg bildet einen westlichen Grenzraum der ADL mit eigener monarchischer Ordnung und starker europäischer Verflechtung. Die Position ist auf den belegten Stadt- oder Teilraum angenähert; eine hausgenaue Lage und eine weitergehende eigene Fließtextbeschreibung sind aus dem zugeordneten Datenmaterial nicht sicher ableitbar.","hasMore":true,"hasExcerpt":true,"sources":[{"bookId":"sr5-datapuls-adl","title":"Datapuls ADL","edition":"SR5","citation":"Kapitel Westrhein-Luxemburg","purpose":"description"}]}}}},{"type":"Feature","geometry":{"type":"Point","coordinates":[9.9937,53.5511]},"properties":{"id":9,"global_id":"adl-2082:place:9-hamburg","name":"Hamburg","aliases":[],"category":"Allianzländer und Regionen","detail_map":"Hamburg","source_pages":"Kapitel Hamburg","map_source":"Datapuls ADL","placement_note":"Geografisches Zentrum des Lore-Raums Hamburg","accuracy":"Regionaler Bezugspunkt; keine flächengenaue Grenze","source_map":"adl-2082-content","source_panel":"Hamburg","description_preview":"Hamburg ist ein überfluteter Hafenplex, Medienzentrum und Tor zur Nordsee; die Stadt besitzt eine eigene Detailkarte.","description_full":"Hamburg ist ein überfluteter Hafenplex, Medienzentrum und Tor zur Nordsee; die Stadt besitzt eine eigene Detailkarte. Die Position ist auf den belegten Stadt- oder Teilraum angenähert; eine hausgenaue Lage und eine weitergehende eigene Fließtextbeschreibung sind aus dem zugeordneten Datenmaterial nicht sicher ableitbar.","description_source":"Kapitel Hamburg","description_kind":"Ortsprofil","description_has_more":true,"detail_plans":[],"alternate_locations":[],"sources":[{"bookId":"sr5-datapuls-adl","title":"Datapuls ADL","edition":"SR5","citation":"Kapitel Hamburg","purpose":"description"},{"bookId":"sr1-deutschland-in-den-schatten","title":"Deutschland in den Schatten","edition":"SR1","citation":"Kapitel Hamburg","purpose":"description"},{"bookId":"sr2-deutschland-in-den-schatten","title":"Deutschland in den Schatten","edition":"SR2","citation":"Kapitel Hamburg","purpose":"description"},{"bookId":"sr3-deutschland-in-den-schatten-ii","title":"Deutschland in den Schatten II","edition":"SR3","citation":"Kapitel Hamburg","purpose":"description"},{"bookId":"sr4-reisefuhrer-in-die-deutschen-schatten","title":"Reiseführer in die deutschen Schatten","edition":"SR4","citation":"Kapitel Hamburg","purpose":"description"}],"map_sources":[],"editions":["SR5","SR1","SR2","SR3","SR4"],"edition_descriptions":{"SR5":{"kind":"Ortsprofil","preview":"Hamburg ist ein überfluteter Hafenplex, Medienzentrum und Tor zur Nordsee; die Stadt besitzt eine eigene Detailkarte.","full":"Hamburg ist ein überfluteter Hafenplex, Medienzentrum und Tor zur Nordsee; die Stadt besitzt eine eigene Detailkarte. Die Position ist auf den belegten Stadt- oder Teilraum angenähert; eine hausgenaue Lage und eine weitergehende eigene Fließtextbeschreibung sind aus dem zugeordneten Datenmaterial nicht sicher ableitbar.","hasMore":true,"hasExcerpt":true,"sources":[{"bookId":"sr5-datapuls-adl","title":"Datapuls ADL","edition":"SR5","citation":"Kapitel Hamburg","purpose":"description"}]},"SR1":{"kind":"Quellennachweis","preview":"Hamburg ist für SR1 in Deutschland in den Schatten belegt.","full":"Hamburg ist für SR1 in Deutschland in den Schatten belegt. Der Eintrag wird editionsübergreifend mit demselben Ort zusammengeführt.","hasMore":true,"hasExcerpt":false,"sources":[{"bookId":"sr1-deutschland-in-den-schatten","title":"Deutschland in den Schatten","edition":"SR1","citation":"Kapitel Hamburg","purpose":"description"}]},"SR2":{"kind":"Quellennachweis","preview":"Hamburg ist für SR2 in Deutschland in den Schatten belegt.","full":"Hamburg ist für SR2 in Deutschland in den Schatten belegt. Der Eintrag wird editionsübergreifend mit demselben Ort zusammengeführt.","hasMore":true,"hasExcerpt":false,"sources":[{"bookId":"sr2-deutschland-in-den-schatten","title":"Deutschland in den Schatten","edition":"SR2","citation":"Kapitel Hamburg","purpose":"description"}]},"SR3":{"kind":"Quellennachweis","preview":"Hamburg ist für SR3 in Deutschland in den Schatten II belegt.","full":"Hamburg ist für SR3 in Deutschland in den Schatten II belegt. Der Eintrag wird editionsübergreifend mit demselben Ort zusammengeführt.","hasMore":true,"hasExcerpt":false,"sources":[{"bookId":"sr3-deutschland-in-den-schatten-ii","title":"Deutschland in den Schatten II","edition":"SR3","citation":"Kapitel Hamburg","purpose":"description"}]},"SR4":{"kind":"Quellennachweis","preview":"Hamburg ist für SR4 in Reiseführer in die deutschen Schatten belegt.","full":"Hamburg ist für SR4 in Reiseführer in die deutschen Schatten belegt. Der Eintrag wird editionsübergreifend mit demselben Ort zusammengeführt.","hasMore":true,"hasExcerpt":false,"sources":[{"bookId":"sr4-reisefuhrer-in-die-deutschen-schatten","title":"Reiseführer in die deutschen Schatten","edition":"SR4","citation":"Kapitel Hamburg","purpose":"description"}]}},"linked_city_id":"hamburg-2080"}},{"type":"Feature","geometry":{"type":"Point","coordinates":[9.732,52.3759]},"properties":{"id":17,"global_id":"adl-2082:place:17-hannover","name":"Hannover","aliases":[],"category":"Städte","detail_map":"Hannover","source_pages":"Kapitel Politik und Hannover","map_source":"Datapuls ADL","placement_note":"Erhaltener geographischer Bezugspunkt","accuracy":"Geographischer Bezugspunkt","source_map":"adl-2082-content","source_panel":"Hannover","description_preview":"Hannover ist Hauptstadt der ADL und Sitz zentraler Allianzbehörden.","description_full":"Hannover ist Hauptstadt der ADL und Sitz zentraler Allianzbehörden. Die Position folgt einem erhaltenen heutigen Bezugspunkt.","description_source":"Kapitel Politik und Hannover","description_kind":"Ortsprofil","description_has_more":true,"detail_plans":[],"alternate_locations":[],"sources":[{"bookId":"sr5-datapuls-adl","title":"Datapuls ADL","edition":"SR5","citation":"Kapitel Politik und Hannover","purpose":"description"},{"bookId":"sr1-deutschland-in-den-schatten","title":"Deutschland in den Schatten","edition":"SR1","citation":"Kapitel Hannover","purpose":"description"},{"bookId":"sr2-deutschland-in-den-schatten","title":"Deutschland in den Schatten","edition":"SR2","citation":"Kapitel Hannover","purpose":"description"},{"bookId":"sr3-deutschland-in-den-schatten-ii","title":"Deutschland in den Schatten II","edition":"SR3","citation":"Kapitel Hannover","purpose":"description"},{"bookId":"sr4-reisefuhrer-in-die-deutschen-schatten","title":"Reiseführer in die deutschen Schatten","edition":"SR4","citation":"Kapitel Hannover","purpose":"description"}],"map_sources":[],"editions":["SR5","SR1","SR2","SR3","SR4"],"edition_descriptions":{"SR5":{"kind":"Ortsprofil","preview":"Hannover ist Hauptstadt der ADL und Sitz zentraler Allianzbehörden.","full":"Hannover ist Hauptstadt der ADL und Sitz zentraler Allianzbehörden. Die Position folgt einem erhaltenen heutigen Bezugspunkt.","hasMore":true,"hasExcerpt":true,"sources":[{"bookId":"sr5-datapuls-adl","title":"Datapuls ADL","edition":"SR5","citation":"Kapitel Politik und Hannover","purpose":"description"}]},"SR1":{"kind":"Quellennachweis","preview":"Hannover ist für SR1 in Deutschland in den Schatten belegt.","full":"Hannover ist für SR1 in Deutschland in den Schatten belegt. Der Eintrag wird editionsübergreifend mit demselben Ort zusammengeführt.","hasMore":true,"hasExcerpt":false,"sources":[{"bookId":"sr1-deutschland-in-den-schatten","title":"Deutschland in den Schatten","edition":"SR1","citation":"Kapitel Hannover","purpose":"description"}]},"SR2":{"kind":"Quellennachweis","preview":"Hannover ist für SR2 in Deutschland in den Schatten belegt.","full":"Hannover ist für SR2 in Deutschland in den Schatten belegt. Der Eintrag wird editionsübergreifend mit demselben Ort zusammengeführt.","hasMore":true,"hasExcerpt":false,"sources":[{"bookId":"sr2-deutschland-in-den-schatten","title":"Deutschland in den Schatten","edition":"SR2","citation":"Kapitel Hannover","purpose":"description"}]},"SR3":{"kind":"Quellennachweis","preview":"Hannover ist für SR3 in Deutschland in den Schatten II belegt.","full":"Hannover ist für SR3 in Deutschland in den Schatten II belegt. Der Eintrag wird editionsübergreifend mit demselben Ort zusammengeführt.","hasMore":true,"hasExcerpt":false,"sources":[{"bookId":"sr3-deutschland-in-den-schatten-ii","title":"Deutschland in den Schatten II","edition":"SR3","citation":"Kapitel Hannover","purpose":"description"}]},"SR4":{"kind":"Quellennachweis","preview":"Hannover ist für SR4 in Reiseführer in die deutschen Schatten belegt.","full":"Hannover ist für SR4 in Reiseführer in die deutschen Schatten belegt. Der Eintrag wird editionsübergreifend mit demselben Ort zusammengeführt.","hasMore":true,"hasExcerpt":false,"sources":[{"bookId":"sr4-reisefuhrer-in-die-deutschen-schatten","title":"Reiseführer in die deutschen Schatten","edition":"SR4","citation":"Kapitel Hannover","purpose":"description"}]}}}},{"type":"Feature","geometry":{"type":"Point","coordinates":[10.6333,51.75]},"properties":{"id":18,"global_id":"adl-2082:place:18-harz","name":"Harz","aliases":[],"category":"Sondergebiete","detail_map":"Harz","source_pages":"gesamter Band","map_source":"Datapuls: Harz","placement_note":"Nach Quellenbezug im Teilraum Harz angenähert","accuracy":"Teilraumzuordnung; Feinposition vorläufig","source_map":"adl-2082-content","source_panel":"Harz","description_preview":"Der Harz ist eine erwachte Gebirgsregion mit Hexentraditionen, magischen Orten und zahlreichen lokalen Gefahren.","description_full":"Der Harz ist eine erwachte Gebirgsregion mit Hexentraditionen, magischen Orten und zahlreichen lokalen Gefahren. Die Position ist auf den belegten Stadt- oder Teilraum angenähert; eine hausgenaue Lage und eine weitergehende eigene Fließtextbeschreibung sind aus dem zugeordneten Datenmaterial nicht sicher ableitbar.","description_source":"gesamter Band","description_kind":"Ortsprofil","description_has_more":true,"detail_plans":[],"alternate_locations":[],"sources":[{"bookId":"sr6-datapuls-harz","title":"Datapuls: Harz","edition":"SR6","citation":"gesamter Band","purpose":"description"}],"map_sources":[],"editions":["SR6"],"edition_descriptions":{"SR6":{"kind":"Ortsprofil","preview":"Der Harz ist eine erwachte Gebirgsregion mit Hexentraditionen, magischen Orten und zahlreichen lokalen Gefahren.","full":"Der Harz ist eine erwachte Gebirgsregion mit Hexentraditionen, magischen Orten und zahlreichen lokalen Gefahren. Die Position ist auf den belegten Stadt- oder Teilraum angenähert; eine hausgenaue Lage und eine weitergehende eigene Fließtextbeschreibung sind aus dem zugeordneten Datenmaterial nicht sicher ableitbar.","hasMore":true,"hasExcerpt":true,"sources":[{"bookId":"sr6-datapuls-harz","title":"Datapuls: Harz","edition":"SR6","citation":"gesamter Band","purpose":"description"}]}}}},{"type":"Feature","geometry":{"type":"Point","coordinates":[8.0,50.4074]},"properties":{"id":10,"global_id":"adl-2082:place:10-hessen-nassau","name":"Hessen-Nassau","aliases":[],"category":"Allianzländer und Regionen","detail_map":"Hessen-Nassau","source_pages":"Kapitel Hessen-Nassau","map_source":"Datapuls ADL","placement_note":"Geografisches Zentrum des Lore-Raums Hessen-Nassau","accuracy":"Regionaler Bezugspunkt; keine flächengenaue Grenze","source_map":"adl-2082-content","source_panel":"Hessen-Nassau","description_preview":"Hessen-Nassau verbindet ländliche Räume, alte Zentren und den Einfluss des benachbarten Groß-Frankfurt.","description_full":"Hessen-Nassau verbindet ländliche Räume, alte Zentren und den Einfluss des benachbarten Groß-Frankfurt. Die Position ist auf den belegten Stadt- oder Teilraum angenähert; eine hausgenaue Lage und eine weitergehende eigene Fließtextbeschreibung sind aus dem zugeordneten Datenmaterial nicht sicher ableitbar.","description_source":"Kapitel Hessen-Nassau","description_kind":"Ortsprofil","description_has_more":true,"detail_plans":[],"alternate_locations":[],"sources":[{"bookId":"sr5-datapuls-adl","title":"Datapuls ADL","edition":"SR5","citation":"Kapitel Hessen-Nassau","purpose":"description"}],"map_sources":[],"editions":["SR5"],"edition_descriptions":{"SR5":{"kind":"Ortsprofil","preview":"Hessen-Nassau verbindet ländliche Räume, alte Zentren und den Einfluss des benachbarten Groß-Frankfurt.","full":"Hessen-Nassau verbindet ländliche Räume, alte Zentren und den Einfluss des benachbarten Groß-Frankfurt. Die Position ist auf den belegten Stadt- oder Teilraum angenähert; eine hausgenaue Lage und eine weitergehende eigene Fließtextbeschreibung sind aus dem zugeordneten Datenmaterial nicht sicher ableitbar.","hasMore":true,"hasExcerpt":true,"sources":[{"bookId":"sr5-datapuls-adl","title":"Datapuls ADL","edition":"SR5","citation":"Kapitel Hessen-Nassau","purpose":"description"}]}}}},{"type":"Feature","geometry":{"type":"Point","coordinates":[8.4037,49.0069]},"properties":{"id":19,"global_id":"adl-2082:place:19-karlsruhe","name":"Karlsruhe","aliases":[],"category":"Städte","detail_map":"Karlsruhe","source_pages":"gesamter Band","map_source":"Datapuls Karlsruhe","placement_note":"Erhaltener geographischer Bezugspunkt","accuracy":"Geographischer Bezugspunkt","source_map":"adl-2082-content","source_panel":"Karlsruhe","description_preview":"Karlsruhe ist ein wichtiges Verwaltungs-, Justiz- und Technologierzentrum im Südwesten der ADL.","description_full":"Karlsruhe ist ein wichtiges Verwaltungs-, Justiz- und Technologierzentrum im Südwesten der ADL. Die Position folgt einem erhaltenen heutigen Bezugspunkt.","description_source":"gesamter Band","description_kind":"Ortsprofil","description_has_more":true,"detail_plans":[],"alternate_locations":[],"sources":[{"bookId":"sr5-datapuls-karlsruhe","title":"Datapuls Karlsruhe","edition":"SR5","citation":"gesamter Band","purpose":"description"}],"map_sources":[],"editions":["SR5"],"edition_descriptions":{"SR5":{"kind":"Ortsprofil","preview":"Karlsruhe ist ein wichtiges Verwaltungs-, Justiz- und Technologierzentrum im Südwesten der ADL.","full":"Karlsruhe ist ein wichtiges Verwaltungs-, Justiz- und Technologierzentrum im Südwesten der ADL. Die Position folgt einem erhaltenen heutigen Bezugspunkt.","hasMore":true,"hasExcerpt":true,"sources":[{"bookId":"sr5-datapuls-karlsruhe","title":"Datapuls Karlsruhe","edition":"SR5","citation":"gesamter Band","purpose":"description"}]}}}},{"type":"Feature","geometry":{"type":"Point","coordinates":[12.2,51.388]},"properties":{"id":20,"global_id":"adl-2082:place:20-leipzig-halle","name":"Leipzig-Halle","aliases":[],"category":"Städte","detail_map":"Leipzig-Halle","source_pages":"Kapitel Sachsen","map_source":"Datapuls ADL","placement_note":"Erhaltener geographischer Bezugspunkt","accuracy":"Geographischer Bezugspunkt","source_map":"adl-2082-content","source_panel":"Leipzig-Halle","description_preview":"Leipzig-Halle bildet einen zusammengewachsenen mitteldeutschen Ballungsraum mit Verkehr, Industrie und eigener Schattenökonomie.","description_full":"Leipzig-Halle bildet einen zusammengewachsenen mitteldeutschen Ballungsraum mit Verkehr, Industrie und eigener Schattenökonomie. Die Position folgt einem erhaltenen heutigen Bezugspunkt.","description_source":"Kapitel Sachsen","description_kind":"Ortsprofil","description_has_more":true,"detail_plans":[],"alternate_locations":[],"sources":[{"bookId":"sr5-datapuls-adl","title":"Datapuls ADL","edition":"SR5","citation":"Kapitel Sachsen","purpose":"description"}],"map_sources":[],"editions":["SR5"],"edition_descriptions":{"SR5":{"kind":"Ortsprofil","preview":"Leipzig-Halle bildet einen zusammengewachsenen mitteldeutschen Ballungsraum mit Verkehr, Industrie und eigener Schattenökonomie.","full":"Leipzig-Halle bildet einen zusammengewachsenen mitteldeutschen Ballungsraum mit Verkehr, Industrie und eigener Schattenökonomie. Die Position folgt einem erhaltenen heutigen Bezugspunkt.","hasMore":true,"hasExcerpt":true,"sources":[{"bookId":"sr5-datapuls-adl","title":"Datapuls ADL","edition":"SR5","citation":"Kapitel Sachsen","purpose":"description"}]}}}},{"type":"Feature","geometry":{"type":"Point","coordinates":[12.7012,49.9646]},"properties":{"id":21,"global_id":"adl-2082:place:21-marienbad","name":"Marienbad","aliases":[],"category":"Städte","detail_map":"Marienbad","source_pages":"gesamter Band","map_source":"Datapuls: Marienbad","placement_note":"Erhaltener geographischer Bezugspunkt","accuracy":"Geographischer Bezugspunkt","source_map":"adl-2082-content","source_panel":"Marienbad","description_preview":"Marienbad ist eine traditionsreiche Kurstadt im böhmischen Grenzraum und ein Knotenpunkt für Politik, Magie und diskrete Geschäfte.","description_full":"Marienbad ist eine traditionsreiche Kurstadt im böhmischen Grenzraum und ein Knotenpunkt für Politik, Magie und diskrete Geschäfte. Die Position folgt einem erhaltenen heutigen Bezugspunkt.","description_source":"gesamter Band","description_kind":"Ortsprofil","description_has_more":true,"detail_plans":[],"alternate_locations":[],"sources":[{"bookId":"sr6-datapuls-marienbad","title":"Datapuls: Marienbad","edition":"SR6","citation":"gesamter Band","purpose":"description"}],"map_sources":[],"editions":["SR6"],"edition_descriptions":{"SR6":{"kind":"Ortsprofil","preview":"Marienbad ist eine traditionsreiche Kurstadt im böhmischen Grenzraum und ein Knotenpunkt für Politik, Magie und diskrete Geschäfte.","full":"Marienbad ist eine traditionsreiche Kurstadt im böhmischen Grenzraum und ein Knotenpunkt für Politik, Magie und diskrete Geschäfte. Die Position folgt einem erhaltenen heutigen Bezugspunkt.","hasMore":true,"hasExcerpt":true,"sources":[{"bookId":"sr6-datapuls-marienbad","title":"Datapuls: Marienbad","edition":"SR6","citation":"gesamter Band","purpose":"description"}]}}}},{"type":"Feature","geometry":{"type":"Point","coordinates":[11.5755,48.1374]},"properties":{"id":22,"global_id":"adl-2082:place:22-munchen","name":"München","aliases":[],"category":"Städte","detail_map":"München","source_pages":"S. 2–29","map_source":"Datapuls: München","placement_note":"Erhaltener geographischer Bezugspunkt","accuracy":"Geographischer Bezugspunkt","source_map":"adl-2082-content","source_panel":"München","description_preview":"München ist Bayerns überfüllte Medien- und Konzernmetropole, geprägt von Geschichte, Erwachen und einem eigenwilligen lokalen Schattenmilieu.","description_full":"München ist Bayerns überfüllte Medien- und Konzernmetropole, geprägt von Geschichte, Erwachen und einem eigenwilligen lokalen Schattenmilieu. Die Position folgt einem erhaltenen heutigen Bezugspunkt.","description_source":"S. 2–29","description_kind":"Ortsprofil","description_has_more":true,"detail_plans":[],"alternate_locations":[],"sources":[{"bookId":"sr6-datapuls-munchen","title":"Datapuls: München","edition":"SR6","citation":"S. 2–29","purpose":"description"},{"bookId":"sr1-deutschland-in-den-schatten","title":"Deutschland in den Schatten","edition":"SR1","citation":"Kapitel München","purpose":"description"},{"bookId":"sr2-deutschland-in-den-schatten","title":"Deutschland in den Schatten","edition":"SR2","citation":"Kapitel München","purpose":"description"},{"bookId":"sr3-deutschland-in-den-schatten-ii","title":"Deutschland in den Schatten II","edition":"SR3","citation":"Kapitel München","purpose":"description"},{"bookId":"sr4-reisefuhrer-in-die-deutschen-schatten","title":"Reiseführer in die deutschen Schatten","edition":"SR4","citation":"Kapitel München","purpose":"description"}],"map_sources":[],"editions":["SR6","SR1","SR2","SR3","SR4"],"edition_descriptions":{"SR6":{"kind":"Ortsprofil","preview":"München ist Bayerns überfüllte Medien- und Konzernmetropole, geprägt von Geschichte, Erwachen und einem eigenwilligen lokalen Schattenmilieu.","full":"München ist Bayerns überfüllte Medien- und Konzernmetropole, geprägt von Geschichte, Erwachen und einem eigenwilligen lokalen Schattenmilieu. Die Position folgt einem erhaltenen heutigen Bezugspunkt.","hasMore":true,"hasExcerpt":true,"sources":[{"bookId":"sr6-datapuls-munchen","title":"Datapuls: München","edition":"SR6","citation":"S. 2–29","purpose":"description"}]},"SR1":{"kind":"Quellennachweis","preview":"München ist für SR1 in Deutschland in den Schatten belegt.","full":"München ist für SR1 in Deutschland in den Schatten belegt. Der Eintrag wird editionsübergreifend mit demselben Ort zusammengeführt.","hasMore":true,"hasExcerpt":false,"sources":[{"bookId":"sr1-deutschland-in-den-schatten","title":"Deutschland in den Schatten","edition":"SR1","citation":"Kapitel München","purpose":"description"}]},"SR2":{"kind":"Quellennachweis","preview":"München ist für SR2 in Deutschland in den Schatten belegt.","full":"München ist für SR2 in Deutschland in den Schatten belegt. Der Eintrag wird editionsübergreifend mit demselben Ort zusammengeführt.","hasMore":true,"hasExcerpt":false,"sources":[{"bookId":"sr2-deutschland-in-den-schatten","title":"Deutschland in den Schatten","edition":"SR2","citation":"Kapitel München","purpose":"description"}]},"SR3":{"kind":"Quellennachweis","preview":"München ist für SR3 in Deutschland in den Schatten II belegt.","full":"München ist für SR3 in Deutschland in den Schatten II belegt. Der Eintrag wird editionsübergreifend mit demselben Ort zusammengeführt.","hasMore":true,"hasExcerpt":false,"sources":[{"bookId":"sr3-deutschland-in-den-schatten-ii","title":"Deutschland in den Schatten II","edition":"SR3","citation":"Kapitel München","purpose":"description"}]},"SR4":{"kind":"Quellennachweis","preview":"München ist für SR4 in Reiseführer in die deutschen Schatten belegt.","full":"München ist für SR4 in Reiseführer in die deutschen Schatten belegt. Der Eintrag wird editionsübergreifend mit demselben Ort zusammengeführt.","hasMore":true,"hasExcerpt":false,"sources":[{"bookId":"sr4-reisefuhrer-in-die-deutschen-schatten","title":"Reiseführer in die deutschen Schatten","edition":"SR4","citation":"Kapitel München","purpose":"description"}]}}}},{"type":"Feature","geometry":{"type":"Point","coordinates":[10.15,53.2]},"properties":{"id":11,"global_id":"adl-2082:place:11-norddeutscher-bund","name":"Norddeutscher Bund","aliases":[],"category":"Allianzländer und Regionen","detail_map":"Norddeutscher Bund","source_pages":"Kapitel Norddeutscher Bund","map_source":"Datapuls ADL","placement_note":"Geografisches Zentrum des Lore-Raums Norddeutscher Bund","accuracy":"Regionaler Bezugspunkt; keine flächengenaue Grenze","source_map":"adl-2082-content","source_panel":"Norddeutscher Bund","description_preview":"Der Norddeutsche Bund umfasst große Teile des Nordens und wird von Hafenwirtschaft, Landwirtschaft, Küstengefahren und dem politischen Zentrum Hannover geprägt.","description_full":"Der Norddeutsche Bund umfasst große Teile des Nordens und wird von Hafenwirtschaft, Landwirtschaft, Küstengefahren und dem politischen Zentrum Hannover geprägt. Die Position ist auf den belegten Stadt- oder Teilraum angenähert; eine hausgenaue Lage und eine weitergehende eigene Fließtextbeschreibung sind aus dem zugeordneten Datenmaterial nicht sicher ableitbar.","description_source":"Kapitel Norddeutscher Bund","description_kind":"Ortsprofil","description_has_more":true,"detail_plans":[],"alternate_locations":[],"sources":[{"bookId":"sr5-datapuls-adl","title":"Datapuls ADL","edition":"SR5","citation":"Kapitel Norddeutscher Bund","purpose":"description"}],"map_sources":[],"editions":["SR5"],"edition_descriptions":{"SR5":{"kind":"Ortsprofil","preview":"Der Norddeutsche Bund umfasst große Teile des Nordens und wird von Hafenwirtschaft, Landwirtschaft, Küstengefahren und dem politischen Zentrum Hannover geprägt.","full":"Der Norddeutsche Bund umfasst große Teile des Nordens und wird von Hafenwirtschaft, Landwirtschaft, Küstengefahren und dem politischen Zentrum Hannover geprägt. Die Position ist auf den belegten Stadt- oder Teilraum angenähert; eine hausgenaue Lage und eine weitergehende eigene Fließtextbeschreibung sind aus dem zugeordneten Datenmaterial nicht sicher ableitbar.","hasMore":true,"hasExcerpt":true,"sources":[{"bookId":"sr5-datapuls-adl","title":"Datapuls ADL","edition":"SR5","citation":"Kapitel Norddeutscher Bund","purpose":"description"}]}}}},{"type":"Feature","geometry":{"type":"Point","coordinates":[7.0116,51.4556]},"properties":{"id":12,"global_id":"adl-2082:place:12-nordrhein-ruhr","name":"Nordrhein-Ruhr","aliases":[],"category":"Allianzländer und Regionen","detail_map":"Nordrhein-Ruhr","source_pages":"Kapitel Nordrhein-Ruhr","map_source":"Datapuls ADL","placement_note":"Geografisches Zentrum des Lore-Raums Nordrhein-Ruhr","accuracy":"Regionaler Bezugspunkt; keine flächengenaue Grenze","source_map":"adl-2082-content","source_panel":"Nordrhein-Ruhr","description_preview":"Nordrhein-Ruhr ist der dicht bebaute Industrie- und Konzernraum der ADL, überragt von Saeder-Krupp in Neu-Essen; der Plex besitzt eine eigene Detailkarte.","description_full":"Nordrhein-Ruhr ist der dicht bebaute Industrie- und Konzernraum der ADL, überragt von Saeder-Krupp in Neu-Essen; der Plex besitzt eine eigene Detailkarte. Die Position ist auf den belegten Stadt- oder Teilraum angenähert; eine hausgenaue Lage und eine weitergehende eigene Fließtextbeschreibung sind aus dem zugeordneten Datenmaterial nicht sicher ableitbar.","description_source":"Kapitel Nordrhein-Ruhr","description_kind":"Ortsprofil","description_has_more":true,"detail_plans":[],"alternate_locations":[],"sources":[{"bookId":"sr5-datapuls-adl","title":"Datapuls ADL","edition":"SR5","citation":"Kapitel Nordrhein-Ruhr","purpose":"description"},{"bookId":"sr1-deutschland-in-den-schatten","title":"Deutschland in den Schatten","edition":"SR1","citation":"Kapitel Nordrhein-Ruhr","purpose":"description"},{"bookId":"sr2-deutschland-in-den-schatten","title":"Deutschland in den Schatten","edition":"SR2","citation":"Kapitel Nordrhein-Ruhr","purpose":"description"},{"bookId":"sr3-deutschland-in-den-schatten-ii","title":"Deutschland in den Schatten II","edition":"SR3","citation":"Kapitel Nordrhein-Ruhr","purpose":"description"},{"bookId":"sr4-reisefuhrer-in-die-deutschen-schatten","title":"Reiseführer in die deutschen Schatten","edition":"SR4","citation":"Kapitel Nordrhein-Ruhr","purpose":"description"}],"map_sources":[],"editions":["SR5","SR1","SR2","SR3","SR4"],"edition_descriptions":{"SR5":{"kind":"Ortsprofil","preview":"Nordrhein-Ruhr ist der dicht bebaute Industrie- und Konzernraum der ADL, überragt von Saeder-Krupp in Neu-Essen; der Plex besitzt eine eigene Detailkarte.","full":"Nordrhein-Ruhr ist der dicht bebaute Industrie- und Konzernraum der ADL, überragt von Saeder-Krupp in Neu-Essen; der Plex besitzt eine eigene Detailkarte. Die Position ist auf den belegten Stadt- oder Teilraum angenähert; eine hausgenaue Lage und eine weitergehende eigene Fließtextbeschreibung sind aus dem zugeordneten Datenmaterial nicht sicher ableitbar.","hasMore":true,"hasExcerpt":true,"sources":[{"bookId":"sr5-datapuls-adl","title":"Datapuls ADL","edition":"SR5","citation":"Kapitel Nordrhein-Ruhr","purpose":"description"}]},"SR1":{"kind":"Quellennachweis","preview":"Nordrhein-Ruhr ist für SR1 in Deutschland in den Schatten belegt.","full":"Nordrhein-Ruhr ist für SR1 in Deutschland in den Schatten belegt. Der Eintrag wird editionsübergreifend mit demselben Ort zusammengeführt.","hasMore":true,"hasExcerpt":false,"sources":[{"bookId":"sr1-deutschland-in-den-schatten","title":"Deutschland in den Schatten","edition":"SR1","citation":"Kapitel Nordrhein-Ruhr","purpose":"description"}]},"SR2":{"kind":"Quellennachweis","preview":"Nordrhein-Ruhr ist für SR2 in Deutschland in den Schatten belegt.","full":"Nordrhein-Ruhr ist für SR2 in Deutschland in den Schatten belegt. Der Eintrag wird editionsübergreifend mit demselben Ort zusammengeführt.","hasMore":true,"hasExcerpt":false,"sources":[{"bookId":"sr2-deutschland-in-den-schatten","title":"Deutschland in den Schatten","edition":"SR2","citation":"Kapitel Nordrhein-Ruhr","purpose":"description"}]},"SR3":{"kind":"Quellennachweis","preview":"Nordrhein-Ruhr ist für SR3 in Deutschland in den Schatten II belegt.","full":"Nordrhein-Ruhr ist für SR3 in Deutschland in den Schatten II belegt. Der Eintrag wird editionsübergreifend mit demselben Ort zusammengeführt.","hasMore":true,"hasExcerpt":false,"sources":[{"bookId":"sr3-deutschland-in-den-schatten-ii","title":"Deutschland in den Schatten II","edition":"SR3","citation":"Kapitel Nordrhein-Ruhr","purpose":"description"}]},"SR4":{"kind":"Quellennachweis","preview":"Nordrhein-Ruhr ist für SR4 in Reiseführer in die deutschen Schatten belegt.","full":"Nordrhein-Ruhr ist für SR4 in Reiseführer in die deutschen Schatten belegt. Der Eintrag wird editionsübergreifend mit demselben Ort zusammengeführt.","hasMore":true,"hasExcerpt":false,"sources":[{"bookId":"sr4-reisefuhrer-in-die-deutschen-schatten","title":"Reiseführer in die deutschen Schatten","edition":"SR4","citation":"Kapitel Nordrhein-Ruhr","purpose":"description"}]}},"linked_city_id":"rhein-ruhr-2082"}},{"type":"Feature","geometry":{"type":"Point","coordinates":[13.4,54.05]},"properties":{"id":13,"global_id":"adl-2082:place:13-pomorya","name":"Pomorya","aliases":[],"category":"Allianzländer und Regionen","detail_map":"Pomorya","source_pages":"S. 2–29","map_source":"Datapuls: Pomorya","placement_note":"Geografisches Zentrum des Lore-Raums Pomorya","accuracy":"Regionaler Bezugspunkt; keine flächengenaue Grenze","source_map":"adl-2082-content","source_panel":"Pomorya","description_preview":"Pomorya ist ein elfisch geprägtes Herzogtum an der Ostseeküste mit ausgeprägter Naturorientierung, höfischer Politik und kontrollierten Zugängen.","description_full":"Pomorya ist ein elfisch geprägtes Herzogtum an der Ostseeküste mit ausgeprägter Naturorientierung, höfischer Politik und kontrollierten Zugängen. Die Position ist auf den belegten Stadt- oder Teilraum angenähert; eine hausgenaue Lage und eine weitergehende eigene Fließtextbeschreibung sind aus dem zugeordneten Datenmaterial nicht sicher ableitbar.","description_source":"S. 2–29","description_kind":"Ortsprofil","description_has_more":true,"detail_plans":[],"alternate_locations":[],"sources":[{"bookId":"sr6-datapuls-pomorya","title":"Datapuls: Pomorya","edition":"SR6","citation":"S. 2–29","purpose":"description"}],"map_sources":[],"editions":["SR6"],"edition_descriptions":{"SR6":{"kind":"Ortsprofil","preview":"Pomorya ist ein elfisch geprägtes Herzogtum an der Ostseeküste mit ausgeprägter Naturorientierung, höfischer Politik und kontrollierten Zugängen.","full":"Pomorya ist ein elfisch geprägtes Herzogtum an der Ostseeküste mit ausgeprägter Naturorientierung, höfischer Politik und kontrollierten Zugängen. Die Position ist auf den belegten Stadt- oder Teilraum angenähert; eine hausgenaue Lage und eine weitergehende eigene Fließtextbeschreibung sind aus dem zugeordneten Datenmaterial nicht sicher ableitbar.","hasMore":true,"hasExcerpt":true,"sources":[{"bookId":"sr6-datapuls-pomorya","title":"Datapuls: Pomorya","edition":"SR6","citation":"S. 2–29","purpose":"description"}]}}}},{"type":"Feature","geometry":{"type":"Point","coordinates":[6.8,49.12]},"properties":{"id":14,"global_id":"adl-2082:place:14-sox","name":"SOX","aliases":[],"category":"Allianzländer und Regionen","detail_map":"SOX","source_pages":"gesamter Band","map_source":"Datapuls SOX","placement_note":"Geografisches Zentrum des Lore-Raums SOX","accuracy":"Regionaler Bezugspunkt; keine flächengenaue Grenze","source_map":"adl-2082-content","source_panel":"SOX","description_preview":"Die SOX ist eine toxisch und radioaktiv verseuchte Sonderzone im Westen, deren abgeschirmte Anlagen, Ruinen und Gefahren nur eingeschränkt zugänglich sind.","description_full":"Die SOX ist eine toxisch und radioaktiv verseuchte Sonderzone im Westen, deren abgeschirmte Anlagen, Ruinen und Gefahren nur eingeschränkt zugänglich sind. Die Position ist auf den belegten Stadt- oder Teilraum angenähert; eine hausgenaue Lage und eine weitergehende eigene Fließtextbeschreibung sind aus dem zugeordneten Datenmaterial nicht sicher ableitbar.","description_source":"gesamter Band","description_kind":"Ortsprofil","description_has_more":true,"detail_plans":[],"alternate_locations":[],"sources":[{"bookId":"sr5-datapuls-sox","title":"Datapuls SOX","edition":"SR5","citation":"gesamter Band","purpose":"description"}],"map_sources":[],"editions":["SR5"],"edition_descriptions":{"SR5":{"kind":"Ortsprofil","preview":"Die SOX ist eine toxisch und radioaktiv verseuchte Sonderzone im Westen, deren abgeschirmte Anlagen, Ruinen und Gefahren nur eingeschränkt zugänglich sind.","full":"Die SOX ist eine toxisch und radioaktiv verseuchte Sonderzone im Westen, deren abgeschirmte Anlagen, Ruinen und Gefahren nur eingeschränkt zugänglich sind. Die Position ist auf den belegten Stadt- oder Teilraum angenähert; eine hausgenaue Lage und eine weitergehende eigene Fließtextbeschreibung sind aus dem zugeordneten Datenmaterial nicht sicher ableitbar.","hasMore":true,"hasExcerpt":true,"sources":[{"bookId":"sr5-datapuls-sox","title":"Datapuls SOX","edition":"SR5","citation":"gesamter Band","purpose":"description"}]}}}},{"type":"Feature","geometry":{"type":"Point","coordinates":[8.15,48.15]},"properties":{"id":15,"global_id":"adl-2082:place:15-trollrepublik-schwarzwald","name":"Trollrepublik Schwarzwald","aliases":[],"category":"Allianzländer und Regionen","detail_map":"Trollrepublik Schwarzwald","source_pages":"gesamter Band","map_source":"Datapuls Trollrepublik & Schwarzwald","placement_note":"Geografisches Zentrum des Lore-Raums Trollrepublik Schwarzwald","accuracy":"Regionaler Bezugspunkt; keine flächengenaue Grenze","source_map":"adl-2082-content","source_panel":"Trollrepublik Schwarzwald","description_preview":"Die Trollrepublik Schwarzwald ist ein erwachter, überwiegend von Trollen und Orks geprägter Sonderraum mit eigener politischer Ordnung.","description_full":"Die Trollrepublik Schwarzwald ist ein erwachter, überwiegend von Trollen und Orks geprägter Sonderraum mit eigener politischer Ordnung. Die Position ist auf den belegten Stadt- oder Teilraum angenähert; eine hausgenaue Lage und eine weitergehende eigene Fließtextbeschreibung sind aus dem zugeordneten Datenmaterial nicht sicher ableitbar.","description_source":"gesamter Band","description_kind":"Ortsprofil","description_has_more":true,"detail_plans":[],"alternate_locations":[],"sources":[{"bookId":"sr5-datapuls-trollrepublik-schwarzwald","title":"Datapuls Trollrepublik & Schwarzwald","edition":"SR5","citation":"gesamter Band","purpose":"description"}],"map_sources":[],"editions":["SR5"],"edition_descriptions":{"SR5":{"kind":"Ortsprofil","preview":"Die Trollrepublik Schwarzwald ist ein erwachter, überwiegend von Trollen und Orks geprägter Sonderraum mit eigener politischer Ordnung.","full":"Die Trollrepublik Schwarzwald ist ein erwachter, überwiegend von Trollen und Orks geprägter Sonderraum mit eigener politischer Ordnung. Die Position ist auf den belegten Stadt- oder Teilraum angenähert; eine hausgenaue Lage und eine weitergehende eigene Fließtextbeschreibung sind aus dem zugeordneten Datenmaterial nicht sicher ableitbar.","hasMore":true,"hasExcerpt":true,"sources":[{"bookId":"sr5-datapuls-trollrepublik-schwarzwald","title":"Datapuls Trollrepublik & Schwarzwald","edition":"SR5","citation":"gesamter Band","purpose":"description"}]}}}},{"type":"Feature","geometry":{"type":"Point","coordinates":[9.1829,48.7758]},"properties":{"id":16,"global_id":"adl-2082:place:16-wurttemberg","name":"Württemberg","aliases":[],"category":"Allianzländer und Regionen","detail_map":"Württemberg","source_pages":"Kapitel Württemberg","map_source":"Datapuls ADL","placement_note":"Geografisches Zentrum des Lore-Raums Württemberg","accuracy":"Regionaler Bezugspunkt; keine flächengenaue Grenze","source_map":"adl-2082-content","source_panel":"Württemberg","description_preview":"Württemberg ist ein südwestliches Allianzbundesland mit Stuttgart als urbanem und industriellem Schwerpunkt.","description_full":"Württemberg ist ein südwestliches Allianzbundesland mit Stuttgart als urbanem und industriellem Schwerpunkt. Die Position ist auf den belegten Stadt- oder Teilraum angenähert; eine hausgenaue Lage und eine weitergehende eigene Fließtextbeschreibung sind aus dem zugeordneten Datenmaterial nicht sicher ableitbar.","description_source":"Kapitel Württemberg","description_kind":"Ortsprofil","description_has_more":true,"detail_plans":[],"alternate_locations":[],"sources":[{"bookId":"sr5-datapuls-adl","title":"Datapuls ADL","edition":"SR5","citation":"Kapitel Württemberg","purpose":"description"}],"map_sources":[],"editions":["SR5"],"edition_descriptions":{"SR5":{"kind":"Ortsprofil","preview":"Württemberg ist ein südwestliches Allianzbundesland mit Stuttgart als urbanem und industriellem Schwerpunkt.","full":"Württemberg ist ein südwestliches Allianzbundesland mit Stuttgart als urbanem und industriellem Schwerpunkt. Die Position ist auf den belegten Stadt- oder Teilraum angenähert; eine hausgenaue Lage und eine weitergehende eigene Fließtextbeschreibung sind aus dem zugeordneten Datenmaterial nicht sicher ableitbar.","hasMore":true,"hasExcerpt":true,"sources":[{"bookId":"sr5-datapuls-adl","title":"Datapuls ADL","edition":"SR5","citation":"Kapitel Württemberg","purpose":"description"}]}}}}]}
