{"type":"FeatureCollection","name":"ADL – geprüfte zusätzliche Quellenorte","features":[{"type":"Feature","geometry":null,"properties":{"id":24,"global_id":"adl-2082:source-place:social-media-cafe-mohrchen","name":"Social Media Café Möhrchen","aliases":[],"category":"Bars, Clubs und Gastronomie","detail_map":"ADL","source_pages":"Textzeile 9715","map_source":"Datapuls ADL","placement_note":"Keine belastbare Einzelposition; Eintrag bleibt im Katalog","accuracy":"Nur Stadt oder Lore-Teilraum belegt","source_map":"source-supplement","source_panel":"ADL","description_preview":"Social Media Café Möhrchen ist in Datapuls ADL als benannter Schauplatz mit Bezug zu ADL belegt.","description_full":"Social Media Café Möhrchen ist in Datapuls ADL als benannter Schauplatz mit Bezug zu ADL belegt. Das Dossier fasst den belegten Quellenstand redaktionell zusammen; eine nicht belegte Kartenposition wird nicht ergänzt.","description_source":"Textzeile 9715","description_kind":"Ortsdossier","description_has_more":true,"detail_plans":[],"alternate_locations":[],"sources":[{"bookId":"sr5-datapuls-adl","title":"Datapuls ADL","edition":"SR5","citation":"Textzeile 9715","purpose":"description"},{"bookId":"sr5-datapuls-adl-allianz-deutscher-lander","title":"Datapuls ADL (Allianz deutscher Länder)","edition":"SR5","citation":"Textzeile 9714","purpose":"description"}],"map_sources":[],"editions":["SR5"],"edition_descriptions":{"SR5":{"kind":"Ortsdossier","preview":"Social Media Café Möhrchen ist in Datapuls ADL als benannter Schauplatz mit Bezug zu ADL belegt.","full":"Social Media Café Möhrchen ist in Datapuls ADL als benannter Schauplatz mit Bezug zu ADL belegt. Das Dossier fasst den belegten Quellenstand redaktionell zusammen; eine nicht belegte Kartenposition wird nicht ergänzt.","hasMore":true,"hasExcerpt":true,"sources":[{"bookId":"sr5-datapuls-adl","title":"Datapuls ADL","edition":"SR5","citation":"Textzeile 9715","purpose":"description"},{"bookId":"sr5-datapuls-adl-allianz-deutscher-lander","title":"Datapuls ADL (Allianz deutscher Länder)","edition":"SR5","citation":"Textzeile 9714","purpose":"description"}]}}}},{"type":"Feature","geometry":null,"properties":{"id":25,"global_id":"adl-2082:source-place:trog-of-war-arena-endgame","name":"Trog Of War-Arena-Endgame","aliases":[],"category":"Sonstige Spots","detail_map":"ADL","source_pages":"Textzeile 29","map_source":"Novapuls 80-08-23 - 068","placement_note":"Keine belastbare Einzelposition; Eintrag bleibt im Katalog","accuracy":"Nur Stadt oder Lore-Teilraum belegt","source_map":"source-supplement","source_panel":"ADL","description_preview":"Trog Of War-Arena-Endgame ist in Novapuls 80-08-23 - 068 als benannter Schauplatz mit Bezug zu ADL belegt.","description_full":"Trog Of War-Arena-Endgame ist in Novapuls 80-08-23 - 068 als benannter Schauplatz mit Bezug zu ADL belegt. Das Dossier fasst den belegten Quellenstand redaktionell zusammen; eine nicht belegte Kartenposition wird nicht ergänzt.","description_source":"Textzeile 29","description_kind":"Ortsdossier","description_has_more":true,"detail_plans":[],"alternate_locations":[],"sources":[{"bookId":"sr5-novapuls-80-08-23-068","title":"Novapuls 80-08-23 - 068","edition":"SR5","citation":"Textzeile 29","purpose":"description"}],"map_sources":[],"editions":["SR5"],"edition_descriptions":{"SR5":{"kind":"Ortsdossier","preview":"Trog Of War-Arena-Endgame ist in Novapuls 80-08-23 - 068 als benannter Schauplatz mit Bezug zu ADL belegt.","full":"Trog Of War-Arena-Endgame ist in Novapuls 80-08-23 - 068 als benannter Schauplatz mit Bezug zu ADL belegt. Das Dossier fasst den belegten Quellenstand redaktionell zusammen; eine nicht belegte Kartenposition wird nicht ergänzt.","hasMore":true,"hasExcerpt":true,"sources":[{"bookId":"sr5-novapuls-80-08-23-068","title":"Novapuls 80-08-23 - 068","edition":"SR5","citation":"Textzeile 29","purpose":"description"}]}}}}]}
