{"type":"FeatureCollection","name":"Zürich Orte","features":[{"type":"Feature","geometry":null,"properties":{"id":4,"global_id":"zuerich:place:4-alter-bahnhof","name":"Alter Bahnhof","aliases":[],"category":"Verkehr","detail_map":"Zürich","source_pages":"Alter Bahnhof (Z)","map_source":"Chrom & Dioxin","placement_note":"Keine belastbare Einzelposition; Eintrag bleibt im Katalog","accuracy":"Nur Stadt oder Lore-Teilraum belegt","source_map":"zuerich-content","source_panel":"Zürich","description_preview":"Der Alte Bahnhof ist ein im frühen Schweizer Quellenstand benannter Ort.","description_full":"Der Alte Bahnhof ist ein im frühen Schweizer Quellenstand benannter Ort. Die Position ist auf den belegten Stadt- oder Teilraum angenähert; eine hausgenaue Lage und eine weitergehende eigene Fließtextbeschreibung sind aus dem zugeordneten Datenmaterial nicht sicher ableitbar.","description_source":"Alter Bahnhof (Z)","description_kind":"Ortsprofil","description_has_more":true,"detail_plans":[],"alternate_locations":[],"sources":[{"bookId":"sr2-chrom-dioxin","title":"Chrom & Dioxin","edition":"SR2","citation":"Alter Bahnhof (Z)","purpose":"description"}],"map_sources":[],"editions":["SR2"],"edition_descriptions":{"SR2":{"kind":"Ortsprofil","preview":"Der Alte Bahnhof ist ein im frühen Schweizer Quellenstand benannter Ort.","full":"Der Alte Bahnhof ist ein im frühen Schweizer Quellenstand benannter Ort. Die Position ist auf den belegten Stadt- oder Teilraum angenähert; eine hausgenaue Lage und eine weitergehende eigene Fließtextbeschreibung sind aus dem zugeordneten Datenmaterial nicht sicher ableitbar.","hasMore":true,"hasExcerpt":true,"sources":[{"bookId":"sr2-chrom-dioxin","title":"Chrom & Dioxin","edition":"SR2","citation":"Alter Bahnhof (Z)","purpose":"description"}]}}}},{"type":"Feature","geometry":{"type":"Point","coordinates":[8.542,47.367]},"properties":{"id":3,"global_id":"zuerich:place:3-escher-burkli-insel","name":"Escher-Bürkli-Insel","aliases":[],"category":"Bezirke","detail_map":"Escher-Bürkli-Insel","source_pages":"Die Escher-Bürkli-Insel","map_source":"Datapuls Schweiz","placement_note":"Geografischer Bezugspunkt des Lore-Distrikts Escher-Bürkli-Insel","accuracy":"Lore-Bezirkszentrum; Grenzpolygon noch nicht georeferenziert","source_map":"zuerich-content","source_panel":"Escher-Bürkli-Insel","description_preview":"Die Escher-Bürkli-Insel ist ein besonderer innerstädtischer Lore-Raum.","description_full":"Die Escher-Bürkli-Insel ist ein besonderer innerstädtischer Lore-Raum. Die Position ist auf den belegten Stadt- oder Teilraum angenähert; eine hausgenaue Lage und eine weitergehende eigene Fließtextbeschreibung sind aus dem zugeordneten Datenmaterial nicht sicher ableitbar.","description_source":"Die Escher-Bürkli-Insel","description_kind":"Ortsprofil","description_has_more":true,"detail_plans":[],"alternate_locations":[],"sources":[{"bookId":"sr5-datapuls-schweiz","title":"Datapuls Schweiz","edition":"SR5","citation":"Die Escher-Bürkli-Insel","purpose":"description"}],"map_sources":[],"editions":["SR5"],"edition_descriptions":{"SR5":{"kind":"Ortsprofil","preview":"Die Escher-Bürkli-Insel ist ein besonderer innerstädtischer Lore-Raum.","full":"Die Escher-Bürkli-Insel ist ein besonderer innerstädtischer Lore-Raum. Die Position ist auf den belegten Stadt- oder Teilraum angenähert; eine hausgenaue Lage und eine weitergehende eigene Fließtextbeschreibung sind aus dem zugeordneten Datenmaterial nicht sicher ableitbar.","hasMore":true,"hasExcerpt":true,"sources":[{"bookId":"sr5-datapuls-schweiz","title":"Datapuls Schweiz","edition":"SR5","citation":"Die Escher-Bürkli-Insel","purpose":"description"}]}}}},{"type":"Feature","geometry":null,"properties":{"id":9,"global_id":"zuerich:place:9-hermetische-hochschulen-zurich","name":"Hermetische Hochschulen Zürich","aliases":[],"category":"Bildung und Kultur","detail_map":"Zürich","source_pages":"Hermetische Hochschulen","map_source":"Chrom & Dioxin","placement_note":"Keine belastbare Einzelposition; Eintrag bleibt im Katalog","accuracy":"Nur Stadt oder Lore-Teilraum belegt","source_map":"zuerich-content","source_panel":"Zürich","description_preview":"Zürich besitzt bedeutende Einrichtungen hermetischer Forschung und Ausbildung.","description_full":"Zürich besitzt bedeutende Einrichtungen hermetischer Forschung und Ausbildung. Die Position ist auf den belegten Stadt- oder Teilraum angenähert; eine hausgenaue Lage und eine weitergehende eigene Fließtextbeschreibung sind aus dem zugeordneten Datenmaterial nicht sicher ableitbar.","description_source":"Hermetische Hochschulen","description_kind":"Ortsprofil","description_has_more":true,"detail_plans":[],"alternate_locations":[],"sources":[{"bookId":"sr2-chrom-dioxin","title":"Chrom & Dioxin","edition":"SR2","citation":"Hermetische Hochschulen","purpose":"description"}],"map_sources":[],"editions":["SR2"],"edition_descriptions":{"SR2":{"kind":"Ortsprofil","preview":"Zürich besitzt bedeutende Einrichtungen hermetischer Forschung und Ausbildung.","full":"Zürich besitzt bedeutende Einrichtungen hermetischer Forschung und Ausbildung. Die Position ist auf den belegten Stadt- oder Teilraum angenähert; eine hausgenaue Lage und eine weitergehende eigene Fließtextbeschreibung sind aus dem zugeordneten Datenmaterial nicht sicher ableitbar.","hasMore":true,"hasExcerpt":true,"sources":[{"bookId":"sr2-chrom-dioxin","title":"Chrom & Dioxin","edition":"SR2","citation":"Hermetische Hochschulen","purpose":"description"}]}}}},{"type":"Feature","geometry":null,"properties":{"id":6,"global_id":"zuerich:place:6-paracelsus-klinik","name":"Paracelsus-Klinik","aliases":[],"category":"Medizin","detail_map":"Zürich","source_pages":"Paracelsus-Klinik","map_source":"Chrom & Dioxin","placement_note":"Keine belastbare Einzelposition; Eintrag bleibt im Katalog","accuracy":"Nur Stadt oder Lore-Teilraum belegt","source_map":"zuerich-content","source_panel":"Zürich","description_preview":"Die Paracelsus-Klinik ist ein bedeutender medizinischer Standort.","description_full":"Die Paracelsus-Klinik ist ein bedeutender medizinischer Standort. Die Position ist auf den belegten Stadt- oder Teilraum angenähert; eine hausgenaue Lage und eine weitergehende eigene Fließtextbeschreibung sind aus dem zugeordneten Datenmaterial nicht sicher ableitbar.","description_source":"Paracelsus-Klinik","description_kind":"Ortsprofil","description_has_more":true,"detail_plans":[],"alternate_locations":[],"sources":[{"bookId":"sr2-chrom-dioxin","title":"Chrom & Dioxin","edition":"SR2","citation":"Paracelsus-Klinik","purpose":"description"}],"map_sources":[],"editions":["SR2"],"edition_descriptions":{"SR2":{"kind":"Ortsprofil","preview":"Die Paracelsus-Klinik ist ein bedeutender medizinischer Standort.","full":"Die Paracelsus-Klinik ist ein bedeutender medizinischer Standort. Die Position ist auf den belegten Stadt- oder Teilraum angenähert; eine hausgenaue Lage und eine weitergehende eigene Fließtextbeschreibung sind aus dem zugeordneten Datenmaterial nicht sicher ableitbar.","hasMore":true,"hasExcerpt":true,"sources":[{"bookId":"sr2-chrom-dioxin","title":"Chrom & Dioxin","edition":"SR2","citation":"Paracelsus-Klinik","purpose":"description"}]}}}},{"type":"Feature","geometry":null,"properties":{"id":5,"global_id":"zuerich:place:5-swissmetro-bahnhof-zurich-west","name":"SwissMetro-Bahnhof Zürich-West","aliases":[],"category":"Verkehr","detail_map":"Zürich-West","source_pages":"gesamter Artikel","map_source":"Schattenload 05 - SwissMetro-Bahnhof Zürich-West","placement_note":"Keine belastbare Einzelposition; Eintrag bleibt im Katalog","accuracy":"Nur Stadt oder Lore-Teilraum belegt","source_map":"zuerich-content","source_panel":"Zürich-West","description_preview":"Der Bahnhof ist ein wichtiger Zugang zum schweizerischen Hochgeschwindigkeitsnetz.","description_full":"Der Bahnhof ist ein wichtiger Zugang zum schweizerischen Hochgeschwindigkeitsnetz. Die Position ist auf den belegten Stadt- oder Teilraum angenähert; eine hausgenaue Lage und eine weitergehende eigene Fließtextbeschreibung sind aus dem zugeordneten Datenmaterial nicht sicher ableitbar.","description_source":"gesamter Artikel","description_kind":"Ortsprofil","description_has_more":true,"detail_plans":[],"alternate_locations":[],"sources":[{"bookId":"sr5-schattenload-05-swissmetro-bahnhof-zurich-west","title":"Schattenload 05 - SwissMetro-Bahnhof Zürich-West","edition":"SR5","citation":"gesamter Artikel","purpose":"description"}],"map_sources":[],"editions":["SR5"],"edition_descriptions":{"SR5":{"kind":"Ortsprofil","preview":"Der Bahnhof ist ein wichtiger Zugang zum schweizerischen Hochgeschwindigkeitsnetz.","full":"Der Bahnhof ist ein wichtiger Zugang zum schweizerischen Hochgeschwindigkeitsnetz. Die Position ist auf den belegten Stadt- oder Teilraum angenähert; eine hausgenaue Lage und eine weitergehende eigene Fließtextbeschreibung sind aus dem zugeordneten Datenmaterial nicht sicher ableitbar.","hasMore":true,"hasExcerpt":true,"sources":[{"bookId":"sr5-schattenload-05-swissmetro-bahnhof-zurich-west","title":"Schattenload 05 - SwissMetro-Bahnhof Zürich-West","edition":"SR5","citation":"gesamter Artikel","purpose":"description"}]}}}},{"type":"Feature","geometry":null,"properties":{"id":8,"global_id":"zuerich:place:8-zenit-ag","name":"Zenit AG","aliases":[],"category":"Konzerne","detail_map":"Zürich","source_pages":"Zenit AG","map_source":"Shadowrun 4D Konzerndossier","placement_note":"Keine belastbare Einzelposition; Eintrag bleibt im Katalog","accuracy":"Nur Stadt oder Lore-Teilraum belegt","source_map":"zuerich-content","source_panel":"Zürich","description_preview":"Zenit ist ein in Zürich belegter Konzernstandort.","description_full":"Zenit ist ein in Zürich belegter Konzernstandort. Die Position ist auf den belegten Stadt- oder Teilraum angenähert; eine hausgenaue Lage und eine weitergehende eigene Fließtextbeschreibung sind aus dem zugeordneten Datenmaterial nicht sicher ableitbar.","description_source":"Zenit AG","description_kind":"Ortsprofil","description_has_more":true,"detail_plans":[],"alternate_locations":[],"sources":[{"bookId":"sr4-shadowrun-4d-konzerndossier","title":"Shadowrun 4D Konzerndossier","edition":"SR4","citation":"Zenit AG","purpose":"description"}],"map_sources":[],"editions":["SR4"],"edition_descriptions":{"SR4":{"kind":"Ortsprofil","preview":"Zenit ist ein in Zürich belegter Konzernstandort.","full":"Zenit ist ein in Zürich belegter Konzernstandort. Die Position ist auf den belegten Stadt- oder Teilraum angenähert; eine hausgenaue Lage und eine weitergehende eigene Fließtextbeschreibung sind aus dem zugeordneten Datenmaterial nicht sicher ableitbar.","hasMore":true,"hasExcerpt":true,"sources":[{"bookId":"sr4-shadowrun-4d-konzerndossier","title":"Shadowrun 4D Konzerndossier","edition":"SR4","citation":"Zenit AG","purpose":"description"}]}}}},{"type":"Feature","geometry":{"type":"Point","coordinates":[8.5417,47.3769]},"properties":{"id":1,"global_id":"zuerich:place:1-zurich-city","name":"Zürich City","aliases":[],"category":"Bezirke","detail_map":"Zürich City","source_pages":"Kapitel Zürich","map_source":"Datapuls Schweiz","placement_note":"Geografischer Bezugspunkt des Lore-Distrikts Zürich City","accuracy":"Lore-Bezirkszentrum; Grenzpolygon noch nicht georeferenziert","source_map":"zuerich-content","source_panel":"Zürich City","description_preview":"Zürich City bildet den Finanz-, Verwaltungs- und Kulturkern.","description_full":"Zürich City bildet den Finanz-, Verwaltungs- und Kulturkern. Die Position ist auf den belegten Stadt- oder Teilraum angenähert; eine hausgenaue Lage und eine weitergehende eigene Fließtextbeschreibung sind aus dem zugeordneten Datenmaterial nicht sicher ableitbar.","description_source":"Kapitel Zürich","description_kind":"Ortsprofil","description_has_more":true,"detail_plans":[],"alternate_locations":[],"sources":[{"bookId":"sr5-datapuls-schweiz","title":"Datapuls Schweiz","edition":"SR5","citation":"Kapitel Zürich","purpose":"description"}],"map_sources":[],"editions":["SR5"],"edition_descriptions":{"SR5":{"kind":"Ortsprofil","preview":"Zürich City bildet den Finanz-, Verwaltungs- und Kulturkern.","full":"Zürich City bildet den Finanz-, Verwaltungs- und Kulturkern. Die Position ist auf den belegten Stadt- oder Teilraum angenähert; eine hausgenaue Lage und eine weitergehende eigene Fließtextbeschreibung sind aus dem zugeordneten Datenmaterial nicht sicher ableitbar.","hasMore":true,"hasExcerpt":true,"sources":[{"bookId":"sr5-datapuls-schweiz","title":"Datapuls Schweiz","edition":"SR5","citation":"Kapitel Zürich","purpose":"description"}]}}}},{"type":"Feature","geometry":null,"properties":{"id":7,"global_id":"zuerich:place:7-zurich-investments","name":"Zürich Investments","aliases":[],"category":"Konzerne","detail_map":"Zürich","source_pages":"Zürich Investments","map_source":"Europa in den Schatten","placement_note":"Keine belastbare Einzelposition; Eintrag bleibt im Katalog","accuracy":"Nur Stadt oder Lore-Teilraum belegt","source_map":"zuerich-content","source_panel":"Zürich","description_preview":"Zürich Investments ist ein wichtiger Finanz- und Konzernakteur der Stadt.","description_full":"Zürich Investments ist ein wichtiger Finanz- und Konzernakteur der Stadt. Die Position ist auf den belegten Stadt- oder Teilraum angenähert; eine hausgenaue Lage und eine weitergehende eigene Fließtextbeschreibung sind aus dem zugeordneten Datenmaterial nicht sicher ableitbar.","description_source":"Zürich Investments","description_kind":"Ortsprofil","description_has_more":true,"detail_plans":[],"alternate_locations":[],"sources":[{"bookId":"sr3-europa-in-den-schatten","title":"Europa in den Schatten","edition":"SR3","citation":"Zürich Investments","purpose":"description"}],"map_sources":[],"editions":["SR3"],"edition_descriptions":{"SR3":{"kind":"Ortsprofil","preview":"Zürich Investments ist ein wichtiger Finanz- und Konzernakteur der Stadt.","full":"Zürich Investments ist ein wichtiger Finanz- und Konzernakteur der Stadt. Die Position ist auf den belegten Stadt- oder Teilraum angenähert; eine hausgenaue Lage und eine weitergehende eigene Fließtextbeschreibung sind aus dem zugeordneten Datenmaterial nicht sicher ableitbar.","hasMore":true,"hasExcerpt":true,"sources":[{"bookId":"sr3-europa-in-den-schatten","title":"Europa in den Schatten","edition":"SR3","citation":"Zürich Investments","purpose":"description"}]}}}},{"type":"Feature","geometry":{"type":"Point","coordinates":[8.51,47.39]},"properties":{"id":2,"global_id":"zuerich:place:2-zurich-west","name":"Zürich-West","aliases":[],"category":"Bezirke","detail_map":"Zürich-West","source_pages":"SwissMetro-Bahnhof Zürich-West","map_source":"Schattenload 05 - SwissMetro-Bahnhof Zürich-West","placement_note":"Geografischer Bezugspunkt des Lore-Distrikts Zürich-West","accuracy":"Lore-Bezirkszentrum; Grenzpolygon noch nicht georeferenziert","source_map":"zuerich-content","source_panel":"Zürich-West","description_preview":"Zürich-West verbindet ehemalige Industrieflächen, Verkehr, Nachtleben und neue Konzernnutzungen.","description_full":"Zürich-West verbindet ehemalige Industrieflächen, Verkehr, Nachtleben und neue Konzernnutzungen. Die Position ist auf den belegten Stadt- oder Teilraum angenähert; eine hausgenaue Lage und eine weitergehende eigene Fließtextbeschreibung sind aus dem zugeordneten Datenmaterial nicht sicher ableitbar.","description_source":"SwissMetro-Bahnhof Zürich-West","description_kind":"Ortsprofil","description_has_more":true,"detail_plans":[],"alternate_locations":[],"sources":[{"bookId":"sr5-schattenload-05-swissmetro-bahnhof-zurich-west","title":"Schattenload 05 - SwissMetro-Bahnhof Zürich-West","edition":"SR5","citation":"SwissMetro-Bahnhof Zürich-West","purpose":"description"}],"map_sources":[],"editions":["SR5"],"edition_descriptions":{"SR5":{"kind":"Ortsprofil","preview":"Zürich-West verbindet ehemalige Industrieflächen, Verkehr, Nachtleben und neue Konzernnutzungen.","full":"Zürich-West verbindet ehemalige Industrieflächen, Verkehr, Nachtleben und neue Konzernnutzungen. Die Position ist auf den belegten Stadt- oder Teilraum angenähert; eine hausgenaue Lage und eine weitergehende eigene Fließtextbeschreibung sind aus dem zugeordneten Datenmaterial nicht sicher ableitbar.","hasMore":true,"hasExcerpt":true,"sources":[{"bookId":"sr5-schattenload-05-swissmetro-bahnhof-zurich-west","title":"Schattenload 05 - SwissMetro-Bahnhof Zürich-West","edition":"SR5","citation":"SwissMetro-Bahnhof Zürich-West","purpose":"description"}]}}}}]}
