{"type":"FeatureCollection","name":"Zürich – geprüfte zusätzliche Quellenorte","features":[{"type":"Feature","geometry":null,"properties":{"id":10,"global_id":"zuerich:source-place:escher-burkli-island","name":"Escher-Bürkli Island","aliases":[],"category":"Sonstige Spots","detail_map":"Zürich","source_pages":"PDF-Seite 172","map_source":"Shadows of Europe","placement_note":"Keine belastbare Einzelposition; Eintrag bleibt im Katalog","accuracy":"Nur Stadt oder Lore-Teilraum belegt","source_map":"source-supplement","source_panel":"Zürich","description_preview":"Escher-Bürkli Island ist in Shadows of Europe als benannter Schauplatz mit Bezug zu Zürich belegt.","description_full":"Escher-Bürkli Island ist in Shadows of Europe als benannter Schauplatz mit Bezug zu Zürich belegt. Das Dossier fasst den belegten Quellenstand redaktionell zusammen; eine nicht belegte Kartenposition wird nicht ergänzt.","description_source":"PDF-Seite 172","description_kind":"Ortsdossier","description_has_more":true,"detail_plans":[],"alternate_locations":[],"sources":[{"bookId":"sr3-shadows-of-europe","title":"Shadows of Europe","edition":"SR3","citation":"PDF-Seite 172","purpose":"description"}],"map_sources":[],"editions":["SR3"],"edition_descriptions":{"SR3":{"kind":"Ortsdossier","preview":"Escher-Bürkli Island ist in Shadows of Europe als benannter Schauplatz mit Bezug zu Zürich belegt.","full":"Escher-Bürkli Island ist in Shadows of Europe als benannter Schauplatz mit Bezug zu Zürich belegt. Das Dossier fasst den belegten Quellenstand redaktionell zusammen; eine nicht belegte Kartenposition wird nicht ergänzt.","hasMore":true,"hasExcerpt":true,"sources":[{"bookId":"sr3-shadows-of-europe","title":"Shadows of Europe","edition":"SR3","citation":"PDF-Seite 172","purpose":"description"}]}}}}]}
