{"type":"FeatureCollection","name":"Casablanca-Rabat Orte","features":[{"type":"Feature","geometry":{"type":"Point","coordinates":[-6.866,33.978]},"properties":{"id":3,"global_id":"casablanca-rabat:place:3-al-irfane-quarter","name":"Al Irfane Quarter","aliases":[],"category":"Bezirke","detail_map":"Al Irfane Quarter","source_pages":"Al Irfane Quarter","map_source":"Shadows in Focus - Casablanca-Rabat","placement_note":"Geografischer Bezugspunkt des Lore-Distrikts Al Irfane Quarter","accuracy":"Lore-Bezirkszentrum; Grenzpolygon noch nicht georeferenziert","source_map":"casablanca-rabat-content","source_panel":"Al Irfane Quarter","description_preview":"Al Irfane ist ein Bildungs- und Verwaltungsviertel im Rabater Teil des Plexes.","description_full":"Al Irfane ist ein Bildungs- und Verwaltungsviertel im Rabater Teil des Plexes. Die Position ist auf den belegten Stadt- oder Teilraum angenähert; eine hausgenaue Lage und eine weitergehende eigene Fließtextbeschreibung sind aus dem zugeordneten Datenmaterial nicht sicher ableitbar.","description_source":"Al Irfane Quarter","description_kind":"Ortsprofil","description_has_more":true,"detail_plans":[],"alternate_locations":[],"sources":[{"bookId":"sr5-shadows-in-focus-casablanca-rabat","title":"Shadows in Focus - Casablanca-Rabat","edition":"SR5","citation":"Al Irfane Quarter","purpose":"description"}],"map_sources":[],"editions":["SR5"],"edition_descriptions":{"SR5":{"kind":"Ortsprofil","preview":"Al Irfane ist ein Bildungs- und Verwaltungsviertel im Rabater Teil des Plexes.","full":"Al Irfane ist ein Bildungs- und Verwaltungsviertel im Rabater Teil des Plexes. Die Position ist auf den belegten Stadt- oder Teilraum angenähert; eine hausgenaue Lage und eine weitergehende eigene Fließtextbeschreibung sind aus dem zugeordneten Datenmaterial nicht sicher ableitbar.","hasMore":true,"hasExcerpt":true,"sources":[{"bookId":"sr5-shadows-in-focus-casablanca-rabat","title":"Shadows in Focus - Casablanca-Rabat","edition":"SR5","citation":"Al Irfane Quarter","purpose":"description"}]}}}},{"type":"Feature","geometry":null,"properties":{"id":18,"global_id":"casablanca-rabat:place:18-badra-skytower","name":"Badra Skytower","aliases":[],"category":"Konzerne","detail_map":"Casablanca-Rabat","source_pages":"Badra Skytower","map_source":"Shadows in Focus - Casablanca-Rabat","placement_note":"Keine belastbare Einzelposition; Eintrag bleibt im Katalog","accuracy":"Nur Stadt oder Lore-Teilraum belegt","source_map":"casablanca-rabat-content","source_panel":"Casablanca-Rabat","description_preview":"Badra ist einer der prägenden Skytower des Doppelplexes.","description_full":"Badra ist einer der prägenden Skytower des Doppelplexes. Die Position ist auf den belegten Stadt- oder Teilraum angenähert; eine hausgenaue Lage und eine weitergehende eigene Fließtextbeschreibung sind aus dem zugeordneten Datenmaterial nicht sicher ableitbar.","description_source":"Badra Skytower","description_kind":"Ortsprofil","description_has_more":true,"detail_plans":[],"alternate_locations":[],"sources":[{"bookId":"sr5-shadows-in-focus-casablanca-rabat","title":"Shadows in Focus - Casablanca-Rabat","edition":"SR5","citation":"Badra Skytower","purpose":"description"}],"map_sources":[],"editions":["SR5"],"edition_descriptions":{"SR5":{"kind":"Ortsprofil","preview":"Badra ist einer der prägenden Skytower des Doppelplexes.","full":"Badra ist einer der prägenden Skytower des Doppelplexes. Die Position ist auf den belegten Stadt- oder Teilraum angenähert; eine hausgenaue Lage und eine weitergehende eigene Fließtextbeschreibung sind aus dem zugeordneten Datenmaterial nicht sicher ableitbar.","hasMore":true,"hasExcerpt":true,"sources":[{"bookId":"sr5-shadows-in-focus-casablanca-rabat","title":"Shadows in Focus - Casablanca-Rabat","edition":"SR5","citation":"Badra Skytower","purpose":"description"}]}}}},{"type":"Feature","geometry":null,"properties":{"id":7,"global_id":"casablanca-rabat:place:7-cafe-alba","name":"Café Alba","aliases":[],"category":"Restaurants","detail_map":"Casablanca","source_pages":"Café Alba","map_source":"Shadows in Focus - Casablanca-Rabat","placement_note":"Keine belastbare Einzelposition; Eintrag bleibt im Katalog","accuracy":"Nur Stadt oder Lore-Teilraum belegt","source_map":"casablanca-rabat-content","source_panel":"Casablanca","description_preview":"Café Alba ist ein lokaler Gastronomie- und Kontaktort.","description_full":"Café Alba ist ein lokaler Gastronomie- und Kontaktort. Die Position ist auf den belegten Stadt- oder Teilraum angenähert; eine hausgenaue Lage und eine weitergehende eigene Fließtextbeschreibung sind aus dem zugeordneten Datenmaterial nicht sicher ableitbar.","description_source":"Café Alba","description_kind":"Ortsprofil","description_has_more":true,"detail_plans":[],"alternate_locations":[],"sources":[{"bookId":"sr5-shadows-in-focus-casablanca-rabat","title":"Shadows in Focus - Casablanca-Rabat","edition":"SR5","citation":"Café Alba","purpose":"description"}],"map_sources":[],"editions":["SR5"],"edition_descriptions":{"SR5":{"kind":"Ortsprofil","preview":"Café Alba ist ein lokaler Gastronomie- und Kontaktort.","full":"Café Alba ist ein lokaler Gastronomie- und Kontaktort. Die Position ist auf den belegten Stadt- oder Teilraum angenähert; eine hausgenaue Lage und eine weitergehende eigene Fließtextbeschreibung sind aus dem zugeordneten Datenmaterial nicht sicher ableitbar.","hasMore":true,"hasExcerpt":true,"sources":[{"bookId":"sr5-shadows-in-focus-casablanca-rabat","title":"Shadows in Focus - Casablanca-Rabat","edition":"SR5","citation":"Café Alba","purpose":"description"}]}}}},{"type":"Feature","geometry":{"type":"Point","coordinates":[-7.5898,33.5731]},"properties":{"id":1,"global_id":"casablanca-rabat:place:1-casablanca","name":"Casablanca","aliases":[],"category":"Bezirke","detail_map":"Casablanca","source_pages":"Casablanca","map_source":"Shadows in Focus - Casablanca-Rabat","placement_note":"Geografischer Bezugspunkt des Lore-Distrikts Casablanca","accuracy":"Lore-Bezirkszentrum; Grenzpolygon noch nicht georeferenziert","source_map":"casablanca-rabat-content","source_panel":"Casablanca","description_preview":"Casablanca ist Wirtschafts-, Hafen- und Konzernzentrum des Doppelplexes.","description_full":"Casablanca ist Wirtschafts-, Hafen- und Konzernzentrum des Doppelplexes. Die Position ist auf den belegten Stadt- oder Teilraum angenähert; eine hausgenaue Lage und eine weitergehende eigene Fließtextbeschreibung sind aus dem zugeordneten Datenmaterial nicht sicher ableitbar.","description_source":"Casablanca","description_kind":"Ortsprofil","description_has_more":true,"detail_plans":[],"alternate_locations":[],"sources":[{"bookId":"sr5-shadows-in-focus-casablanca-rabat","title":"Shadows in Focus - Casablanca-Rabat","edition":"SR5","citation":"Casablanca","purpose":"description"}],"map_sources":[],"editions":["SR5"],"edition_descriptions":{"SR5":{"kind":"Ortsprofil","preview":"Casablanca ist Wirtschafts-, Hafen- und Konzernzentrum des Doppelplexes.","full":"Casablanca ist Wirtschafts-, Hafen- und Konzernzentrum des Doppelplexes. Die Position ist auf den belegten Stadt- oder Teilraum angenähert; eine hausgenaue Lage und eine weitergehende eigene Fließtextbeschreibung sind aus dem zugeordneten Datenmaterial nicht sicher ableitbar.","hasMore":true,"hasExcerpt":true,"sources":[{"bookId":"sr5-shadows-in-focus-casablanca-rabat","title":"Shadows in Focus - Casablanca-Rabat","edition":"SR5","citation":"Casablanca","purpose":"description"}]}}}},{"type":"Feature","geometry":null,"properties":{"id":8,"global_id":"casablanca-rabat:place:8-club-pitt","name":"Club Pitt","aliases":[],"category":"Bars und Clubs","detail_map":"Casablanca","source_pages":"Club Pitt","map_source":"Shadows in Focus - Casablanca-Rabat","placement_note":"Keine belastbare Einzelposition; Eintrag bleibt im Katalog","accuracy":"Nur Stadt oder Lore-Teilraum belegt","source_map":"casablanca-rabat-content","source_panel":"Casablanca","description_preview":"Club Pitt gehört zum Nachtleben des Doppelplexes.","description_full":"Club Pitt gehört zum Nachtleben des Doppelplexes. Die Position ist auf den belegten Stadt- oder Teilraum angenähert; eine hausgenaue Lage und eine weitergehende eigene Fließtextbeschreibung sind aus dem zugeordneten Datenmaterial nicht sicher ableitbar.","description_source":"Club Pitt","description_kind":"Ortsprofil","description_has_more":true,"detail_plans":[],"alternate_locations":[],"sources":[{"bookId":"sr5-shadows-in-focus-casablanca-rabat","title":"Shadows in Focus - Casablanca-Rabat","edition":"SR5","citation":"Club Pitt","purpose":"description"}],"map_sources":[],"editions":["SR5"],"edition_descriptions":{"SR5":{"kind":"Ortsprofil","preview":"Club Pitt gehört zum Nachtleben des Doppelplexes.","full":"Club Pitt gehört zum Nachtleben des Doppelplexes. Die Position ist auf den belegten Stadt- oder Teilraum angenähert; eine hausgenaue Lage und eine weitergehende eigene Fließtextbeschreibung sind aus dem zugeordneten Datenmaterial nicht sicher ableitbar.","hasMore":true,"hasExcerpt":true,"sources":[{"bookId":"sr5-shadows-in-focus-casablanca-rabat","title":"Shadows in Focus - Casablanca-Rabat","edition":"SR5","citation":"Club Pitt","purpose":"description"}]}}}},{"type":"Feature","geometry":{"type":"Point","coordinates":[-7.6327,33.6084]},"properties":{"id":9,"global_id":"casablanca-rabat:place:9-hassan-ii-mosque","name":"Hassan II Mosque","aliases":[],"category":"Religion und Magie","detail_map":"Casablanca","source_pages":"Hassan II Mosque","map_source":"Shadows in Focus - Casablanca-Rabat","placement_note":"Erhaltener geographischer Bezugspunkt","accuracy":"Geographischer Bezugspunkt","source_map":"casablanca-rabat-content","source_panel":"Casablanca","description_preview":"Die große Moschee ist ein religiöses und weithin sichtbares Wahrzeichen.","description_full":"Die große Moschee ist ein religiöses und weithin sichtbares Wahrzeichen. Die Position folgt einem erhaltenen heutigen Bezugspunkt.","description_source":"Hassan II Mosque","description_kind":"Ortsprofil","description_has_more":true,"detail_plans":[],"alternate_locations":[],"sources":[{"bookId":"sr5-shadows-in-focus-casablanca-rabat","title":"Shadows in Focus - Casablanca-Rabat","edition":"SR5","citation":"Hassan II Mosque","purpose":"description"}],"map_sources":[],"editions":["SR5"],"edition_descriptions":{"SR5":{"kind":"Ortsprofil","preview":"Die große Moschee ist ein religiöses und weithin sichtbares Wahrzeichen.","full":"Die große Moschee ist ein religiöses und weithin sichtbares Wahrzeichen. Die Position folgt einem erhaltenen heutigen Bezugspunkt.","hasMore":true,"hasExcerpt":true,"sources":[{"bookId":"sr5-shadows-in-focus-casablanca-rabat","title":"Shadows in Focus - Casablanca-Rabat","edition":"SR5","citation":"Hassan II Mosque","purpose":"description"}]}}}},{"type":"Feature","geometry":{"type":"Point","coordinates":[-6.8227,34.0241]},"properties":{"id":10,"global_id":"casablanca-rabat:place:10-hassan-tower","name":"Hassan Tower","aliases":[],"category":"Sichtseeing und Monumente","detail_map":"Rabat","source_pages":"Hassan Tower","map_source":"Shadows in Focus - Casablanca-Rabat","placement_note":"Erhaltener geographischer Bezugspunkt","accuracy":"Geographischer Bezugspunkt","source_map":"casablanca-rabat-content","source_panel":"Rabat","description_preview":"Der Hassan-Turm ist ein bedeutendes historisches Wahrzeichen Rabats.","description_full":"Der Hassan-Turm ist ein bedeutendes historisches Wahrzeichen Rabats. Die Position folgt einem erhaltenen heutigen Bezugspunkt.","description_source":"Hassan Tower","description_kind":"Ortsprofil","description_has_more":true,"detail_plans":[],"alternate_locations":[],"sources":[{"bookId":"sr5-shadows-in-focus-casablanca-rabat","title":"Shadows in Focus - Casablanca-Rabat","edition":"SR5","citation":"Hassan Tower","purpose":"description"}],"map_sources":[],"editions":["SR5"],"edition_descriptions":{"SR5":{"kind":"Ortsprofil","preview":"Der Hassan-Turm ist ein bedeutendes historisches Wahrzeichen Rabats.","full":"Der Hassan-Turm ist ein bedeutendes historisches Wahrzeichen Rabats. Die Position folgt einem erhaltenen heutigen Bezugspunkt.","hasMore":true,"hasExcerpt":true,"sources":[{"bookId":"sr5-shadows-in-focus-casablanca-rabat","title":"Shadows in Focus - Casablanca-Rabat","edition":"SR5","citation":"Hassan Tower","purpose":"description"}]}}}},{"type":"Feature","geometry":null,"properties":{"id":19,"global_id":"casablanca-rabat:place:19-kenza-skytower","name":"Kenza Skytower","aliases":[],"category":"Konzerne","detail_map":"Casablanca-Rabat","source_pages":"Kenza Skytower","map_source":"Shadows in Focus - Casablanca-Rabat","placement_note":"Keine belastbare Einzelposition; Eintrag bleibt im Katalog","accuracy":"Nur Stadt oder Lore-Teilraum belegt","source_map":"casablanca-rabat-content","source_panel":"Casablanca-Rabat","description_preview":"Kenza gehört zur charakteristischen Hochhauslandschaft.","description_full":"Kenza gehört zur charakteristischen Hochhauslandschaft. Die Position ist auf den belegten Stadt- oder Teilraum angenähert; eine hausgenaue Lage und eine weitergehende eigene Fließtextbeschreibung sind aus dem zugeordneten Datenmaterial nicht sicher ableitbar.","description_source":"Kenza Skytower","description_kind":"Ortsprofil","description_has_more":true,"detail_plans":[],"alternate_locations":[],"sources":[{"bookId":"sr5-shadows-in-focus-casablanca-rabat","title":"Shadows in Focus - Casablanca-Rabat","edition":"SR5","citation":"Kenza Skytower","purpose":"description"}],"map_sources":[],"editions":["SR5"],"edition_descriptions":{"SR5":{"kind":"Ortsprofil","preview":"Kenza gehört zur charakteristischen Hochhauslandschaft.","full":"Kenza gehört zur charakteristischen Hochhauslandschaft. Die Position ist auf den belegten Stadt- oder Teilraum angenähert; eine hausgenaue Lage und eine weitergehende eigene Fließtextbeschreibung sind aus dem zugeordneten Datenmaterial nicht sicher ableitbar.","hasMore":true,"hasExcerpt":true,"sources":[{"bookId":"sr5-shadows-in-focus-casablanca-rabat","title":"Shadows in Focus - Casablanca-Rabat","edition":"SR5","citation":"Kenza Skytower","purpose":"description"}]}}}},{"type":"Feature","geometry":null,"properties":{"id":11,"global_id":"casablanca-rabat:place:11-ketsuni-tower","name":"Ketsuni Tower","aliases":[],"category":"Konzerne","detail_map":"Casablanca","source_pages":"Ketsuni Tower","map_source":"Shadows in Focus - Casablanca-Rabat","placement_note":"Keine belastbare Einzelposition; Eintrag bleibt im Katalog","accuracy":"Nur Stadt oder Lore-Teilraum belegt","source_map":"casablanca-rabat-content","source_panel":"Casablanca","description_preview":"Der Ketsuni Tower ist ein benannter Hochhaus- und Konzernstandort.","description_full":"Der Ketsuni Tower ist ein benannter Hochhaus- und Konzernstandort. Die Position ist auf den belegten Stadt- oder Teilraum angenähert; eine hausgenaue Lage und eine weitergehende eigene Fließtextbeschreibung sind aus dem zugeordneten Datenmaterial nicht sicher ableitbar.","description_source":"Ketsuni Tower","description_kind":"Ortsprofil","description_has_more":true,"detail_plans":[],"alternate_locations":[],"sources":[{"bookId":"sr5-shadows-in-focus-casablanca-rabat","title":"Shadows in Focus - Casablanca-Rabat","edition":"SR5","citation":"Ketsuni Tower","purpose":"description"}],"map_sources":[],"editions":["SR5"],"edition_descriptions":{"SR5":{"kind":"Ortsprofil","preview":"Der Ketsuni Tower ist ein benannter Hochhaus- und Konzernstandort.","full":"Der Ketsuni Tower ist ein benannter Hochhaus- und Konzernstandort. Die Position ist auf den belegten Stadt- oder Teilraum angenähert; eine hausgenaue Lage und eine weitergehende eigene Fließtextbeschreibung sind aus dem zugeordneten Datenmaterial nicht sicher ableitbar.","hasMore":true,"hasExcerpt":true,"sources":[{"bookId":"sr5-shadows-in-focus-casablanca-rabat","title":"Shadows in Focus - Casablanca-Rabat","edition":"SR5","citation":"Ketsuni Tower","purpose":"description"}]}}}},{"type":"Feature","geometry":{"type":"Point","coordinates":[-7.6997,33.5758]},"properties":{"id":12,"global_id":"casablanca-rabat:place:12-morocco-mall","name":"Morocco Mall","aliases":[],"category":"Einkaufen","detail_map":"Casablanca","source_pages":"Morocco Mall","map_source":"Shadows in Focus - Casablanca-Rabat","placement_note":"Erhaltener geographischer Bezugspunkt","accuracy":"Geographischer Bezugspunkt","source_map":"casablanca-rabat-content","source_panel":"Casablanca","description_preview":"Das Einkaufszentrum ist ein großer Handels- und Freizeitkomplex.","description_full":"Das Einkaufszentrum ist ein großer Handels- und Freizeitkomplex. Die Position folgt einem erhaltenen heutigen Bezugspunkt.","description_source":"Morocco Mall","description_kind":"Ortsprofil","description_has_more":true,"detail_plans":[],"alternate_locations":[],"sources":[{"bookId":"sr5-shadows-in-focus-casablanca-rabat","title":"Shadows in Focus - Casablanca-Rabat","edition":"SR5","citation":"Morocco Mall","purpose":"description"}],"map_sources":[],"editions":["SR5"],"edition_descriptions":{"SR5":{"kind":"Ortsprofil","preview":"Das Einkaufszentrum ist ein großer Handels- und Freizeitkomplex.","full":"Das Einkaufszentrum ist ein großer Handels- und Freizeitkomplex. Die Position folgt einem erhaltenen heutigen Bezugspunkt.","hasMore":true,"hasExcerpt":true,"sources":[{"bookId":"sr5-shadows-in-focus-casablanca-rabat","title":"Shadows in Focus - Casablanca-Rabat","edition":"SR5","citation":"Morocco Mall","purpose":"description"}]}}}},{"type":"Feature","geometry":{"type":"Point","coordinates":[-7.615,33.575]},"properties":{"id":4,"global_id":"casablanca-rabat:place:4-new-medina","name":"New Medina","aliases":[],"category":"Bezirke","detail_map":"New Medina","source_pages":"New Medina","map_source":"Shadows in Focus - Casablanca-Rabat","placement_note":"Geografischer Bezugspunkt des Lore-Distrikts New Medina","accuracy":"Lore-Bezirkszentrum; Grenzpolygon noch nicht georeferenziert","source_map":"casablanca-rabat-content","source_panel":"New Medina","description_preview":"New Medina verbindet dichte Wohn-, Handels- und Kulturräume.","description_full":"New Medina verbindet dichte Wohn-, Handels- und Kulturräume. Die Position ist auf den belegten Stadt- oder Teilraum angenähert; eine hausgenaue Lage und eine weitergehende eigene Fließtextbeschreibung sind aus dem zugeordneten Datenmaterial nicht sicher ableitbar.","description_source":"New Medina","description_kind":"Ortsprofil","description_has_more":true,"detail_plans":[],"alternate_locations":[],"sources":[{"bookId":"sr5-shadows-in-focus-casablanca-rabat","title":"Shadows in Focus - Casablanca-Rabat","edition":"SR5","citation":"New Medina","purpose":"description"}],"map_sources":[],"editions":["SR5"],"edition_descriptions":{"SR5":{"kind":"Ortsprofil","preview":"New Medina verbindet dichte Wohn-, Handels- und Kulturräume.","full":"New Medina verbindet dichte Wohn-, Handels- und Kulturräume. Die Position ist auf den belegten Stadt- oder Teilraum angenähert; eine hausgenaue Lage und eine weitergehende eigene Fließtextbeschreibung sind aus dem zugeordneten Datenmaterial nicht sicher ableitbar.","hasMore":true,"hasExcerpt":true,"sources":[{"bookId":"sr5-shadows-in-focus-casablanca-rabat","title":"Shadows in Focus - Casablanca-Rabat","edition":"SR5","citation":"New Medina","purpose":"description"}]}}}},{"type":"Feature","geometry":{"type":"Point","coordinates":[-6.8416,34.0209]},"properties":{"id":2,"global_id":"casablanca-rabat:place:2-rabat","name":"Rabat","aliases":[],"category":"Bezirke","detail_map":"Rabat","source_pages":"Rabat","map_source":"Shadows in Focus - Casablanca-Rabat","placement_note":"Geografischer Bezugspunkt des Lore-Distrikts Rabat","accuracy":"Lore-Bezirkszentrum; Grenzpolygon noch nicht georeferenziert","source_map":"casablanca-rabat-content","source_panel":"Rabat","description_preview":"Rabat bildet den politischen, diplomatischen und königlichen Schwerpunkt.","description_full":"Rabat bildet den politischen, diplomatischen und königlichen Schwerpunkt. Die Position ist auf den belegten Stadt- oder Teilraum angenähert; eine hausgenaue Lage und eine weitergehende eigene Fließtextbeschreibung sind aus dem zugeordneten Datenmaterial nicht sicher ableitbar.","description_source":"Rabat","description_kind":"Ortsprofil","description_has_more":true,"detail_plans":[],"alternate_locations":[],"sources":[{"bookId":"sr5-shadows-in-focus-casablanca-rabat","title":"Shadows in Focus - Casablanca-Rabat","edition":"SR5","citation":"Rabat","purpose":"description"}],"map_sources":[],"editions":["SR5"],"edition_descriptions":{"SR5":{"kind":"Ortsprofil","preview":"Rabat bildet den politischen, diplomatischen und königlichen Schwerpunkt.","full":"Rabat bildet den politischen, diplomatischen und königlichen Schwerpunkt. Die Position ist auf den belegten Stadt- oder Teilraum angenähert; eine hausgenaue Lage und eine weitergehende eigene Fließtextbeschreibung sind aus dem zugeordneten Datenmaterial nicht sicher ableitbar.","hasMore":true,"hasExcerpt":true,"sources":[{"bookId":"sr5-shadows-in-focus-casablanca-rabat","title":"Shadows in Focus - Casablanca-Rabat","edition":"SR5","citation":"Rabat","purpose":"description"}]}}}},{"type":"Feature","geometry":{"type":"Point","coordinates":[-6.7515,34.0515]},"properties":{"id":13,"global_id":"casablanca-rabat:place:13-rabat-international-airport","name":"Rabat International Airport","aliases":[],"category":"Verkehr","detail_map":"Rabat","source_pages":"Rabat International Airport","map_source":"Shadows in Focus - Casablanca-Rabat","placement_note":"Erhaltener geographischer Bezugspunkt","accuracy":"Geographischer Bezugspunkt","source_map":"casablanca-rabat-content","source_panel":"Rabat","description_preview":"Der internationale Flughafen ist ein Hauptzugang des nördlichen Plexes.","description_full":"Der internationale Flughafen ist ein Hauptzugang des nördlichen Plexes. Die Position folgt einem erhaltenen heutigen Bezugspunkt.","description_source":"Rabat International Airport","description_kind":"Ortsprofil","description_has_more":true,"detail_plans":[],"alternate_locations":[],"sources":[{"bookId":"sr5-shadows-in-focus-casablanca-rabat","title":"Shadows in Focus - Casablanca-Rabat","edition":"SR5","citation":"Rabat International Airport","purpose":"description"}],"map_sources":[],"editions":["SR5"],"edition_descriptions":{"SR5":{"kind":"Ortsprofil","preview":"Der internationale Flughafen ist ein Hauptzugang des nördlichen Plexes.","full":"Der internationale Flughafen ist ein Hauptzugang des nördlichen Plexes. Die Position folgt einem erhaltenen heutigen Bezugspunkt.","hasMore":true,"hasExcerpt":true,"sources":[{"bookId":"sr5-shadows-in-focus-casablanca-rabat","title":"Shadows in Focus - Casablanca-Rabat","edition":"SR5","citation":"Rabat International Airport","purpose":"description"}]}}}},{"type":"Feature","geometry":null,"properties":{"id":20,"global_id":"casablanca-rabat:place:20-red-minaret-of-mohammed-vi","name":"Red Minaret of Mohammed VI","aliases":[],"category":"Religion und Magie","detail_map":"Rabat","source_pages":"Red Minaret of Mohammed VI","map_source":"Shadows in Focus - Casablanca-Rabat","placement_note":"Keine belastbare Einzelposition; Eintrag bleibt im Katalog","accuracy":"Nur Stadt oder Lore-Teilraum belegt","source_map":"casablanca-rabat-content","source_panel":"Rabat","description_preview":"Das rote Minarett ist ein markantes religiös-politisches Wahrzeichen.","description_full":"Das rote Minarett ist ein markantes religiös-politisches Wahrzeichen. Die Position ist auf den belegten Stadt- oder Teilraum angenähert; eine hausgenaue Lage und eine weitergehende eigene Fließtextbeschreibung sind aus dem zugeordneten Datenmaterial nicht sicher ableitbar.","description_source":"Red Minaret of Mohammed VI","description_kind":"Ortsprofil","description_has_more":true,"detail_plans":[],"alternate_locations":[],"sources":[{"bookId":"sr5-shadows-in-focus-casablanca-rabat","title":"Shadows in Focus - Casablanca-Rabat","edition":"SR5","citation":"Red Minaret of Mohammed VI","purpose":"description"}],"map_sources":[],"editions":["SR5"],"edition_descriptions":{"SR5":{"kind":"Ortsprofil","preview":"Das rote Minarett ist ein markantes religiös-politisches Wahrzeichen.","full":"Das rote Minarett ist ein markantes religiös-politisches Wahrzeichen. Die Position ist auf den belegten Stadt- oder Teilraum angenähert; eine hausgenaue Lage und eine weitergehende eigene Fließtextbeschreibung sind aus dem zugeordneten Datenmaterial nicht sicher ableitbar.","hasMore":true,"hasExcerpt":true,"sources":[{"bookId":"sr5-shadows-in-focus-casablanca-rabat","title":"Shadows in Focus - Casablanca-Rabat","edition":"SR5","citation":"Red Minaret of Mohammed VI","purpose":"description"}]}}}},{"type":"Feature","geometry":{"type":"Point","coordinates":[-7.62,33.6068]},"properties":{"id":14,"global_id":"casablanca-rabat:place:14-ricks-cafe","name":"Rick’s Café","aliases":[],"category":"Restaurants","detail_map":"Casablanca","source_pages":"Rick’s Café","map_source":"Shadows in Focus - Casablanca-Rabat","placement_note":"Erhaltener geographischer Bezugspunkt","accuracy":"Geographischer Bezugspunkt","source_map":"casablanca-rabat-content","source_panel":"Casablanca","description_preview":"Rick’s Café ist ein traditionsbewusster Gastronomie- und Treffpunkt.","description_full":"Rick’s Café ist ein traditionsbewusster Gastronomie- und Treffpunkt. Die Position folgt einem erhaltenen heutigen Bezugspunkt.","description_source":"Rick’s Café","description_kind":"Ortsprofil","description_has_more":true,"detail_plans":[],"alternate_locations":[],"sources":[{"bookId":"sr5-shadows-in-focus-casablanca-rabat","title":"Shadows in Focus - Casablanca-Rabat","edition":"SR5","citation":"Rick’s Café","purpose":"description"}],"map_sources":[],"editions":["SR5"],"edition_descriptions":{"SR5":{"kind":"Ortsprofil","preview":"Rick’s Café ist ein traditionsbewusster Gastronomie- und Treffpunkt.","full":"Rick’s Café ist ein traditionsbewusster Gastronomie- und Treffpunkt. Die Position folgt einem erhaltenen heutigen Bezugspunkt.","hasMore":true,"hasExcerpt":true,"sources":[{"bookId":"sr5-shadows-in-focus-casablanca-rabat","title":"Shadows in Focus - Casablanca-Rabat","edition":"SR5","citation":"Rick’s Café","purpose":"description"}]}}}},{"type":"Feature","geometry":null,"properties":{"id":15,"global_id":"casablanca-rabat:place:15-shady-ass-cafe","name":"Shady-Ass Café","aliases":[],"category":"Bars und Kneipen","detail_map":"Casablanca","source_pages":"Shady-Ass Café","map_source":"Shadows in Focus - Casablanca-Rabat","placement_note":"Keine belastbare Einzelposition; Eintrag bleibt im Katalog","accuracy":"Nur Stadt oder Lore-Teilraum belegt","source_map":"casablanca-rabat-content","source_panel":"Casablanca","description_preview":"Das Café ist ein deutlich schattennaher Kontaktort.","description_full":"Das Café ist ein deutlich schattennaher Kontaktort. Die Position ist auf den belegten Stadt- oder Teilraum angenähert; eine hausgenaue Lage und eine weitergehende eigene Fließtextbeschreibung sind aus dem zugeordneten Datenmaterial nicht sicher ableitbar.","description_source":"Shady-Ass Café","description_kind":"Ortsprofil","description_has_more":true,"detail_plans":[],"alternate_locations":[],"sources":[{"bookId":"sr5-shadows-in-focus-casablanca-rabat","title":"Shadows in Focus - Casablanca-Rabat","edition":"SR5","citation":"Shady-Ass Café","purpose":"description"}],"map_sources":[],"editions":["SR5"],"edition_descriptions":{"SR5":{"kind":"Ortsprofil","preview":"Das Café ist ein deutlich schattennaher Kontaktort.","full":"Das Café ist ein deutlich schattennaher Kontaktort. Die Position ist auf den belegten Stadt- oder Teilraum angenähert; eine hausgenaue Lage und eine weitergehende eigene Fließtextbeschreibung sind aus dem zugeordneten Datenmaterial nicht sicher ableitbar.","hasMore":true,"hasExcerpt":true,"sources":[{"bookId":"sr5-shadows-in-focus-casablanca-rabat","title":"Shadows in Focus - Casablanca-Rabat","edition":"SR5","citation":"Shady-Ass Café","purpose":"description"}]}}}},{"type":"Feature","geometry":null,"properties":{"id":16,"global_id":"casablanca-rabat:place:16-souk-derb-ghallef","name":"Souk Derb Ghallef","aliases":[],"category":"Einkaufen","detail_map":"Casablanca","source_pages":"Souk Derb Ghallef","map_source":"Shadows in Focus - Casablanca-Rabat","placement_note":"Keine belastbare Einzelposition; Eintrag bleibt im Katalog","accuracy":"Nur Stadt oder Lore-Teilraum belegt","source_map":"casablanca-rabat-content","source_panel":"Casablanca","description_preview":"Der Souk ist ein bedeutender Markt für Elektronik, Reparaturen und graue Waren.","description_full":"Der Souk ist ein bedeutender Markt für Elektronik, Reparaturen und graue Waren. Die Position ist auf den belegten Stadt- oder Teilraum angenähert; eine hausgenaue Lage und eine weitergehende eigene Fließtextbeschreibung sind aus dem zugeordneten Datenmaterial nicht sicher ableitbar.","description_source":"Souk Derb Ghallef","description_kind":"Ortsprofil","description_has_more":true,"detail_plans":[],"alternate_locations":[],"sources":[{"bookId":"sr5-shadows-in-focus-casablanca-rabat","title":"Shadows in Focus - Casablanca-Rabat","edition":"SR5","citation":"Souk Derb Ghallef","purpose":"description"}],"map_sources":[],"editions":["SR5"],"edition_descriptions":{"SR5":{"kind":"Ortsprofil","preview":"Der Souk ist ein bedeutender Markt für Elektronik, Reparaturen und graue Waren.","full":"Der Souk ist ein bedeutender Markt für Elektronik, Reparaturen und graue Waren. Die Position ist auf den belegten Stadt- oder Teilraum angenähert; eine hausgenaue Lage und eine weitergehende eigene Fließtextbeschreibung sind aus dem zugeordneten Datenmaterial nicht sicher ableitbar.","hasMore":true,"hasExcerpt":true,"sources":[{"bookId":"sr5-shadows-in-focus-casablanca-rabat","title":"Shadows in Focus - Casablanca-Rabat","edition":"SR5","citation":"Souk Derb Ghallef","purpose":"description"}]}}}},{"type":"Feature","geometry":{"type":"Point","coordinates":[-6.906,33.927]},"properties":{"id":5,"global_id":"casablanca-rabat:place:5-temara-barrens","name":"Temara Barrens","aliases":[],"category":"Bezirke","detail_map":"Temara Barrens","source_pages":"Temara Barrens","map_source":"Shadows in Focus - Casablanca-Rabat","placement_note":"Geografischer Bezugspunkt des Lore-Distrikts Temara Barrens","accuracy":"Lore-Bezirkszentrum; Grenzpolygon noch nicht georeferenziert","source_map":"casablanca-rabat-content","source_panel":"Temara Barrens","description_preview":"Die Temara Barrens sind ein prekärer und schwach kontrollierter Randraum zwischen den Zentren.","description_full":"Die Temara Barrens sind ein prekärer und schwach kontrollierter Randraum zwischen den Zentren. Die Position ist auf den belegten Stadt- oder Teilraum angenähert; eine hausgenaue Lage und eine weitergehende eigene Fließtextbeschreibung sind aus dem zugeordneten Datenmaterial nicht sicher ableitbar.","description_source":"Temara Barrens","description_kind":"Ortsprofil","description_has_more":true,"detail_plans":[],"alternate_locations":[],"sources":[{"bookId":"sr5-shadows-in-focus-casablanca-rabat","title":"Shadows in Focus - Casablanca-Rabat","edition":"SR5","citation":"Temara Barrens","purpose":"description"}],"map_sources":[],"editions":["SR5"],"edition_descriptions":{"SR5":{"kind":"Ortsprofil","preview":"Die Temara Barrens sind ein prekärer und schwach kontrollierter Randraum zwischen den Zentren.","full":"Die Temara Barrens sind ein prekärer und schwach kontrollierter Randraum zwischen den Zentren. Die Position ist auf den belegten Stadt- oder Teilraum angenähert; eine hausgenaue Lage und eine weitergehende eigene Fließtextbeschreibung sind aus dem zugeordneten Datenmaterial nicht sicher ableitbar.","hasMore":true,"hasExcerpt":true,"sources":[{"bookId":"sr5-shadows-in-focus-casablanca-rabat","title":"Shadows in Focus - Casablanca-Rabat","edition":"SR5","citation":"Temara Barrens","purpose":"description"}]}}}},{"type":"Feature","geometry":null,"properties":{"id":17,"global_id":"casablanca-rabat:place:17-temple-beth-el-synagogue","name":"Temple Beth-El Synagogue","aliases":[],"category":"Religion und Magie","detail_map":"Casablanca","source_pages":"Temple Beth El Synagogue","map_source":"Shadows in Focus - Morocco","placement_note":"Keine belastbare Einzelposition; Eintrag bleibt im Katalog","accuracy":"Nur Stadt oder Lore-Teilraum belegt","source_map":"casablanca-rabat-content","source_panel":"Casablanca","description_preview":"Die Synagoge ist ein historischer religiöser Standort.","description_full":"Die Synagoge ist ein historischer religiöser Standort. Die Position ist auf den belegten Stadt- oder Teilraum angenähert; eine hausgenaue Lage und eine weitergehende eigene Fließtextbeschreibung sind aus dem zugeordneten Datenmaterial nicht sicher ableitbar.","description_source":"Temple Beth El Synagogue","description_kind":"Ortsprofil","description_has_more":true,"detail_plans":[],"alternate_locations":[],"sources":[{"bookId":"sr5-shadows-in-focus-morocco","title":"Shadows in Focus - Morocco","edition":"SR5","citation":"Temple Beth El Synagogue","purpose":"description"}],"map_sources":[],"editions":["SR5"],"edition_descriptions":{"SR5":{"kind":"Ortsprofil","preview":"Die Synagoge ist ein historischer religiöser Standort.","full":"Die Synagoge ist ein historischer religiöser Standort. Die Position ist auf den belegten Stadt- oder Teilraum angenähert; eine hausgenaue Lage und eine weitergehende eigene Fließtextbeschreibung sind aus dem zugeordneten Datenmaterial nicht sicher ableitbar.","hasMore":true,"hasExcerpt":true,"sources":[{"bookId":"sr5-shadows-in-focus-morocco","title":"Shadows in Focus - Morocco","edition":"SR5","citation":"Temple Beth El Synagogue","purpose":"description"}]}}}},{"type":"Feature","geometry":{"type":"Point","coordinates":[-7.665,33.598]},"properties":{"id":6,"global_id":"casablanca-rabat:place:6-the-corniche","name":"The Corniche","aliases":[],"category":"Bezirke","detail_map":"The Corniche","source_pages":"The Corniche","map_source":"Shadows in Focus - Casablanca-Rabat","placement_note":"Geografischer Bezugspunkt des Lore-Distrikts The Corniche","accuracy":"Lore-Bezirkszentrum; Grenzpolygon noch nicht georeferenziert","source_map":"casablanca-rabat-content","source_panel":"The Corniche","description_preview":"Die Corniche ist Casablancas Küsten-, Hotel- und Vergnügungsstreifen.","description_full":"Die Corniche ist Casablancas Küsten-, Hotel- und Vergnügungsstreifen. Die Position ist auf den belegten Stadt- oder Teilraum angenähert; eine hausgenaue Lage und eine weitergehende eigene Fließtextbeschreibung sind aus dem zugeordneten Datenmaterial nicht sicher ableitbar.","description_source":"The Corniche","description_kind":"Ortsprofil","description_has_more":true,"detail_plans":[],"alternate_locations":[],"sources":[{"bookId":"sr5-shadows-in-focus-casablanca-rabat","title":"Shadows in Focus - Casablanca-Rabat","edition":"SR5","citation":"The Corniche","purpose":"description"}],"map_sources":[],"editions":["SR5"],"edition_descriptions":{"SR5":{"kind":"Ortsprofil","preview":"Die Corniche ist Casablancas Küsten-, Hotel- und Vergnügungsstreifen.","full":"Die Corniche ist Casablancas Küsten-, Hotel- und Vergnügungsstreifen. Die Position ist auf den belegten Stadt- oder Teilraum angenähert; eine hausgenaue Lage und eine weitergehende eigene Fließtextbeschreibung sind aus dem zugeordneten Datenmaterial nicht sicher ableitbar.","hasMore":true,"hasExcerpt":true,"sources":[{"bookId":"sr5-shadows-in-focus-casablanca-rabat","title":"Shadows in Focus - Casablanca-Rabat","edition":"SR5","citation":"The Corniche","purpose":"description"}]}}}}]}
