{"type":"FeatureCollection","name":"Casablanca-Rabat – geprüfte zusätzliche Quellenorte","features":[{"type":"Feature","geometry":null,"properties":{"id":21,"global_id":"casablanca-rabat:source-place:souk-derb-ghallef-shop","name":"Souk Derb Ghallef Shop","aliases":[],"category":"Sonstige Spots","detail_map":"Casablanca-Rabat","source_pages":"Textzeile 2808","map_source":"Shadows in Focus - Casablanca-Rabat","placement_note":"Keine belastbare Einzelposition; Eintrag bleibt im Katalog","accuracy":"Nur Stadt oder Lore-Teilraum belegt","source_map":"source-supplement","source_panel":"Casablanca-Rabat","description_preview":"Souk Derb Ghallef Shop ist in Shadows in Focus - Casablanca-Rabat als benannter Schauplatz mit Bezug zu Casablanca-Rabat belegt.","description_full":"Souk Derb Ghallef Shop ist in Shadows in Focus - Casablanca-Rabat als benannter Schauplatz mit Bezug zu Casablanca-Rabat belegt. Das Dossier fasst den belegten Quellenstand redaktionell zusammen; eine nicht belegte Kartenposition wird nicht ergänzt.","description_source":"Textzeile 2808","description_kind":"Ortsdossier","description_has_more":true,"detail_plans":[],"alternate_locations":[],"sources":[{"bookId":"sr5-shadows-in-focus-casablanca-rabat","title":"Shadows in Focus - Casablanca-Rabat","edition":"SR5","citation":"Textzeile 2808","purpose":"description"}],"map_sources":[],"editions":["SR5"],"edition_descriptions":{"SR5":{"kind":"Ortsdossier","preview":"Souk Derb Ghallef Shop ist in Shadows in Focus - Casablanca-Rabat als benannter Schauplatz mit Bezug zu Casablanca-Rabat belegt.","full":"Souk Derb Ghallef Shop ist in Shadows in Focus - Casablanca-Rabat als benannter Schauplatz mit Bezug zu Casablanca-Rabat belegt. Das Dossier fasst den belegten Quellenstand redaktionell zusammen; eine nicht belegte Kartenposition wird nicht ergänzt.","hasMore":true,"hasExcerpt":true,"sources":[{"bookId":"sr5-shadows-in-focus-casablanca-rabat","title":"Shadows in Focus - Casablanca-Rabat","edition":"SR5","citation":"Textzeile 2808","purpose":"description"}]}}}}]}
