{"type":"FeatureCollection","name":"Bogotá Orte","features":[{"type":"Feature","geometry":null,"properties":{"id":5,"global_id":"bogota:place:5-aztechnology-business-complex","name":"Aztechnology Business Complex","aliases":[],"category":"Konzerne","detail_map":"Bogotá","source_pages":"Aztechnology Business Complex","map_source":"War","placement_note":"Keine belastbare Einzelposition; Eintrag bleibt im Katalog","accuracy":"Nur Stadt oder Lore-Teilraum belegt","source_map":"bogota-content","source_panel":"Bogotá","description_preview":"Der Aztechnology Business Complex ist ein befestigter Konzernstandort in der umkämpften Stadt.","description_full":"Der Aztechnology Business Complex ist ein befestigter Konzernstandort in der umkämpften Stadt. Die Position ist auf den belegten Stadt- oder Teilraum angenähert; eine hausgenaue Lage und eine weitergehende eigene Fließtextbeschreibung sind aus dem zugeordneten Datenmaterial nicht sicher ableitbar.","description_source":"Aztechnology Business Complex","description_kind":"Ortsprofil","description_has_more":true,"detail_plans":[],"alternate_locations":[],"sources":[{"bookId":"sr4-war","title":"War","edition":"SR4","citation":"Aztechnology Business Complex","purpose":"description"}],"map_sources":[],"editions":["SR4"],"edition_descriptions":{"SR4":{"kind":"Ortsprofil","preview":"Der Aztechnology Business Complex ist ein befestigter Konzernstandort in der umkämpften Stadt.","full":"Der Aztechnology Business Complex ist ein befestigter Konzernstandort in der umkämpften Stadt. Die Position ist auf den belegten Stadt- oder Teilraum angenähert; eine hausgenaue Lage und eine weitergehende eigene Fließtextbeschreibung sind aus dem zugeordneten Datenmaterial nicht sicher ableitbar.","hasMore":true,"hasExcerpt":true,"sources":[{"bookId":"sr4-war","title":"War","edition":"SR4","citation":"Aztechnology Business Complex","purpose":"description"}]}}}},{"type":"Feature","geometry":null,"properties":{"id":6,"global_id":"bogota:place:6-aztechnology-castillos","name":"Aztechnology Castillos","aliases":[],"category":"Konzerne","detail_map":"Bogotá","source_pages":"Aztechnology Castillos","map_source":"War","placement_note":"Keine belastbare Einzelposition; Eintrag bleibt im Katalog","accuracy":"Nur Stadt oder Lore-Teilraum belegt","source_map":"bogota-content","source_panel":"Bogotá","description_preview":"Die Castillos sind gesicherte Aztechnology-Anlagen im Bogotá-Kriegsraum.","description_full":"Die Castillos sind gesicherte Aztechnology-Anlagen im Bogotá-Kriegsraum. Die Position ist auf den belegten Stadt- oder Teilraum angenähert; eine hausgenaue Lage und eine weitergehende eigene Fließtextbeschreibung sind aus dem zugeordneten Datenmaterial nicht sicher ableitbar.","description_source":"Aztechnology Castillos","description_kind":"Ortsprofil","description_has_more":true,"detail_plans":[],"alternate_locations":[],"sources":[{"bookId":"sr4-war","title":"War","edition":"SR4","citation":"Aztechnology Castillos","purpose":"description"}],"map_sources":[],"editions":["SR4"],"edition_descriptions":{"SR4":{"kind":"Ortsprofil","preview":"Die Castillos sind gesicherte Aztechnology-Anlagen im Bogotá-Kriegsraum.","full":"Die Castillos sind gesicherte Aztechnology-Anlagen im Bogotá-Kriegsraum. Die Position ist auf den belegten Stadt- oder Teilraum angenähert; eine hausgenaue Lage und eine weitergehende eigene Fließtextbeschreibung sind aus dem zugeordneten Datenmaterial nicht sicher ableitbar.","hasMore":true,"hasExcerpt":true,"sources":[{"bookId":"sr4-war","title":"War","edition":"SR4","citation":"Aztechnology Castillos","purpose":"description"}]}}}},{"type":"Feature","geometry":null,"properties":{"id":7,"global_id":"bogota:place:7-bogota-natural-gas-power-plant","name":"Bogotá Natural Gas Power Plant","aliases":[],"category":"Infrastruktur","detail_map":"Bogotá","source_pages":"Bogotá Natural Gas Power Plant","map_source":"War","placement_note":"Keine belastbare Einzelposition; Eintrag bleibt im Katalog","accuracy":"Nur Stadt oder Lore-Teilraum belegt","source_map":"bogota-content","source_panel":"Bogotá","description_preview":"Das Erdgaskraftwerk ist ein strategischer Infrastrukturstandort.","description_full":"Das Erdgaskraftwerk ist ein strategischer Infrastrukturstandort. Die Position ist auf den belegten Stadt- oder Teilraum angenähert; eine hausgenaue Lage und eine weitergehende eigene Fließtextbeschreibung sind aus dem zugeordneten Datenmaterial nicht sicher ableitbar.","description_source":"Bogotá Natural Gas Power Plant","description_kind":"Ortsprofil","description_has_more":true,"detail_plans":[],"alternate_locations":[],"sources":[{"bookId":"sr4-war","title":"War","edition":"SR4","citation":"Bogotá Natural Gas Power Plant","purpose":"description"}],"map_sources":[],"editions":["SR4"],"edition_descriptions":{"SR4":{"kind":"Ortsprofil","preview":"Das Erdgaskraftwerk ist ein strategischer Infrastrukturstandort.","full":"Das Erdgaskraftwerk ist ein strategischer Infrastrukturstandort. Die Position ist auf den belegten Stadt- oder Teilraum angenähert; eine hausgenaue Lage und eine weitergehende eigene Fließtextbeschreibung sind aus dem zugeordneten Datenmaterial nicht sicher ableitbar.","hasMore":true,"hasExcerpt":true,"sources":[{"bookId":"sr4-war","title":"War","edition":"SR4","citation":"Bogotá Natural Gas Power Plant","purpose":"description"}]}}}},{"type":"Feature","geometry":{"type":"Point","coordinates":[-74.072,4.711]},"properties":{"id":1,"global_id":"bogota:place:1-bogota-war-zone","name":"Bogotá War Zone","aliases":[],"category":"Bezirke","detail_map":"Bogotá War Zone","source_pages":"Kapitel Bogotá","map_source":"War","placement_note":"Geografischer Bezugspunkt des Lore-Distrikts Bogotá War Zone","accuracy":"Lore-Bezirkszentrum; Grenzpolygon noch nicht georeferenziert","source_map":"bogota-content","source_panel":"Bogotá War Zone","description_preview":"Der Großraum ist von Frontverläufen, befestigten Zonen und wechselnder Kontrolle geprägt.","description_full":"Der Großraum ist von Frontverläufen, befestigten Zonen und wechselnder Kontrolle geprägt. Die Position ist auf den belegten Stadt- oder Teilraum angenähert; eine hausgenaue Lage und eine weitergehende eigene Fließtextbeschreibung sind aus dem zugeordneten Datenmaterial nicht sicher ableitbar.","description_source":"Kapitel Bogotá","description_kind":"Ortsprofil","description_has_more":true,"detail_plans":[],"alternate_locations":[],"sources":[{"bookId":"sr4-war","title":"War","edition":"SR4","citation":"Kapitel Bogotá","purpose":"description"}],"map_sources":[],"editions":["SR4"],"edition_descriptions":{"SR4":{"kind":"Ortsprofil","preview":"Der Großraum ist von Frontverläufen, befestigten Zonen und wechselnder Kontrolle geprägt.","full":"Der Großraum ist von Frontverläufen, befestigten Zonen und wechselnder Kontrolle geprägt. Die Position ist auf den belegten Stadt- oder Teilraum angenähert; eine hausgenaue Lage und eine weitergehende eigene Fließtextbeschreibung sind aus dem zugeordneten Datenmaterial nicht sicher ableitbar.","hasMore":true,"hasExcerpt":true,"sources":[{"bookId":"sr4-war","title":"War","edition":"SR4","citation":"Kapitel Bogotá","purpose":"description"}]}}}},{"type":"Feature","geometry":{"type":"Point","coordinates":[-74.076,4.598]},"properties":{"id":2,"global_id":"bogota:place:2-capitolio-nacional","name":"Capitolio Nacional","aliases":[],"category":"Behörden","detail_map":"Bogotá","source_pages":"Capitolio National","map_source":"War","placement_note":"Erhaltener geographischer Bezugspunkt","accuracy":"Geographischer Bezugspunkt","source_map":"bogota-content","source_panel":"Bogotá","description_preview":"Das Capitolio Nacional ist ein zentraler politischer und militärischer Bezugspunkt.","description_full":"Das Capitolio Nacional ist ein zentraler politischer und militärischer Bezugspunkt. Die Position folgt einem erhaltenen heutigen Bezugspunkt.","description_source":"Capitolio National","description_kind":"Ortsprofil","description_has_more":true,"detail_plans":[],"alternate_locations":[],"sources":[{"bookId":"sr4-war","title":"War","edition":"SR4","citation":"Capitolio National","purpose":"description"}],"map_sources":[],"editions":["SR4"],"edition_descriptions":{"SR4":{"kind":"Ortsprofil","preview":"Das Capitolio Nacional ist ein zentraler politischer und militärischer Bezugspunkt.","full":"Das Capitolio Nacional ist ein zentraler politischer und militärischer Bezugspunkt. Die Position folgt einem erhaltenen heutigen Bezugspunkt.","hasMore":true,"hasExcerpt":true,"sources":[{"bookId":"sr4-war","title":"War","edition":"SR4","citation":"Capitolio National","purpose":"description"}]}}}},{"type":"Feature","geometry":{"type":"Point","coordinates":[-74.1469,4.7016]},"properties":{"id":8,"global_id":"bogota:place:8-el-dorado-airport","name":"El Dorado Airport","aliases":[],"category":"Verkehr","detail_map":"Bogotá","source_pages":"El Dorado Airport","map_source":"War","placement_note":"Erhaltener geographischer Bezugspunkt","accuracy":"Geographischer Bezugspunkt","source_map":"bogota-content","source_panel":"Bogotá","description_preview":"El Dorado ist der wichtigste internationale Flughafen und ein strategischer Zugang zur Stadt.","description_full":"El Dorado ist der wichtigste internationale Flughafen und ein strategischer Zugang zur Stadt. Die Position folgt einem erhaltenen heutigen Bezugspunkt.","description_source":"El Dorado Airport","description_kind":"Ortsprofil","description_has_more":true,"detail_plans":[],"alternate_locations":[],"sources":[{"bookId":"sr4-war","title":"War","edition":"SR4","citation":"El Dorado Airport","purpose":"description"}],"map_sources":[],"editions":["SR4"],"edition_descriptions":{"SR4":{"kind":"Ortsprofil","preview":"El Dorado ist der wichtigste internationale Flughafen und ein strategischer Zugang zur Stadt.","full":"El Dorado ist der wichtigste internationale Flughafen und ein strategischer Zugang zur Stadt. Die Position folgt einem erhaltenen heutigen Bezugspunkt.","hasMore":true,"hasExcerpt":true,"sources":[{"bookId":"sr4-war","title":"War","edition":"SR4","citation":"El Dorado Airport","purpose":"description"}]}}}},{"type":"Feature","geometry":null,"properties":{"id":3,"global_id":"bogota:place:3-el-hotel-del-eldorado","name":"El Hotel del Eldorado","aliases":[],"category":"Hotels","detail_map":"Bogotá","source_pages":"El Hotel del Eldorado","map_source":"War","placement_note":"Keine belastbare Einzelposition; Eintrag bleibt im Katalog","accuracy":"Nur Stadt oder Lore-Teilraum belegt","source_map":"bogota-content","source_panel":"Bogotá","description_preview":"Das Hotel del Eldorado ist ein im Kriegsquellenband belegter Schauplatz.","description_full":"Das Hotel del Eldorado ist ein im Kriegsquellenband belegter Schauplatz. Die Position ist auf den belegten Stadt- oder Teilraum angenähert; eine hausgenaue Lage und eine weitergehende eigene Fließtextbeschreibung sind aus dem zugeordneten Datenmaterial nicht sicher ableitbar.","description_source":"El Hotel del Eldorado","description_kind":"Ortsprofil","description_has_more":true,"detail_plans":[],"alternate_locations":[],"sources":[{"bookId":"sr4-war","title":"War","edition":"SR4","citation":"El Hotel del Eldorado","purpose":"description"}],"map_sources":[],"editions":["SR4"],"edition_descriptions":{"SR4":{"kind":"Ortsprofil","preview":"Das Hotel del Eldorado ist ein im Kriegsquellenband belegter Schauplatz.","full":"Das Hotel del Eldorado ist ein im Kriegsquellenband belegter Schauplatz. Die Position ist auf den belegten Stadt- oder Teilraum angenähert; eine hausgenaue Lage und eine weitergehende eigene Fließtextbeschreibung sind aus dem zugeordneten Datenmaterial nicht sicher ableitbar.","hasMore":true,"hasExcerpt":true,"sources":[{"bookId":"sr4-war","title":"War","edition":"SR4","citation":"El Hotel del Eldorado","purpose":"description"}]}}}},{"type":"Feature","geometry":null,"properties":{"id":9,"global_id":"bogota:place:9-guaymaral-airport","name":"Guaymaral Airport","aliases":[],"category":"Verkehr","detail_map":"Bogotá","source_pages":"Guaymaral Airport","map_source":"War","placement_note":"Keine belastbare Einzelposition; Eintrag bleibt im Katalog","accuracy":"Nur Stadt oder Lore-Teilraum belegt","source_map":"bogota-content","source_panel":"Bogotá","description_preview":"Der nördliche Flughafen Guaymaral ist ein weiterer taktisch wichtiger Luftverkehrsstandort.","description_full":"Der nördliche Flughafen Guaymaral ist ein weiterer taktisch wichtiger Luftverkehrsstandort. Die Position ist auf den belegten Stadt- oder Teilraum angenähert; eine hausgenaue Lage und eine weitergehende eigene Fließtextbeschreibung sind aus dem zugeordneten Datenmaterial nicht sicher ableitbar.","description_source":"Guaymaral Airport","description_kind":"Ortsprofil","description_has_more":true,"detail_plans":[],"alternate_locations":[],"sources":[{"bookId":"sr4-war","title":"War","edition":"SR4","citation":"Guaymaral Airport","purpose":"description"}],"map_sources":[],"editions":["SR4"],"edition_descriptions":{"SR4":{"kind":"Ortsprofil","preview":"Der nördliche Flughafen Guaymaral ist ein weiterer taktisch wichtiger Luftverkehrsstandort.","full":"Der nördliche Flughafen Guaymaral ist ein weiterer taktisch wichtiger Luftverkehrsstandort. Die Position ist auf den belegten Stadt- oder Teilraum angenähert; eine hausgenaue Lage und eine weitergehende eigene Fließtextbeschreibung sind aus dem zugeordneten Datenmaterial nicht sicher ableitbar.","hasMore":true,"hasExcerpt":true,"sources":[{"bookId":"sr4-war","title":"War","edition":"SR4","citation":"Guaymaral Airport","purpose":"description"}]}}}},{"type":"Feature","geometry":null,"properties":{"id":16,"global_id":"bogota:place:16-kondorchid-regional-shopping-center","name":"KondOrchid Regional Shopping Center","aliases":[],"category":"Einkaufen","detail_map":"Bogotá","source_pages":"The KondOrchid Regional Shopping Center","map_source":"War","placement_note":"Keine belastbare Einzelposition; Eintrag bleibt im Katalog","accuracy":"Nur Stadt oder Lore-Teilraum belegt","source_map":"bogota-content","source_panel":"Bogotá","description_preview":"Das regionale Einkaufszentrum ist ein großer Handels- und Versorgungspunkt.","description_full":"Das regionale Einkaufszentrum ist ein großer Handels- und Versorgungspunkt. Die Position ist auf den belegten Stadt- oder Teilraum angenähert; eine hausgenaue Lage und eine weitergehende eigene Fließtextbeschreibung sind aus dem zugeordneten Datenmaterial nicht sicher ableitbar.","description_source":"The KondOrchid Regional Shopping Center","description_kind":"Ortsprofil","description_has_more":true,"detail_plans":[],"alternate_locations":[],"sources":[{"bookId":"sr4-war","title":"War","edition":"SR4","citation":"The KondOrchid Regional Shopping Center","purpose":"description"}],"map_sources":[],"editions":["SR4"],"edition_descriptions":{"SR4":{"kind":"Ortsprofil","preview":"Das regionale Einkaufszentrum ist ein großer Handels- und Versorgungspunkt.","full":"Das regionale Einkaufszentrum ist ein großer Handels- und Versorgungspunkt. Die Position ist auf den belegten Stadt- oder Teilraum angenähert; eine hausgenaue Lage und eine weitergehende eigene Fließtextbeschreibung sind aus dem zugeordneten Datenmaterial nicht sicher ableitbar.","hasMore":true,"hasExcerpt":true,"sources":[{"bookId":"sr4-war","title":"War","edition":"SR4","citation":"The KondOrchid Regional Shopping Center","purpose":"description"}]}}}},{"type":"Feature","geometry":{"type":"Point","coordinates":[-74.072,4.601]},"properties":{"id":4,"global_id":"bogota:place:4-museo-del-oro","name":"Museo del Oro","aliases":[],"category":"Bildung und Kultur","detail_map":"Bogotá","source_pages":"Museo del Oro","map_source":"War","placement_note":"Erhaltener geographischer Bezugspunkt","accuracy":"Geographischer Bezugspunkt","source_map":"bogota-content","source_panel":"Bogotá","description_preview":"Das Goldmuseum ist Kulturort und möglicher Operationsschauplatz.","description_full":"Das Goldmuseum ist Kulturort und möglicher Operationsschauplatz. Die Position folgt einem erhaltenen heutigen Bezugspunkt.","description_source":"Museo del Oro","description_kind":"Ortsprofil","description_has_more":true,"detail_plans":[],"alternate_locations":[],"sources":[{"bookId":"sr4-war","title":"War","edition":"SR4","citation":"Museo del Oro","purpose":"description"}],"map_sources":[],"editions":["SR4"],"edition_descriptions":{"SR4":{"kind":"Ortsprofil","preview":"Das Goldmuseum ist Kulturort und möglicher Operationsschauplatz.","full":"Das Goldmuseum ist Kulturort und möglicher Operationsschauplatz. Die Position folgt einem erhaltenen heutigen Bezugspunkt.","hasMore":true,"hasExcerpt":true,"sources":[{"bookId":"sr4-war","title":"War","edition":"SR4","citation":"Museo del Oro","purpose":"description"}]}}}},{"type":"Feature","geometry":null,"properties":{"id":10,"global_id":"bogota:place:10-native-lands-street-clinic","name":"Native Lands Street Clinic","aliases":[],"category":"Medizin","detail_map":"Bogotá","source_pages":"Native Lands Street Clinic","map_source":"War","placement_note":"Keine belastbare Einzelposition; Eintrag bleibt im Katalog","accuracy":"Nur Stadt oder Lore-Teilraum belegt","source_map":"bogota-content","source_panel":"Bogotá","description_preview":"Die Straßenklinik versorgt Bewohner innerhalb des umkämpften Stadtgebiets.","description_full":"Die Straßenklinik versorgt Bewohner innerhalb des umkämpften Stadtgebiets. Die Position ist auf den belegten Stadt- oder Teilraum angenähert; eine hausgenaue Lage und eine weitergehende eigene Fließtextbeschreibung sind aus dem zugeordneten Datenmaterial nicht sicher ableitbar.","description_source":"Native Lands Street Clinic","description_kind":"Ortsprofil","description_has_more":true,"detail_plans":[],"alternate_locations":[],"sources":[{"bookId":"sr4-war","title":"War","edition":"SR4","citation":"Native Lands Street Clinic","purpose":"description"}],"map_sources":[],"editions":["SR4"],"edition_descriptions":{"SR4":{"kind":"Ortsprofil","preview":"Die Straßenklinik versorgt Bewohner innerhalb des umkämpften Stadtgebiets.","full":"Die Straßenklinik versorgt Bewohner innerhalb des umkämpften Stadtgebiets. Die Position ist auf den belegten Stadt- oder Teilraum angenähert; eine hausgenaue Lage und eine weitergehende eigene Fließtextbeschreibung sind aus dem zugeordneten Datenmaterial nicht sicher ableitbar.","hasMore":true,"hasExcerpt":true,"sources":[{"bookId":"sr4-war","title":"War","edition":"SR4","citation":"Native Lands Street Clinic","purpose":"description"}]}}}},{"type":"Feature","geometry":null,"properties":{"id":11,"global_id":"bogota:place:11-olaya-cartel-drug-labs","name":"Olaya Cartel Drug Labs","aliases":[],"category":"Unterwelt","detail_map":"Bogotá","source_pages":"Olaya Cartel Drug Labs","map_source":"War","placement_note":"Keine belastbare Einzelposition; Eintrag bleibt im Katalog","accuracy":"Nur Stadt oder Lore-Teilraum belegt","source_map":"bogota-content","source_panel":"Bogotá","description_preview":"Die Drogenlabore des Olaya-Kartells sind ein Standort der lokalen Unterwelt.","description_full":"Die Drogenlabore des Olaya-Kartells sind ein Standort der lokalen Unterwelt. Die Position ist auf den belegten Stadt- oder Teilraum angenähert; eine hausgenaue Lage und eine weitergehende eigene Fließtextbeschreibung sind aus dem zugeordneten Datenmaterial nicht sicher ableitbar.","description_source":"Olaya Cartel Drug Labs","description_kind":"Ortsprofil","description_has_more":true,"detail_plans":[],"alternate_locations":[],"sources":[{"bookId":"sr4-war","title":"War","edition":"SR4","citation":"Olaya Cartel Drug Labs","purpose":"description"}],"map_sources":[],"editions":["SR4"],"edition_descriptions":{"SR4":{"kind":"Ortsprofil","preview":"Die Drogenlabore des Olaya-Kartells sind ein Standort der lokalen Unterwelt.","full":"Die Drogenlabore des Olaya-Kartells sind ein Standort der lokalen Unterwelt. Die Position ist auf den belegten Stadt- oder Teilraum angenähert; eine hausgenaue Lage und eine weitergehende eigene Fließtextbeschreibung sind aus dem zugeordneten Datenmaterial nicht sicher ableitbar.","hasMore":true,"hasExcerpt":true,"sources":[{"bookId":"sr4-war","title":"War","edition":"SR4","citation":"Olaya Cartel Drug Labs","purpose":"description"}]}}}},{"type":"Feature","geometry":null,"properties":{"id":12,"global_id":"bogota:place:12-palace-of-justice","name":"Palace of Justice","aliases":[],"category":"Behörden","detail_map":"Bogotá","source_pages":"The Palace of Justice","map_source":"War","placement_note":"Keine belastbare Einzelposition; Eintrag bleibt im Katalog","accuracy":"Nur Stadt oder Lore-Teilraum belegt","source_map":"bogota-content","source_panel":"Bogotá","description_preview":"Der Justizpalast ist ein politischer, symbolischer und taktischer Ort.","description_full":"Der Justizpalast ist ein politischer, symbolischer und taktischer Ort. Die Position ist auf den belegten Stadt- oder Teilraum angenähert; eine hausgenaue Lage und eine weitergehende eigene Fließtextbeschreibung sind aus dem zugeordneten Datenmaterial nicht sicher ableitbar.","description_source":"The Palace of Justice","description_kind":"Ortsprofil","description_has_more":true,"detail_plans":[],"alternate_locations":[],"sources":[{"bookId":"sr4-war","title":"War","edition":"SR4","citation":"The Palace of Justice","purpose":"description"}],"map_sources":[],"editions":["SR4"],"edition_descriptions":{"SR4":{"kind":"Ortsprofil","preview":"Der Justizpalast ist ein politischer, symbolischer und taktischer Ort.","full":"Der Justizpalast ist ein politischer, symbolischer und taktischer Ort. Die Position ist auf den belegten Stadt- oder Teilraum angenähert; eine hausgenaue Lage und eine weitergehende eigene Fließtextbeschreibung sind aus dem zugeordneten Datenmaterial nicht sicher ableitbar.","hasMore":true,"hasExcerpt":true,"sources":[{"bookId":"sr4-war","title":"War","edition":"SR4","citation":"The Palace of Justice","purpose":"description"}]}}}},{"type":"Feature","geometry":null,"properties":{"id":13,"global_id":"bogota:place:13-pemex-arcology","name":"Pemex Arcology","aliases":[],"category":"Konzerne","detail_map":"Bogotá","source_pages":"The Pemex Arcology","map_source":"War","placement_note":"Keine belastbare Einzelposition; Eintrag bleibt im Katalog","accuracy":"Nur Stadt oder Lore-Teilraum belegt","source_map":"bogota-content","source_panel":"Bogotá","description_preview":"Die Pemex-Arkologie ist ein großer Konzern- und Versorgungskomplex.","description_full":"Die Pemex-Arkologie ist ein großer Konzern- und Versorgungskomplex. Die Position ist auf den belegten Stadt- oder Teilraum angenähert; eine hausgenaue Lage und eine weitergehende eigene Fließtextbeschreibung sind aus dem zugeordneten Datenmaterial nicht sicher ableitbar.","description_source":"The Pemex Arcology","description_kind":"Ortsprofil","description_has_more":true,"detail_plans":[],"alternate_locations":[],"sources":[{"bookId":"sr4-war","title":"War","edition":"SR4","citation":"The Pemex Arcology","purpose":"description"}],"map_sources":[],"editions":["SR4"],"edition_descriptions":{"SR4":{"kind":"Ortsprofil","preview":"Die Pemex-Arkologie ist ein großer Konzern- und Versorgungskomplex.","full":"Die Pemex-Arkologie ist ein großer Konzern- und Versorgungskomplex. Die Position ist auf den belegten Stadt- oder Teilraum angenähert; eine hausgenaue Lage und eine weitergehende eigene Fließtextbeschreibung sind aus dem zugeordneten Datenmaterial nicht sicher ableitbar.","hasMore":true,"hasExcerpt":true,"sources":[{"bookId":"sr4-war","title":"War","edition":"SR4","citation":"The Pemex Arcology","purpose":"description"}]}}}},{"type":"Feature","geometry":null,"properties":{"id":14,"global_id":"bogota:place:14-pontificia-universidad-javeriana","name":"Pontificia Universidad Javeriana","aliases":[],"category":"Bildung und Kultur","detail_map":"Bogotá","source_pages":"Pontifical Xavierian University","map_source":"War","placement_note":"Keine belastbare Einzelposition; Eintrag bleibt im Katalog","accuracy":"Nur Stadt oder Lore-Teilraum belegt","source_map":"bogota-content","source_panel":"Bogotá","description_preview":"Die päpstliche Universität ist ein bedeutender Bildungsstandort.","description_full":"Die päpstliche Universität ist ein bedeutender Bildungsstandort. Die Position ist auf den belegten Stadt- oder Teilraum angenähert; eine hausgenaue Lage und eine weitergehende eigene Fließtextbeschreibung sind aus dem zugeordneten Datenmaterial nicht sicher ableitbar.","description_source":"Pontifical Xavierian University","description_kind":"Ortsprofil","description_has_more":true,"detail_plans":[],"alternate_locations":[],"sources":[{"bookId":"sr4-war","title":"War","edition":"SR4","citation":"Pontifical Xavierian University","purpose":"description"}],"map_sources":[],"editions":["SR4"],"edition_descriptions":{"SR4":{"kind":"Ortsprofil","preview":"Die päpstliche Universität ist ein bedeutender Bildungsstandort.","full":"Die päpstliche Universität ist ein bedeutender Bildungsstandort. Die Position ist auf den belegten Stadt- oder Teilraum angenähert; eine hausgenaue Lage und eine weitergehende eigene Fließtextbeschreibung sind aus dem zugeordneten Datenmaterial nicht sicher ableitbar.","hasMore":true,"hasExcerpt":true,"sources":[{"bookId":"sr4-war","title":"War","edition":"SR4","citation":"Pontifical Xavierian University","purpose":"description"}]}}}},{"type":"Feature","geometry":null,"properties":{"id":15,"global_id":"bogota:place:15-the-abyss","name":"The Abyss","aliases":[],"category":"Unterwelt","detail_map":"Bogotá","source_pages":"The Abyss","map_source":"War","placement_note":"Keine belastbare Einzelposition; Eintrag bleibt im Katalog","accuracy":"Nur Stadt oder Lore-Teilraum belegt","source_map":"bogota-content","source_panel":"Bogotá","description_preview":"The Abyss ist ein im Kriegsquellenband benannter Gefahren- oder Unterweltschauplatz.","description_full":"The Abyss ist ein im Kriegsquellenband benannter Gefahren- oder Unterweltschauplatz. Die Position ist auf den belegten Stadt- oder Teilraum angenähert; eine hausgenaue Lage und eine weitergehende eigene Fließtextbeschreibung sind aus dem zugeordneten Datenmaterial nicht sicher ableitbar.","description_source":"The Abyss","description_kind":"Ortsprofil","description_has_more":true,"detail_plans":[],"alternate_locations":[],"sources":[{"bookId":"sr4-war","title":"War","edition":"SR4","citation":"The Abyss","purpose":"description"}],"map_sources":[],"editions":["SR4"],"edition_descriptions":{"SR4":{"kind":"Ortsprofil","preview":"The Abyss ist ein im Kriegsquellenband benannter Gefahren- oder Unterweltschauplatz.","full":"The Abyss ist ein im Kriegsquellenband benannter Gefahren- oder Unterweltschauplatz. Die Position ist auf den belegten Stadt- oder Teilraum angenähert; eine hausgenaue Lage und eine weitergehende eigene Fließtextbeschreibung sind aus dem zugeordneten Datenmaterial nicht sicher ableitbar.","hasMore":true,"hasExcerpt":true,"sources":[{"bookId":"sr4-war","title":"War","edition":"SR4","citation":"The Abyss","purpose":"description"}]}}}},{"type":"Feature","geometry":null,"properties":{"id":17,"global_id":"bogota:place:17-war-temple","name":"War Temple","aliases":[],"category":"Religion und Magie","detail_map":"Bogotá","source_pages":"War Temple","map_source":"War","placement_note":"Keine belastbare Einzelposition; Eintrag bleibt im Katalog","accuracy":"Nur Stadt oder Lore-Teilraum belegt","source_map":"bogota-content","source_panel":"Bogotá","description_preview":"Der War Temple ist ein religiös und militärisch aufgeladener Schauplatz.","description_full":"Der War Temple ist ein religiös und militärisch aufgeladener Schauplatz. Die Position ist auf den belegten Stadt- oder Teilraum angenähert; eine hausgenaue Lage und eine weitergehende eigene Fließtextbeschreibung sind aus dem zugeordneten Datenmaterial nicht sicher ableitbar.","description_source":"War Temple","description_kind":"Ortsprofil","description_has_more":true,"detail_plans":[],"alternate_locations":[],"sources":[{"bookId":"sr4-war","title":"War","edition":"SR4","citation":"War Temple","purpose":"description"}],"map_sources":[],"editions":["SR4"],"edition_descriptions":{"SR4":{"kind":"Ortsprofil","preview":"Der War Temple ist ein religiös und militärisch aufgeladener Schauplatz.","full":"Der War Temple ist ein religiös und militärisch aufgeladener Schauplatz. Die Position ist auf den belegten Stadt- oder Teilraum angenähert; eine hausgenaue Lage und eine weitergehende eigene Fließtextbeschreibung sind aus dem zugeordneten Datenmaterial nicht sicher ableitbar.","hasMore":true,"hasExcerpt":true,"sources":[{"bookId":"sr4-war","title":"War","edition":"SR4","citation":"War Temple","purpose":"description"}]}}}}]}
