{"type":"FeatureCollection","name":"Bogotá – geprüfte zusätzliche Quellenorte","features":[{"type":"Feature","geometry":null,"properties":{"id":18,"global_id":"bogota:source-place:bolivar-square","name":"Bolívar Square","aliases":[],"category":"Sonstige Spots","detail_map":"Bogotá","source_pages":"Textzeile 11301","map_source":"War","placement_note":"Keine belastbare Einzelposition; Eintrag bleibt im Katalog","accuracy":"Nur Stadt oder Lore-Teilraum belegt","source_map":"source-supplement","source_panel":"Bogotá","description_preview":"Bolívar Square ist in War als benannter Schauplatz mit Bezug zu Bogotá belegt.","description_full":"Bolívar Square ist in War als benannter Schauplatz mit Bezug zu Bogotá belegt. Das Dossier fasst den belegten Quellenstand redaktionell zusammen; eine nicht belegte Kartenposition wird nicht ergänzt.","description_source":"Textzeile 11301","description_kind":"Ortsdossier","description_has_more":true,"detail_plans":[],"alternate_locations":[],"sources":[{"bookId":"sr4-war","title":"War","edition":"SR4","citation":"Textzeile 11301","purpose":"description"}],"map_sources":[],"editions":["SR4"],"edition_descriptions":{"SR4":{"kind":"Ortsdossier","preview":"Bolívar Square ist in War als benannter Schauplatz mit Bezug zu Bogotá belegt.","full":"Bolívar Square ist in War als benannter Schauplatz mit Bezug zu Bogotá belegt. Das Dossier fasst den belegten Quellenstand redaktionell zusammen; eine nicht belegte Kartenposition wird nicht ergänzt.","hasMore":true,"hasExcerpt":true,"sources":[{"bookId":"sr4-war","title":"War","edition":"SR4","citation":"Textzeile 11301","purpose":"description"}]}}}},{"type":"Feature","geometry":null,"properties":{"id":19,"global_id":"bogota:source-place:old-school-radio","name":"Old-School Radio","aliases":[],"category":"Sonstige Spots","detail_map":"Bogotá","source_pages":"Textzeile 1106","map_source":"War","placement_note":"Keine belastbare Einzelposition; Eintrag bleibt im Katalog","accuracy":"Nur Stadt oder Lore-Teilraum belegt","source_map":"source-supplement","source_panel":"Bogotá","description_preview":"Old-School Radio ist in War als benannter Schauplatz mit Bezug zu Bogotá belegt.","description_full":"Old-School Radio ist in War als benannter Schauplatz mit Bezug zu Bogotá belegt. Das Dossier fasst den belegten Quellenstand redaktionell zusammen; eine nicht belegte Kartenposition wird nicht ergänzt.","description_source":"Textzeile 1106","description_kind":"Ortsdossier","description_has_more":true,"detail_plans":[],"alternate_locations":[],"sources":[{"bookId":"sr4-war","title":"War","edition":"SR4","citation":"Textzeile 1106","purpose":"description"}],"map_sources":[],"editions":["SR4"],"edition_descriptions":{"SR4":{"kind":"Ortsdossier","preview":"Old-School Radio ist in War als benannter Schauplatz mit Bezug zu Bogotá belegt.","full":"Old-School Radio ist in War als benannter Schauplatz mit Bezug zu Bogotá belegt. Das Dossier fasst den belegten Quellenstand redaktionell zusammen; eine nicht belegte Kartenposition wird nicht ergänzt.","hasMore":true,"hasExcerpt":true,"sources":[{"bookId":"sr4-war","title":"War","edition":"SR4","citation":"Textzeile 1106","purpose":"description"}]}}}},{"type":"Feature","geometry":null,"properties":{"id":20,"global_id":"bogota:source-place:the-black-market","name":"The Black Market","aliases":[],"category":"Sonstige Spots","detail_map":"Bogotá","source_pages":"Textzeile 1388","map_source":"War","placement_note":"Keine belastbare Einzelposition; Eintrag bleibt im Katalog","accuracy":"Nur Stadt oder Lore-Teilraum belegt","source_map":"source-supplement","source_panel":"Bogotá","description_preview":"The Black Market ist in War als benannter Schauplatz mit Bezug zu Bogotá belegt.","description_full":"The Black Market ist in War als benannter Schauplatz mit Bezug zu Bogotá belegt. Das Dossier fasst den belegten Quellenstand redaktionell zusammen; eine nicht belegte Kartenposition wird nicht ergänzt.","description_source":"Textzeile 1388","description_kind":"Ortsdossier","description_has_more":true,"detail_plans":[],"alternate_locations":[],"sources":[{"bookId":"sr4-war","title":"War","edition":"SR4","citation":"Textzeile 1388","purpose":"description"}],"map_sources":[],"editions":["SR4"],"edition_descriptions":{"SR4":{"kind":"Ortsdossier","preview":"The Black Market ist in War als benannter Schauplatz mit Bezug zu Bogotá belegt.","full":"The Black Market ist in War als benannter Schauplatz mit Bezug zu Bogotá belegt. Das Dossier fasst den belegten Quellenstand redaktionell zusammen; eine nicht belegte Kartenposition wird nicht ergänzt.","hasMore":true,"hasExcerpt":true,"sources":[{"bookId":"sr4-war","title":"War","edition":"SR4","citation":"Textzeile 1388","purpose":"description"}]}}}},{"type":"Feature","geometry":null,"properties":{"id":21,"global_id":"bogota:source-place:the-catholic-church","name":"The Catholic Church","aliases":[],"category":"Sonstige Spots","detail_map":"Bogotá","source_pages":"Textzeile 3760","map_source":"War","placement_note":"Keine belastbare Einzelposition; Eintrag bleibt im Katalog","accuracy":"Nur Stadt oder Lore-Teilraum belegt","source_map":"source-supplement","source_panel":"Bogotá","description_preview":"The Catholic Church ist in War als benannter Schauplatz mit Bezug zu Bogotá belegt.","description_full":"The Catholic Church ist in War als benannter Schauplatz mit Bezug zu Bogotá belegt. Das Dossier fasst den belegten Quellenstand redaktionell zusammen; eine nicht belegte Kartenposition wird nicht ergänzt.","description_source":"Textzeile 3760","description_kind":"Ortsdossier","description_has_more":true,"detail_plans":[],"alternate_locations":[],"sources":[{"bookId":"sr4-war","title":"War","edition":"SR4","citation":"Textzeile 3760","purpose":"description"}],"map_sources":[],"editions":["SR4"],"edition_descriptions":{"SR4":{"kind":"Ortsdossier","preview":"The Catholic Church ist in War als benannter Schauplatz mit Bezug zu Bogotá belegt.","full":"The Catholic Church ist in War als benannter Schauplatz mit Bezug zu Bogotá belegt. Das Dossier fasst den belegten Quellenstand redaktionell zusammen; eine nicht belegte Kartenposition wird nicht ergänzt.","hasMore":true,"hasExcerpt":true,"sources":[{"bookId":"sr4-war","title":"War","edition":"SR4","citation":"Textzeile 3760","purpose":"description"}]}}}}]}
