{"type":"FeatureCollection","name":"Neo-Tokio Orte","features":[{"type":"Feature","geometry":{"type":"Point","coordinates":[139.752,35.708]},"properties":{"id":1,"global_id":"neo-tokio:place:1-bunkyo","name":"Bunkyō","aliases":[],"category":"Bezirke","detail_map":"Bunkyō","source_pages":"Bunkyo","map_source":"Corporate Enclaves","placement_note":"Geografischer Bezugspunkt des Lore-Distrikts Bunkyō","accuracy":"Lore-Bezirkszentrum; Grenzpolygon noch nicht georeferenziert","source_map":"neo-tokio-content","source_panel":"Bunkyō","description_preview":"Bunkyō ist Bildungs- und Kulturbezirk und beherbergt den Sitz der Ranken-Ryū.","description_full":"Bunkyō ist Bildungs- und Kulturbezirk und beherbergt den Sitz der Ranken-Ryū. Die Position ist auf den belegten Stadt- oder Teilraum angenähert; eine hausgenaue Lage und eine weitergehende eigene Fließtextbeschreibung sind aus dem zugeordneten Datenmaterial nicht sicher ableitbar.","description_source":"Bunkyo","description_kind":"Ortsprofil","description_has_more":true,"detail_plans":[],"alternate_locations":[],"sources":[{"bookId":"sr4-corporate-enclaves","title":"Corporate Enclaves","edition":"SR4","citation":"Bunkyo","purpose":"description"}],"map_sources":[],"editions":["SR4"],"edition_descriptions":{"SR4":{"kind":"Ortsprofil","preview":"Bunkyō ist Bildungs- und Kulturbezirk und beherbergt den Sitz der Ranken-Ryū.","full":"Bunkyō ist Bildungs- und Kulturbezirk und beherbergt den Sitz der Ranken-Ryū. Die Position ist auf den belegten Stadt- oder Teilraum angenähert; eine hausgenaue Lage und eine weitergehende eigene Fließtextbeschreibung sind aus dem zugeordneten Datenmaterial nicht sicher ableitbar.","hasMore":true,"hasExcerpt":true,"sources":[{"bookId":"sr4-corporate-enclaves","title":"Corporate Enclaves","edition":"SR4","citation":"Bunkyo","purpose":"description"}]}}}},{"type":"Feature","geometry":{"type":"Point","coordinates":[140.106,35.607]},"properties":{"id":2,"global_id":"neo-tokio:place:2-chiba","name":"Chiba","aliases":[],"category":"Bezirke","detail_map":"Chiba","source_pages":"Kapitel Neo-Tokyo","map_source":"Corporate Enclaves","placement_note":"Geografischer Bezugspunkt des Lore-Distrikts Chiba","accuracy":"Lore-Bezirkszentrum; Grenzpolygon noch nicht georeferenziert","source_map":"neo-tokio-content","source_panel":"Chiba","description_preview":"Chiba bildet einen östlichen Industrie-, Hafen- und Konzernraum des Neo-Tokio-Gebiets.","description_full":"Chiba bildet einen östlichen Industrie-, Hafen- und Konzernraum des Neo-Tokio-Gebiets. Die Position ist auf den belegten Stadt- oder Teilraum angenähert; eine hausgenaue Lage und eine weitergehende eigene Fließtextbeschreibung sind aus dem zugeordneten Datenmaterial nicht sicher ableitbar.","description_source":"Kapitel Neo-Tokyo","description_kind":"Ortsprofil","description_has_more":true,"detail_plans":[],"alternate_locations":[],"sources":[{"bookId":"sr4-corporate-enclaves","title":"Corporate Enclaves","edition":"SR4","citation":"Kapitel Neo-Tokyo","purpose":"description"}],"map_sources":[],"editions":["SR4"],"edition_descriptions":{"SR4":{"kind":"Ortsprofil","preview":"Chiba bildet einen östlichen Industrie-, Hafen- und Konzernraum des Neo-Tokio-Gebiets.","full":"Chiba bildet einen östlichen Industrie-, Hafen- und Konzernraum des Neo-Tokio-Gebiets. Die Position ist auf den belegten Stadt- oder Teilraum angenähert; eine hausgenaue Lage und eine weitergehende eigene Fließtextbeschreibung sind aus dem zugeordneten Datenmaterial nicht sicher ableitbar.","hasMore":true,"hasExcerpt":true,"sources":[{"bookId":"sr4-corporate-enclaves","title":"Corporate Enclaves","edition":"SR4","citation":"Kapitel Neo-Tokyo","purpose":"description"}]}}}},{"type":"Feature","geometry":null,"properties":{"id":11,"global_id":"neo-tokio:place:11-chosun-alley","name":"Chosun Alley","aliases":[],"category":"Unterwelt","detail_map":"Sub-Tokyo","source_pages":"Chosun Alley (Sub-Tokyo)","map_source":"Corporate Enclaves","placement_note":"Keine belastbare Einzelposition; Eintrag bleibt im Katalog","accuracy":"Nur Stadt oder Lore-Teilraum belegt","source_map":"neo-tokio-content","source_panel":"Sub-Tokyo","description_preview":"Chosun Alley ist ein benannter Schauplatz der unterirdischen Stadt.","description_full":"Chosun Alley ist ein benannter Schauplatz der unterirdischen Stadt. Die Position ist auf den belegten Stadt- oder Teilraum angenähert; eine hausgenaue Lage und eine weitergehende eigene Fließtextbeschreibung sind aus dem zugeordneten Datenmaterial nicht sicher ableitbar.","description_source":"Chosun Alley (Sub-Tokyo)","description_kind":"Ortsprofil","description_has_more":true,"detail_plans":[],"alternate_locations":[],"sources":[{"bookId":"sr4-corporate-enclaves","title":"Corporate Enclaves","edition":"SR4","citation":"Chosun Alley (Sub-Tokyo)","purpose":"description"}],"map_sources":[],"editions":["SR4"],"edition_descriptions":{"SR4":{"kind":"Ortsprofil","preview":"Chosun Alley ist ein benannter Schauplatz der unterirdischen Stadt.","full":"Chosun Alley ist ein benannter Schauplatz der unterirdischen Stadt. Die Position ist auf den belegten Stadt- oder Teilraum angenähert; eine hausgenaue Lage und eine weitergehende eigene Fließtextbeschreibung sind aus dem zugeordneten Datenmaterial nicht sicher ableitbar.","hasMore":true,"hasExcerpt":true,"sources":[{"bookId":"sr4-corporate-enclaves","title":"Corporate Enclaves","edition":"SR4","citation":"Chosun Alley (Sub-Tokyo)","purpose":"description"}]}}}},{"type":"Feature","geometry":{"type":"Point","coordinates":[139.647,35.648]},"properties":{"id":12,"global_id":"neo-tokio:place:12-gotoku-ji-temple","name":"Gotoku-ji Temple","aliases":[],"category":"Religion und Magie","detail_map":"Neo-Tokio","source_pages":"Gotoku-ji Temple (Setagaya)","map_source":"Corporate Enclaves","placement_note":"Erhaltener geographischer Bezugspunkt","accuracy":"Geographischer Bezugspunkt","source_map":"neo-tokio-content","source_panel":"Neo-Tokio","description_preview":"Der Gotoku-ji ist ein Tempel- und Magieschauplatz in Setagaya.","description_full":"Der Gotoku-ji ist ein Tempel- und Magieschauplatz in Setagaya. Die Position folgt einem erhaltenen heutigen Bezugspunkt.","description_source":"Gotoku-ji Temple (Setagaya)","description_kind":"Ortsprofil","description_has_more":true,"detail_plans":[],"alternate_locations":[],"sources":[{"bookId":"sr4-corporate-enclaves","title":"Corporate Enclaves","edition":"SR4","citation":"Gotoku-ji Temple (Setagaya)","purpose":"description"}],"map_sources":[],"editions":["SR4"],"edition_descriptions":{"SR4":{"kind":"Ortsprofil","preview":"Der Gotoku-ji ist ein Tempel- und Magieschauplatz in Setagaya.","full":"Der Gotoku-ji ist ein Tempel- und Magieschauplatz in Setagaya. Die Position folgt einem erhaltenen heutigen Bezugspunkt.","hasMore":true,"hasExcerpt":true,"sources":[{"bookId":"sr4-corporate-enclaves","title":"Corporate Enclaves","edition":"SR4","citation":"Gotoku-ji Temple (Setagaya)","purpose":"description"}]}}}},{"type":"Feature","geometry":{"type":"Point","coordinates":[139.771,35.691]},"properties":{"id":4,"global_id":"neo-tokio:place:4-kanda","name":"Kanda","aliases":[],"category":"Bezirke","detail_map":"Kanda","source_pages":"Kanda","map_source":"Corporate Enclaves","placement_note":"Geografischer Bezugspunkt des Lore-Distrikts Kanda","accuracy":"Lore-Bezirkszentrum; Grenzpolygon noch nicht georeferenziert","source_map":"neo-tokio-content","source_panel":"Kanda","description_preview":"Kanda ist ein zentraler Geschäfts-, Bildungs- und Szenebezirk.","description_full":"Kanda ist ein zentraler Geschäfts-, Bildungs- und Szenebezirk. Die Position ist auf den belegten Stadt- oder Teilraum angenähert; eine hausgenaue Lage und eine weitergehende eigene Fließtextbeschreibung sind aus dem zugeordneten Datenmaterial nicht sicher ableitbar.","description_source":"Kanda","description_kind":"Ortsprofil","description_has_more":true,"detail_plans":[],"alternate_locations":[],"sources":[{"bookId":"sr4-corporate-enclaves","title":"Corporate Enclaves","edition":"SR4","citation":"Kanda","purpose":"description"}],"map_sources":[],"editions":["SR4"],"edition_descriptions":{"SR4":{"kind":"Ortsprofil","preview":"Kanda ist ein zentraler Geschäfts-, Bildungs- und Szenebezirk.","full":"Kanda ist ein zentraler Geschäfts-, Bildungs- und Szenebezirk. Die Position ist auf den belegten Stadt- oder Teilraum angenähert; eine hausgenaue Lage und eine weitergehende eigene Fließtextbeschreibung sind aus dem zugeordneten Datenmaterial nicht sicher ableitbar.","hasMore":true,"hasExcerpt":true,"sources":[{"bookId":"sr4-corporate-enclaves","title":"Corporate Enclaves","edition":"SR4","citation":"Kanda","purpose":"description"}]}}}},{"type":"Feature","geometry":{"type":"Point","coordinates":[139.751,35.658]},"properties":{"id":5,"global_id":"neo-tokio:place:5-minato","name":"Minato","aliases":[],"category":"Bezirke","detail_map":"Minato","source_pages":"Minato","map_source":"Corporate Enclaves","placement_note":"Geografischer Bezugspunkt des Lore-Distrikts Minato","accuracy":"Lore-Bezirkszentrum; Grenzpolygon noch nicht georeferenziert","source_map":"neo-tokio-content","source_panel":"Minato","description_preview":"Minato ist ein hochrangiger Konzern-, Diplomatie- und Hafenbezirk.","description_full":"Minato ist ein hochrangiger Konzern-, Diplomatie- und Hafenbezirk. Die Position ist auf den belegten Stadt- oder Teilraum angenähert; eine hausgenaue Lage und eine weitergehende eigene Fließtextbeschreibung sind aus dem zugeordneten Datenmaterial nicht sicher ableitbar.","description_source":"Minato","description_kind":"Ortsprofil","description_has_more":true,"detail_plans":[],"alternate_locations":[],"sources":[{"bookId":"sr4-corporate-enclaves","title":"Corporate Enclaves","edition":"SR4","citation":"Minato","purpose":"description"}],"map_sources":[],"editions":["SR4"],"edition_descriptions":{"SR4":{"kind":"Ortsprofil","preview":"Minato ist ein hochrangiger Konzern-, Diplomatie- und Hafenbezirk.","full":"Minato ist ein hochrangiger Konzern-, Diplomatie- und Hafenbezirk. Die Position ist auf den belegten Stadt- oder Teilraum angenähert; eine hausgenaue Lage und eine weitergehende eigene Fließtextbeschreibung sind aus dem zugeordneten Datenmaterial nicht sicher ableitbar.","hasMore":true,"hasExcerpt":true,"sources":[{"bookId":"sr4-corporate-enclaves","title":"Corporate Enclaves","edition":"SR4","citation":"Minato","purpose":"description"}]}}}},{"type":"Feature","geometry":null,"properties":{"id":13,"global_id":"neo-tokio:place:13-neo-tokyo-tower","name":"Neo-Tokyo Tower","aliases":[],"category":"Sichtseeing und Monumente","detail_map":"Toshima","source_pages":"Neo-Tokyo Tower (Toshima)","map_source":"Corporate Enclaves","placement_note":"Keine belastbare Einzelposition; Eintrag bleibt im Katalog","accuracy":"Nur Stadt oder Lore-Teilraum belegt","source_map":"neo-tokio-content","source_panel":"Toshima","description_preview":"Der Neo-Tokyo Tower ist ein markanter Konzern- und Stadtstandort in Toshima.","description_full":"Der Neo-Tokyo Tower ist ein markanter Konzern- und Stadtstandort in Toshima. Die Position ist auf den belegten Stadt- oder Teilraum angenähert; eine hausgenaue Lage und eine weitergehende eigene Fließtextbeschreibung sind aus dem zugeordneten Datenmaterial nicht sicher ableitbar.","description_source":"Neo-Tokyo Tower (Toshima)","description_kind":"Ortsprofil","description_has_more":true,"detail_plans":[],"alternate_locations":[],"sources":[{"bookId":"sr4-corporate-enclaves","title":"Corporate Enclaves","edition":"SR4","citation":"Neo-Tokyo Tower (Toshima)","purpose":"description"}],"map_sources":[],"editions":["SR4"],"edition_descriptions":{"SR4":{"kind":"Ortsprofil","preview":"Der Neo-Tokyo Tower ist ein markanter Konzern- und Stadtstandort in Toshima.","full":"Der Neo-Tokyo Tower ist ein markanter Konzern- und Stadtstandort in Toshima. Die Position ist auf den belegten Stadt- oder Teilraum angenähert; eine hausgenaue Lage und eine weitergehende eigene Fließtextbeschreibung sind aus dem zugeordneten Datenmaterial nicht sicher ableitbar.","hasMore":true,"hasExcerpt":true,"sources":[{"bookId":"sr4-corporate-enclaves","title":"Corporate Enclaves","edition":"SR4","citation":"Neo-Tokyo Tower (Toshima)","purpose":"description"}]}}}},{"type":"Feature","geometry":null,"properties":{"id":14,"global_id":"neo-tokio:place:14-pachinko-street","name":"Pachinko Street","aliases":[],"category":"Ausgehen","detail_map":"Bunkyō","source_pages":"Pachinko Street (Bunkyo)","map_source":"Corporate Enclaves","placement_note":"Keine belastbare Einzelposition; Eintrag bleibt im Katalog","accuracy":"Nur Stadt oder Lore-Teilraum belegt","source_map":"neo-tokio-content","source_panel":"Bunkyō","description_preview":"Pachinko Street ist ein Vergnügungs- und Unterweltschwerpunkt in Bunkyō.","description_full":"Pachinko Street ist ein Vergnügungs- und Unterweltschwerpunkt in Bunkyō. Die Position ist auf den belegten Stadt- oder Teilraum angenähert; eine hausgenaue Lage und eine weitergehende eigene Fließtextbeschreibung sind aus dem zugeordneten Datenmaterial nicht sicher ableitbar.","description_source":"Pachinko Street (Bunkyo)","description_kind":"Ortsprofil","description_has_more":true,"detail_plans":[],"alternate_locations":[],"sources":[{"bookId":"sr4-corporate-enclaves","title":"Corporate Enclaves","edition":"SR4","citation":"Pachinko Street (Bunkyo)","purpose":"description"}],"map_sources":[],"editions":["SR4"],"edition_descriptions":{"SR4":{"kind":"Ortsprofil","preview":"Pachinko Street ist ein Vergnügungs- und Unterweltschwerpunkt in Bunkyō.","full":"Pachinko Street ist ein Vergnügungs- und Unterweltschwerpunkt in Bunkyō. Die Position ist auf den belegten Stadt- oder Teilraum angenähert; eine hausgenaue Lage und eine weitergehende eigene Fließtextbeschreibung sind aus dem zugeordneten Datenmaterial nicht sicher ableitbar.","hasMore":true,"hasExcerpt":true,"sources":[{"bookId":"sr4-corporate-enclaves","title":"Corporate Enclaves","edition":"SR4","citation":"Pachinko Street (Bunkyo)","purpose":"description"}]}}}},{"type":"Feature","geometry":null,"properties":{"id":8,"global_id":"neo-tokio:place:8-ranken-ryu","name":"Ranken-Ryū","aliases":[],"category":"Bildung und Kultur","detail_map":"Bunkyō","source_pages":"Ranken-Ryu (Bunkyo)","map_source":"Corporate Enclaves","placement_note":"Keine belastbare Einzelposition; Eintrag bleibt im Katalog","accuracy":"Nur Stadt oder Lore-Teilraum belegt","source_map":"neo-tokio-content","source_panel":"Bunkyō","description_preview":"Die Ranken-Ryū ist eine im Bezirk Bunkyō belegte Schule beziehungsweise Organisation.","description_full":"Die Ranken-Ryū ist eine im Bezirk Bunkyō belegte Schule beziehungsweise Organisation. Die Position ist auf den belegten Stadt- oder Teilraum angenähert; eine hausgenaue Lage und eine weitergehende eigene Fließtextbeschreibung sind aus dem zugeordneten Datenmaterial nicht sicher ableitbar.","description_source":"Ranken-Ryu (Bunkyo)","description_kind":"Ortsprofil","description_has_more":true,"detail_plans":[],"alternate_locations":[],"sources":[{"bookId":"sr4-corporate-enclaves","title":"Corporate Enclaves","edition":"SR4","citation":"Ranken-Ryu (Bunkyo)","purpose":"description"}],"map_sources":[],"editions":["SR4"],"edition_descriptions":{"SR4":{"kind":"Ortsprofil","preview":"Die Ranken-Ryū ist eine im Bezirk Bunkyō belegte Schule beziehungsweise Organisation.","full":"Die Ranken-Ryū ist eine im Bezirk Bunkyō belegte Schule beziehungsweise Organisation. Die Position ist auf den belegten Stadt- oder Teilraum angenähert; eine hausgenaue Lage und eine weitergehende eigene Fließtextbeschreibung sind aus dem zugeordneten Datenmaterial nicht sicher ableitbar.","hasMore":true,"hasExcerpt":true,"sources":[{"bookId":"sr4-corporate-enclaves","title":"Corporate Enclaves","edition":"SR4","citation":"Ranken-Ryu (Bunkyo)","purpose":"description"}]}}}},{"type":"Feature","geometry":{"type":"Point","coordinates":[139.7,35.68]},"properties":{"id":7,"global_id":"neo-tokio:place:7-sub-tokyo","name":"Sub-Tokyo","aliases":[],"category":"Bezirke","detail_map":"Sub-Tokyo","source_pages":"Sub-Tokyo","map_source":"Corporate Enclaves","placement_note":"Geografischer Bezugspunkt des Lore-Distrikts Sub-Tokyo","accuracy":"Lore-Bezirkszentrum; Grenzpolygon noch nicht georeferenziert","source_map":"neo-tokio-content","source_panel":"Sub-Tokyo","description_preview":"Sub-Tokyo bezeichnet die unterirdische Stadt- und Schattenebene unter dem Oberflächenplex.","description_full":"Sub-Tokyo bezeichnet die unterirdische Stadt- und Schattenebene unter dem Oberflächenplex. Die Position ist auf den belegten Stadt- oder Teilraum angenähert; eine hausgenaue Lage und eine weitergehende eigene Fließtextbeschreibung sind aus dem zugeordneten Datenmaterial nicht sicher ableitbar.","description_source":"Sub-Tokyo","description_kind":"Ortsprofil","description_has_more":true,"detail_plans":[],"alternate_locations":[],"sources":[{"bookId":"sr4-corporate-enclaves","title":"Corporate Enclaves","edition":"SR4","citation":"Sub-Tokyo","purpose":"description"}],"map_sources":[],"editions":["SR4"],"edition_descriptions":{"SR4":{"kind":"Ortsprofil","preview":"Sub-Tokyo bezeichnet die unterirdische Stadt- und Schattenebene unter dem Oberflächenplex.","full":"Sub-Tokyo bezeichnet die unterirdische Stadt- und Schattenebene unter dem Oberflächenplex. Die Position ist auf den belegten Stadt- oder Teilraum angenähert; eine hausgenaue Lage und eine weitergehende eigene Fließtextbeschreibung sind aus dem zugeordneten Datenmaterial nicht sicher ableitbar.","hasMore":true,"hasExcerpt":true,"sources":[{"bookId":"sr4-corporate-enclaves","title":"Corporate Enclaves","edition":"SR4","citation":"Sub-Tokyo","purpose":"description"}]}}}},{"type":"Feature","geometry":null,"properties":{"id":15,"global_id":"neo-tokio:place:15-takonashi","name":"Takonashi","aliases":[],"category":"Sonstige Spots","detail_map":"Kanda","source_pages":"Takonashi (Kanda)","map_source":"Corporate Enclaves","placement_note":"Keine belastbare Einzelposition; Eintrag bleibt im Katalog","accuracy":"Nur Stadt oder Lore-Teilraum belegt","source_map":"neo-tokio-content","source_panel":"Kanda","description_preview":"Takonashi ist ein in Kanda belegter lokaler Schauplatz.","description_full":"Takonashi ist ein in Kanda belegter lokaler Schauplatz. Die Position ist auf den belegten Stadt- oder Teilraum angenähert; eine hausgenaue Lage und eine weitergehende eigene Fließtextbeschreibung sind aus dem zugeordneten Datenmaterial nicht sicher ableitbar.","description_source":"Takonashi (Kanda)","description_kind":"Ortsprofil","description_has_more":true,"detail_plans":[],"alternate_locations":[],"sources":[{"bookId":"sr4-corporate-enclaves","title":"Corporate Enclaves","edition":"SR4","citation":"Takonashi (Kanda)","purpose":"description"}],"map_sources":[],"editions":["SR4"],"edition_descriptions":{"SR4":{"kind":"Ortsprofil","preview":"Takonashi ist ein in Kanda belegter lokaler Schauplatz.","full":"Takonashi ist ein in Kanda belegter lokaler Schauplatz. Die Position ist auf den belegten Stadt- oder Teilraum angenähert; eine hausgenaue Lage und eine weitergehende eigene Fließtextbeschreibung sind aus dem zugeordneten Datenmaterial nicht sicher ableitbar.","hasMore":true,"hasExcerpt":true,"sources":[{"bookId":"sr4-corporate-enclaves","title":"Corporate Enclaves","edition":"SR4","citation":"Takonashi (Kanda)","purpose":"description"}]}}}},{"type":"Feature","geometry":null,"properties":{"id":16,"global_id":"neo-tokio:place:16-the-brazilian-market","name":"The Brazilian Market","aliases":[],"category":"Einkaufen","detail_map":"Yokohama","source_pages":"The Brazilian Market (Yokohama)","map_source":"Corporate Enclaves","placement_note":"Keine belastbare Einzelposition; Eintrag bleibt im Katalog","accuracy":"Nur Stadt oder Lore-Teilraum belegt","source_map":"neo-tokio-content","source_panel":"Yokohama","description_preview":"Der Brazilian Market ist ein internationaler Markt- und Szenetreff in Yokohama.","description_full":"Der Brazilian Market ist ein internationaler Markt- und Szenetreff in Yokohama. Die Position ist auf den belegten Stadt- oder Teilraum angenähert; eine hausgenaue Lage und eine weitergehende eigene Fließtextbeschreibung sind aus dem zugeordneten Datenmaterial nicht sicher ableitbar.","description_source":"The Brazilian Market (Yokohama)","description_kind":"Ortsprofil","description_has_more":true,"detail_plans":[],"alternate_locations":[],"sources":[{"bookId":"sr4-corporate-enclaves","title":"Corporate Enclaves","edition":"SR4","citation":"The Brazilian Market (Yokohama)","purpose":"description"}],"map_sources":[],"editions":["SR4"],"edition_descriptions":{"SR4":{"kind":"Ortsprofil","preview":"Der Brazilian Market ist ein internationaler Markt- und Szenetreff in Yokohama.","full":"Der Brazilian Market ist ein internationaler Markt- und Szenetreff in Yokohama. Die Position ist auf den belegten Stadt- oder Teilraum angenähert; eine hausgenaue Lage und eine weitergehende eigene Fließtextbeschreibung sind aus dem zugeordneten Datenmaterial nicht sicher ableitbar.","hasMore":true,"hasExcerpt":true,"sources":[{"bookId":"sr4-corporate-enclaves","title":"Corporate Enclaves","edition":"SR4","citation":"The Brazilian Market (Yokohama)","purpose":"description"}]}}}},{"type":"Feature","geometry":null,"properties":{"id":9,"global_id":"neo-tokio:place:9-the-cube-tokyo","name":"The Cube Tokyo","aliases":[],"category":"Sonstige Spots","detail_map":"Neo-Tokio","source_pages":"The Cube, Tokyo","map_source":"Run Faster (1st Printing)","placement_note":"Keine belastbare Einzelposition; Eintrag bleibt im Katalog","accuracy":"Nur Stadt oder Lore-Teilraum belegt","source_map":"neo-tokio-content","source_panel":"Neo-Tokio","description_preview":"The Cube ist ein hochverdichteter urbaner Wohn- und Szenestandort.","description_full":"The Cube ist ein hochverdichteter urbaner Wohn- und Szenestandort. Die Position ist auf den belegten Stadt- oder Teilraum angenähert; eine hausgenaue Lage und eine weitergehende eigene Fließtextbeschreibung sind aus dem zugeordneten Datenmaterial nicht sicher ableitbar.","description_source":"The Cube, Tokyo","description_kind":"Ortsprofil","description_has_more":true,"detail_plans":[],"alternate_locations":[],"sources":[{"bookId":"sr5-run-faster-1st-printing","title":"Run Faster (1st Printing)","edition":"SR5","citation":"The Cube, Tokyo","purpose":"description"}],"map_sources":[],"editions":["SR5"],"edition_descriptions":{"SR5":{"kind":"Ortsprofil","preview":"The Cube ist ein hochverdichteter urbaner Wohn- und Szenestandort.","full":"The Cube ist ein hochverdichteter urbaner Wohn- und Szenestandort. Die Position ist auf den belegten Stadt- oder Teilraum angenähert; eine hausgenaue Lage und eine weitergehende eigene Fließtextbeschreibung sind aus dem zugeordneten Datenmaterial nicht sicher ableitbar.","hasMore":true,"hasExcerpt":true,"sources":[{"bookId":"sr5-run-faster-1st-printing","title":"Run Faster (1st Printing)","edition":"SR5","citation":"The Cube, Tokyo","purpose":"description"}]}}}},{"type":"Feature","geometry":{"type":"Point","coordinates":[139.716,35.726]},"properties":{"id":6,"global_id":"neo-tokio:place:6-toshima","name":"Toshima","aliases":[],"category":"Bezirke","detail_map":"Toshima","source_pages":"Toshima","map_source":"Corporate Enclaves","placement_note":"Geografischer Bezugspunkt des Lore-Distrikts Toshima","accuracy":"Lore-Bezirkszentrum; Grenzpolygon noch nicht georeferenziert","source_map":"neo-tokio-content","source_panel":"Toshima","description_preview":"Toshima ist ein dichter urbaner Teilraum und Standort des Neo-Tokyo Tower.","description_full":"Toshima ist ein dichter urbaner Teilraum und Standort des Neo-Tokyo Tower. Die Position ist auf den belegten Stadt- oder Teilraum angenähert; eine hausgenaue Lage und eine weitergehende eigene Fließtextbeschreibung sind aus dem zugeordneten Datenmaterial nicht sicher ableitbar.","description_source":"Toshima","description_kind":"Ortsprofil","description_has_more":true,"detail_plans":[],"alternate_locations":[],"sources":[{"bookId":"sr4-corporate-enclaves","title":"Corporate Enclaves","edition":"SR4","citation":"Toshima","purpose":"description"}],"map_sources":[],"editions":["SR4"],"edition_descriptions":{"SR4":{"kind":"Ortsprofil","preview":"Toshima ist ein dichter urbaner Teilraum und Standort des Neo-Tokyo Tower.","full":"Toshima ist ein dichter urbaner Teilraum und Standort des Neo-Tokyo Tower. Die Position ist auf den belegten Stadt- oder Teilraum angenähert; eine hausgenaue Lage und eine weitergehende eigene Fließtextbeschreibung sind aus dem zugeordneten Datenmaterial nicht sicher ableitbar.","hasMore":true,"hasExcerpt":true,"sources":[{"bookId":"sr4-corporate-enclaves","title":"Corporate Enclaves","edition":"SR4","citation":"Toshima","purpose":"description"}]}}}},{"type":"Feature","geometry":{"type":"Point","coordinates":[139.774,35.715]},"properties":{"id":17,"global_id":"neo-tokio:place:17-ueno-park","name":"Ueno Park","aliases":[],"category":"Freizeit und Natur","detail_map":"Neo-Tokio","source_pages":"Ueno Park","map_source":"Corporate Enclaves","placement_note":"Erhaltener geographischer Bezugspunkt","accuracy":"Geographischer Bezugspunkt","source_map":"neo-tokio-content","source_panel":"Neo-Tokio","description_preview":"Ueno Park ist ein großer Kultur-, Freizeit- und öffentlicher Raum.","description_full":"Ueno Park ist ein großer Kultur-, Freizeit- und öffentlicher Raum. Die Position folgt einem erhaltenen heutigen Bezugspunkt.","description_source":"Ueno Park","description_kind":"Ortsprofil","description_has_more":true,"detail_plans":[],"alternate_locations":[],"sources":[{"bookId":"sr4-corporate-enclaves","title":"Corporate Enclaves","edition":"SR4","citation":"Ueno Park","purpose":"description"}],"map_sources":[],"editions":["SR4"],"edition_descriptions":{"SR4":{"kind":"Ortsprofil","preview":"Ueno Park ist ein großer Kultur-, Freizeit- und öffentlicher Raum.","full":"Ueno Park ist ein großer Kultur-, Freizeit- und öffentlicher Raum. Die Position folgt einem erhaltenen heutigen Bezugspunkt.","hasMore":true,"hasExcerpt":true,"sources":[{"bookId":"sr4-corporate-enclaves","title":"Corporate Enclaves","edition":"SR4","citation":"Ueno Park","purpose":"description"}]}}}},{"type":"Feature","geometry":null,"properties":{"id":10,"global_id":"neo-tokio:place:10-yokogawa-incorporated","name":"Yokogawa Incorporated","aliases":[],"category":"Konzerne","detail_map":"Yokohama","source_pages":"Yokogawa Incorporated","map_source":"Corporate Enclaves","placement_note":"Keine belastbare Einzelposition; Eintrag bleibt im Katalog","accuracy":"Nur Stadt oder Lore-Teilraum belegt","source_map":"neo-tokio-content","source_panel":"Yokohama","description_preview":"Yokogawa ist als wichtiger Konzernakteur im Neo-Tokio-Plex belegt.","description_full":"Yokogawa ist als wichtiger Konzernakteur im Neo-Tokio-Plex belegt. Die Position ist auf den belegten Stadt- oder Teilraum angenähert; eine hausgenaue Lage und eine weitergehende eigene Fließtextbeschreibung sind aus dem zugeordneten Datenmaterial nicht sicher ableitbar.","description_source":"Yokogawa Incorporated","description_kind":"Ortsprofil","description_has_more":true,"detail_plans":[],"alternate_locations":[],"sources":[{"bookId":"sr4-corporate-enclaves","title":"Corporate Enclaves","edition":"SR4","citation":"Yokogawa Incorporated","purpose":"description"}],"map_sources":[],"editions":["SR4"],"edition_descriptions":{"SR4":{"kind":"Ortsprofil","preview":"Yokogawa ist als wichtiger Konzernakteur im Neo-Tokio-Plex belegt.","full":"Yokogawa ist als wichtiger Konzernakteur im Neo-Tokio-Plex belegt. Die Position ist auf den belegten Stadt- oder Teilraum angenähert; eine hausgenaue Lage und eine weitergehende eigene Fließtextbeschreibung sind aus dem zugeordneten Datenmaterial nicht sicher ableitbar.","hasMore":true,"hasExcerpt":true,"sources":[{"bookId":"sr4-corporate-enclaves","title":"Corporate Enclaves","edition":"SR4","citation":"Yokogawa Incorporated","purpose":"description"}]}}}},{"type":"Feature","geometry":{"type":"Point","coordinates":[139.638,35.444]},"properties":{"id":3,"global_id":"neo-tokio:place:3-yokohama","name":"Yokohama","aliases":[],"category":"Bezirke","detail_map":"Yokohama","source_pages":"Kapitel Neo-Tokyo","map_source":"Corporate Enclaves","placement_note":"Geografischer Bezugspunkt des Lore-Distrikts Yokohama","accuracy":"Lore-Bezirkszentrum; Grenzpolygon noch nicht georeferenziert","source_map":"neo-tokio-content","source_panel":"Yokohama","description_preview":"Yokohama ist ein südlicher Hafen- und Konzernschwerpunkt des Großraums.","description_full":"Yokohama ist ein südlicher Hafen- und Konzernschwerpunkt des Großraums. Die Position ist auf den belegten Stadt- oder Teilraum angenähert; eine hausgenaue Lage und eine weitergehende eigene Fließtextbeschreibung sind aus dem zugeordneten Datenmaterial nicht sicher ableitbar.","description_source":"Kapitel Neo-Tokyo","description_kind":"Ortsprofil","description_has_more":true,"detail_plans":[],"alternate_locations":[],"sources":[{"bookId":"sr4-corporate-enclaves","title":"Corporate Enclaves","edition":"SR4","citation":"Kapitel Neo-Tokyo","purpose":"description"}],"map_sources":[],"editions":["SR4"],"edition_descriptions":{"SR4":{"kind":"Ortsprofil","preview":"Yokohama ist ein südlicher Hafen- und Konzernschwerpunkt des Großraums.","full":"Yokohama ist ein südlicher Hafen- und Konzernschwerpunkt des Großraums. Die Position ist auf den belegten Stadt- oder Teilraum angenähert; eine hausgenaue Lage und eine weitergehende eigene Fließtextbeschreibung sind aus dem zugeordneten Datenmaterial nicht sicher ableitbar.","hasMore":true,"hasExcerpt":true,"sources":[{"bookId":"sr4-corporate-enclaves","title":"Corporate Enclaves","edition":"SR4","citation":"Kapitel Neo-Tokyo","purpose":"description"}]}}}}]}
