{"type":"FeatureCollection","name":"Neo-Tokio – geprüfte zusätzliche Quellenorte","features":[{"type":"Feature","geometry":null,"properties":{"id":18,"global_id":"neo-tokio:source-place:comprachico-clinic-toshima","name":"Comprachico Clinic (Toshima)","aliases":[],"category":"Medizin und Versorgung","detail_map":"Neo-Tokio","source_pages":"Textzeile 9184","map_source":"Corporate Enclaves","placement_note":"Keine belastbare Einzelposition; Eintrag bleibt im Katalog","accuracy":"Nur Stadt oder Lore-Teilraum belegt","source_map":"source-supplement","source_panel":"Neo-Tokio","description_preview":"Comprachico Clinic (Toshima) ist in Corporate Enclaves als benannter Schauplatz mit Bezug zu Neo-Tokio belegt.","description_full":"Comprachico Clinic (Toshima) ist in Corporate Enclaves als benannter Schauplatz mit Bezug zu Neo-Tokio belegt. Das Dossier fasst den belegten Quellenstand redaktionell zusammen; eine nicht belegte Kartenposition wird nicht ergänzt.","description_source":"Textzeile 9184","description_kind":"Ortsdossier","description_has_more":true,"detail_plans":[],"alternate_locations":[],"sources":[{"bookId":"sr4-corporate-enclaves","title":"Corporate Enclaves","edition":"SR4","citation":"Textzeile 9184","purpose":"description"}],"map_sources":[],"editions":["SR4"],"edition_descriptions":{"SR4":{"kind":"Ortsdossier","preview":"Comprachico Clinic (Toshima) ist in Corporate Enclaves als benannter Schauplatz mit Bezug zu Neo-Tokio belegt.","full":"Comprachico Clinic (Toshima) ist in Corporate Enclaves als benannter Schauplatz mit Bezug zu Neo-Tokio belegt. Das Dossier fasst den belegten Quellenstand redaktionell zusammen; eine nicht belegte Kartenposition wird nicht ergänzt.","hasMore":true,"hasExcerpt":true,"sources":[{"bookId":"sr4-corporate-enclaves","title":"Corporate Enclaves","edition":"SR4","citation":"Textzeile 9184","purpose":"description"}]}}}},{"type":"Feature","geometry":null,"properties":{"id":19,"global_id":"neo-tokio:source-place:der-brasilianische-markt","name":"Der Brasilianische Markt","aliases":[],"category":"Sonstige Spots","detail_map":"Neo-Tokio","source_pages":"Textzeile 9558","map_source":"Konzernenklaven","placement_note":"Keine belastbare Einzelposition; Eintrag bleibt im Katalog","accuracy":"Nur Stadt oder Lore-Teilraum belegt","source_map":"source-supplement","source_panel":"Neo-Tokio","description_preview":"Der Brasilianische Markt ist in Konzernenklaven als benannter Schauplatz mit Bezug zu Neo-Tokio belegt.","description_full":"Der Brasilianische Markt ist in Konzernenklaven als benannter Schauplatz mit Bezug zu Neo-Tokio belegt. Das Dossier fasst den belegten Quellenstand redaktionell zusammen; eine nicht belegte Kartenposition wird nicht ergänzt.","description_source":"Textzeile 9558","description_kind":"Ortsdossier","description_has_more":true,"detail_plans":[],"alternate_locations":[],"sources":[{"bookId":"sr4-konzernenklaven","title":"Konzernenklaven","edition":"SR4","citation":"Textzeile 9558","purpose":"description"}],"map_sources":[],"editions":["SR4"],"edition_descriptions":{"SR4":{"kind":"Ortsdossier","preview":"Der Brasilianische Markt ist in Konzernenklaven als benannter Schauplatz mit Bezug zu Neo-Tokio belegt.","full":"Der Brasilianische Markt ist in Konzernenklaven als benannter Schauplatz mit Bezug zu Neo-Tokio belegt. Das Dossier fasst den belegten Quellenstand redaktionell zusammen; eine nicht belegte Kartenposition wird nicht ergänzt.","hasMore":true,"hasExcerpt":true,"sources":[{"bookId":"sr4-konzernenklaven","title":"Konzernenklaven","edition":"SR4","citation":"Textzeile 9558","purpose":"description"}]}}}},{"type":"Feature","geometry":null,"properties":{"id":20,"global_id":"neo-tokio:source-place:der-neo-tokio-tower-toshima","name":"Der Neo-Tokio Tower (Toshima)","aliases":[],"category":"Konzerne und markante Bauwerke","detail_map":"Neo-Tokio","source_pages":"Textzeile 10145","map_source":"Konzernenklaven","placement_note":"Keine belastbare Einzelposition; Eintrag bleibt im Katalog","accuracy":"Nur Stadt oder Lore-Teilraum belegt","source_map":"source-supplement","source_panel":"Neo-Tokio","description_preview":"Der Neo-Tokio Tower (Toshima) ist in Konzernenklaven als benannter Schauplatz mit Bezug zu Neo-Tokio belegt.","description_full":"Der Neo-Tokio Tower (Toshima) ist in Konzernenklaven als benannter Schauplatz mit Bezug zu Neo-Tokio belegt. Das Dossier fasst den belegten Quellenstand redaktionell zusammen; eine nicht belegte Kartenposition wird nicht ergänzt.","description_source":"Textzeile 10145","description_kind":"Ortsdossier","description_has_more":true,"detail_plans":[],"alternate_locations":[],"sources":[{"bookId":"sr4-konzernenklaven","title":"Konzernenklaven","edition":"SR4","citation":"Textzeile 10145","purpose":"description"}],"map_sources":[],"editions":["SR4"],"edition_descriptions":{"SR4":{"kind":"Ortsdossier","preview":"Der Neo-Tokio Tower (Toshima) ist in Konzernenklaven als benannter Schauplatz mit Bezug zu Neo-Tokio belegt.","full":"Der Neo-Tokio Tower (Toshima) ist in Konzernenklaven als benannter Schauplatz mit Bezug zu Neo-Tokio belegt. Das Dossier fasst den belegten Quellenstand redaktionell zusammen; eine nicht belegte Kartenposition wird nicht ergänzt.","hasMore":true,"hasExcerpt":true,"sources":[{"bookId":"sr4-konzernenklaven","title":"Konzernenklaven","edition":"SR4","citation":"Textzeile 10145","purpose":"description"}]}}}},{"type":"Feature","geometry":null,"properties":{"id":21,"global_id":"neo-tokio:source-place:hisato-turner-broadcasting-headquarters","name":"Hisato-Turner Broadcasting Headquarters","aliases":[],"category":"Konzerne und markante Bauwerke","detail_map":"Neo-Tokio","source_pages":"Textzeile 3598","map_source":"Horizon Adventure 2 - Anarchy Subsidized","placement_note":"Keine belastbare Einzelposition; Eintrag bleibt im Katalog","accuracy":"Nur Stadt oder Lore-Teilraum belegt","source_map":"source-supplement","source_panel":"Neo-Tokio","description_preview":"Hisato-Turner Broadcasting Headquarters ist in Horizon Adventure 2 - Anarchy Subsidized als benannter Schauplatz mit Bezug zu Neo-Tokio belegt.","description_full":"Hisato-Turner Broadcasting Headquarters ist in Horizon Adventure 2 - Anarchy Subsidized als benannter Schauplatz mit Bezug zu Neo-Tokio belegt. Das Dossier fasst den belegten Quellenstand redaktionell zusammen; eine nicht belegte Kartenposition wird nicht ergänzt.","description_source":"Textzeile 3598","description_kind":"Ortsdossier","description_has_more":true,"detail_plans":[],"alternate_locations":[],"sources":[{"bookId":"sr4-horizon-adventure-2-anarchy-subsidized","title":"Horizon Adventure 2 - Anarchy Subsidized","edition":"SR4","citation":"Textzeile 3598","purpose":"description"}],"map_sources":[],"editions":["SR4"],"edition_descriptions":{"SR4":{"kind":"Ortsdossier","preview":"Hisato-Turner Broadcasting Headquarters ist in Horizon Adventure 2 - Anarchy Subsidized als benannter Schauplatz mit Bezug zu Neo-Tokio belegt.","full":"Hisato-Turner Broadcasting Headquarters ist in Horizon Adventure 2 - Anarchy Subsidized als benannter Schauplatz mit Bezug zu Neo-Tokio belegt. Das Dossier fasst den belegten Quellenstand redaktionell zusammen; eine nicht belegte Kartenposition wird nicht ergänzt.","hasMore":true,"hasExcerpt":true,"sources":[{"bookId":"sr4-horizon-adventure-2-anarchy-subsidized","title":"Horizon Adventure 2 - Anarchy Subsidized","edition":"SR4","citation":"Textzeile 3598","purpose":"description"}]}}}},{"type":"Feature","geometry":null,"properties":{"id":22,"global_id":"neo-tokio:source-place:shinjuku-station","name":"Shinjuku Station","aliases":[],"category":"Verkehr und Infrastruktur","detail_map":"Neo-Tokio","source_pages":"Textzeile 3123","map_source":"Horizon Adventure 2 - Anarchy Subsidized","placement_note":"Keine belastbare Einzelposition; Eintrag bleibt im Katalog","accuracy":"Nur Stadt oder Lore-Teilraum belegt","source_map":"source-supplement","source_panel":"Neo-Tokio","description_preview":"Shinjuku Station ist in Horizon Adventure 2 - Anarchy Subsidized als benannter Schauplatz mit Bezug zu Neo-Tokio belegt.","description_full":"Shinjuku Station ist in Horizon Adventure 2 - Anarchy Subsidized als benannter Schauplatz mit Bezug zu Neo-Tokio belegt. Das Dossier fasst den belegten Quellenstand redaktionell zusammen; eine nicht belegte Kartenposition wird nicht ergänzt.","description_source":"Textzeile 3123","description_kind":"Ortsdossier","description_has_more":true,"detail_plans":[],"alternate_locations":[],"sources":[{"bookId":"sr4-horizon-adventure-2-anarchy-subsidized","title":"Horizon Adventure 2 - Anarchy Subsidized","edition":"SR4","citation":"Textzeile 3123","purpose":"description"}],"map_sources":[],"editions":["SR4"],"edition_descriptions":{"SR4":{"kind":"Ortsdossier","preview":"Shinjuku Station ist in Horizon Adventure 2 - Anarchy Subsidized als benannter Schauplatz mit Bezug zu Neo-Tokio belegt.","full":"Shinjuku Station ist in Horizon Adventure 2 - Anarchy Subsidized als benannter Schauplatz mit Bezug zu Neo-Tokio belegt. Das Dossier fasst den belegten Quellenstand redaktionell zusammen; eine nicht belegte Kartenposition wird nicht ergänzt.","hasMore":true,"hasExcerpt":true,"sources":[{"bookId":"sr4-horizon-adventure-2-anarchy-subsidized","title":"Horizon Adventure 2 - Anarchy Subsidized","edition":"SR4","citation":"Textzeile 3123","purpose":"description"}]}}}},{"type":"Feature","geometry":null,"properties":{"id":23,"global_id":"neo-tokio:source-place:the-neo-gnats-fuchi-arkologie-neo-tokio","name":"The Neo-Gnats (Fuchi-Arkologie, Neo-Tokio)","aliases":[],"category":"Konzerne und markante Bauwerke","detail_map":"Neo-Tokio","source_pages":"Textzeile 5154","map_source":"Lifestyle 2080","placement_note":"Keine belastbare Einzelposition; Eintrag bleibt im Katalog","accuracy":"Nur Stadt oder Lore-Teilraum belegt","source_map":"source-supplement","source_panel":"Neo-Tokio","description_preview":"The Neo-Gnats (Fuchi-Arkologie, Neo-Tokio) ist in Lifestyle 2080 als benannter Schauplatz mit Bezug zu Neo-Tokio belegt.","description_full":"The Neo-Gnats (Fuchi-Arkologie, Neo-Tokio) ist in Lifestyle 2080 als benannter Schauplatz mit Bezug zu Neo-Tokio belegt. Das Dossier fasst den belegten Quellenstand redaktionell zusammen; eine nicht belegte Kartenposition wird nicht ergänzt.","description_source":"Textzeile 5154","description_kind":"Ortsdossier","description_has_more":true,"detail_plans":[],"alternate_locations":[],"sources":[{"bookId":"sr5-lifestyle-2080","title":"Lifestyle 2080","edition":"SR5","citation":"Textzeile 5154","purpose":"description"},{"bookId":"sr5-lifestyle-2080-kultur","title":"Lifestyle 2080 [Kultur]","edition":"SR5","citation":"Textzeile 5155","purpose":"description"}],"map_sources":[],"editions":["SR5"],"edition_descriptions":{"SR5":{"kind":"Ortsdossier","preview":"The Neo-Gnats (Fuchi-Arkologie, Neo-Tokio) ist in Lifestyle 2080 als benannter Schauplatz mit Bezug zu Neo-Tokio belegt.","full":"The Neo-Gnats (Fuchi-Arkologie, Neo-Tokio) ist in Lifestyle 2080 als benannter Schauplatz mit Bezug zu Neo-Tokio belegt. Das Dossier fasst den belegten Quellenstand redaktionell zusammen; eine nicht belegte Kartenposition wird nicht ergänzt.","hasMore":true,"hasExcerpt":true,"sources":[{"bookId":"sr5-lifestyle-2080","title":"Lifestyle 2080","edition":"SR5","citation":"Textzeile 5154","purpose":"description"},{"bookId":"sr5-lifestyle-2080-kultur","title":"Lifestyle 2080 [Kultur]","edition":"SR5","citation":"Textzeile 5155","purpose":"description"}]}}}}]}
