{"type":"FeatureCollection","name":"Manila Orte","features":[{"type":"Feature","geometry":{"type":"Point","coordinates":[120.9842,14.5995]},"properties":{"id":1,"global_id":"manila:place:1-manila-lore-raum","name":"Manila Lore-Raum","aliases":[],"category":"Bezirke","detail_map":"Manila Lore-Raum","source_pages":"Stadt- oder Regionalkapitel","map_source":"Shadows of Asia","placement_note":"Geografischer Bezugspunkt des Lore-Distrikts Manila Lore-Raum","accuracy":"Lore-Bezirkszentrum; Grenzpolygon noch nicht georeferenziert","source_map":"manila-content","source_panel":"Manila Lore-Raum","description_preview":"Manila ist ein dichter philippinischer Hafen-, Medien-, Industrie- und Machtplex.","description_full":"Manila ist ein dichter philippinischer Hafen-, Medien-, Industrie- und Machtplex. Die Position ist auf den belegten Stadt- oder Teilraum angenähert; eine hausgenaue Lage und eine weitergehende eigene Fließtextbeschreibung sind aus dem zugeordneten Datenmaterial nicht sicher ableitbar.","description_source":"Stadt- oder Regionalkapitel","description_kind":"Ortsprofil","description_has_more":true,"detail_plans":[],"alternate_locations":[],"sources":[{"bookId":"sr3-shadows-of-asia","title":"Shadows of Asia","edition":"SR3","citation":"Stadt- oder Regionalkapitel","purpose":"description"}],"map_sources":[],"editions":["SR3"],"edition_descriptions":{"SR3":{"kind":"Ortsprofil","preview":"Manila ist ein dichter philippinischer Hafen-, Medien-, Industrie- und Machtplex.","full":"Manila ist ein dichter philippinischer Hafen-, Medien-, Industrie- und Machtplex. Die Position ist auf den belegten Stadt- oder Teilraum angenähert; eine hausgenaue Lage und eine weitergehende eigene Fließtextbeschreibung sind aus dem zugeordneten Datenmaterial nicht sicher ableitbar.","hasMore":true,"hasExcerpt":true,"sources":[{"bookId":"sr3-shadows-of-asia","title":"Shadows of Asia","edition":"SR3","citation":"Stadt- oder Regionalkapitel","purpose":"description"}]}}}}]}
