{"type":"FeatureCollection","name":"Johannesburg Orte","features":[{"type":"Feature","geometry":null,"properties":{"id":2,"global_id":"johannesburg:place:2-ekurhuleni-west-rand","name":"Ekurhuleni / West Rand","aliases":[],"category":"Stadtteile","detail_map":"Johannesburg","source_pages":"Ekurhuleni, West Rand","map_source":"Better Than Bad","placement_note":"Keine belastbare Einzelposition; Eintrag bleibt im Katalog","accuracy":"Nur Stadt oder Lore-Teilraum belegt","source_map":"johannesburg-content","source_panel":"Johannesburg","description_preview":"Ekurhuleni und West Rand bilden wichtige Teilräume des Megaplexes.","description_full":"Ekurhuleni und West Rand bilden wichtige Teilräume des Megaplexes. Die Position ist auf den belegten Stadt- oder Teilraum angenähert; eine hausgenaue Lage und eine weitergehende eigene Fließtextbeschreibung sind aus dem zugeordneten Datenmaterial nicht sicher ableitbar.","description_source":"Ekurhuleni, West Rand","description_kind":"Ortsprofil","description_has_more":true,"detail_plans":[],"alternate_locations":[],"sources":[{"bookId":"sr5-better-than-bad","title":"Better Than Bad","edition":"SR5","citation":"Ekurhuleni, West Rand","purpose":"description"}],"map_sources":[],"editions":["SR5"],"edition_descriptions":{"SR5":{"kind":"Ortsprofil","preview":"Ekurhuleni und West Rand bilden wichtige Teilräume des Megaplexes.","full":"Ekurhuleni und West Rand bilden wichtige Teilräume des Megaplexes. Die Position ist auf den belegten Stadt- oder Teilraum angenähert; eine hausgenaue Lage und eine weitergehende eigene Fließtextbeschreibung sind aus dem zugeordneten Datenmaterial nicht sicher ableitbar.","hasMore":true,"hasExcerpt":true,"sources":[{"bookId":"sr5-better-than-bad","title":"Better Than Bad","edition":"SR5","citation":"Ekurhuleni, West Rand","purpose":"description"}]}}}},{"type":"Feature","geometry":{"type":"Point","coordinates":[28.0473,-26.2041]},"properties":{"id":1,"global_id":"johannesburg:place:1-johannesburg-lore-raum","name":"Johannesburg Lore-Raum","aliases":[],"category":"Bezirke","detail_map":"Johannesburg Lore-Raum","source_pages":"Stadt- oder Regionalkapitel","map_source":"Better Than Bad","placement_note":"Geografischer Bezugspunkt des Lore-Distrikts Johannesburg Lore-Raum","accuracy":"Lore-Bezirkszentrum; Grenzpolygon noch nicht georeferenziert","source_map":"johannesburg-content","source_panel":"Johannesburg Lore-Raum","description_preview":"Johannesburg ist ein südafrikanischer Megaplex aus reichen Konzernräumen, Townships und stark gemischten Bevölkerungszentren.","description_full":"Johannesburg ist ein südafrikanischer Megaplex aus reichen Konzernräumen, Townships und stark gemischten Bevölkerungszentren. Die Position ist auf den belegten Stadt- oder Teilraum angenähert; eine hausgenaue Lage und eine weitergehende eigene Fließtextbeschreibung sind aus dem zugeordneten Datenmaterial nicht sicher ableitbar.","description_source":"Stadt- oder Regionalkapitel","description_kind":"Ortsprofil","description_has_more":true,"detail_plans":[],"alternate_locations":[],"sources":[{"bookId":"sr5-better-than-bad","title":"Better Than Bad","edition":"SR5","citation":"Stadt- oder Regionalkapitel","purpose":"description"}],"map_sources":[],"editions":["SR5"],"edition_descriptions":{"SR5":{"kind":"Ortsprofil","preview":"Johannesburg ist ein südafrikanischer Megaplex aus reichen Konzernräumen, Townships und stark gemischten Bevölkerungszentren.","full":"Johannesburg ist ein südafrikanischer Megaplex aus reichen Konzernräumen, Townships und stark gemischten Bevölkerungszentren. Die Position ist auf den belegten Stadt- oder Teilraum angenähert; eine hausgenaue Lage und eine weitergehende eigene Fließtextbeschreibung sind aus dem zugeordneten Datenmaterial nicht sicher ableitbar.","hasMore":true,"hasExcerpt":true,"sources":[{"bookId":"sr5-better-than-bad","title":"Better Than Bad","edition":"SR5","citation":"Stadt- oder Regionalkapitel","purpose":"description"}]}}}}]}
