{"type":"FeatureCollection","name":"San Francisco Metroplex Orte","features":[{"type":"Feature","geometry":{"type":"Point","coordinates":[-122.401,37.789]},"properties":{"id":1,"global_id":"san-francisco:place:1-downtown-san-francisco","name":"Downtown San Francisco","aliases":[],"category":"Bezirke","detail_map":"Downtown San Francisco","source_pages":"Kapitel Downtown","map_source":"Shadows in Focus - City by Shadow - San Francisco Metroplex","placement_note":"Geografischer Bezugspunkt des Lore-Distrikts Downtown San Francisco","accuracy":"Lore-Bezirkszentrum; Grenzpolygon noch nicht georeferenziert","source_map":"san-francisco-content","source_panel":"Downtown San Francisco","description_preview":"Downtown ist Finanz-, Konzern- und Verwaltungskern des Metroplexes.","description_full":"Downtown ist Finanz-, Konzern- und Verwaltungskern des Metroplexes. Die Position ist auf den belegten Stadt- oder Teilraum angenähert; eine hausgenaue Lage und eine weitergehende eigene Fließtextbeschreibung sind aus dem zugeordneten Datenmaterial nicht sicher ableitbar.","description_source":"Kapitel Downtown","description_kind":"Ortsprofil","description_has_more":true,"detail_plans":[],"alternate_locations":[],"sources":[{"bookId":"sr5-shadows-in-focus-city-by-shadow-san-francisco-metroplex","title":"Shadows in Focus - City by Shadow - San Francisco Metroplex","edition":"SR5","citation":"Kapitel Downtown","purpose":"description"}],"map_sources":[],"editions":["SR5"],"edition_descriptions":{"SR5":{"kind":"Ortsprofil","preview":"Downtown ist Finanz-, Konzern- und Verwaltungskern des Metroplexes.","full":"Downtown ist Finanz-, Konzern- und Verwaltungskern des Metroplexes. Die Position ist auf den belegten Stadt- oder Teilraum angenähert; eine hausgenaue Lage und eine weitergehende eigene Fließtextbeschreibung sind aus dem zugeordneten Datenmaterial nicht sicher ableitbar.","hasMore":true,"hasExcerpt":true,"sources":[{"bookId":"sr5-shadows-in-focus-city-by-shadow-san-francisco-metroplex","title":"Shadows in Focus - City by Shadow - San Francisco Metroplex","edition":"SR5","citation":"Kapitel Downtown","purpose":"description"}]}}}},{"type":"Feature","geometry":null,"properties":{"id":4,"global_id":"san-francisco:place:4-neonet-san-francisco","name":"NeoNET San Francisco","aliases":[],"category":"Konzerne","detail_map":"Downtown San Francisco","source_pages":"Konzernprofil NeoNET","map_source":"Shadows in Focus - City by Shadow - San Francisco Metroplex","placement_note":"Keine belastbare Einzelposition; Eintrag bleibt im Katalog","accuracy":"Nur Stadt oder Lore-Teilraum belegt","source_map":"san-francisco-content","source_panel":"Downtown San Francisco","description_preview":"NeoNET unterhält einen wichtigen Standort im San-Francisco-Metroplex.","description_full":"NeoNET unterhält einen wichtigen Standort im San-Francisco-Metroplex. Die Position ist auf den belegten Stadt- oder Teilraum angenähert; eine hausgenaue Lage und eine weitergehende eigene Fließtextbeschreibung sind aus dem zugeordneten Datenmaterial nicht sicher ableitbar.","description_source":"Konzernprofil NeoNET","description_kind":"Ortsprofil","description_has_more":true,"detail_plans":[],"alternate_locations":[],"sources":[{"bookId":"sr5-shadows-in-focus-city-by-shadow-san-francisco-metroplex","title":"Shadows in Focus - City by Shadow - San Francisco Metroplex","edition":"SR5","citation":"Konzernprofil NeoNET","purpose":"description"}],"map_sources":[],"editions":["SR5"],"edition_descriptions":{"SR5":{"kind":"Ortsprofil","preview":"NeoNET unterhält einen wichtigen Standort im San-Francisco-Metroplex.","full":"NeoNET unterhält einen wichtigen Standort im San-Francisco-Metroplex. Die Position ist auf den belegten Stadt- oder Teilraum angenähert; eine hausgenaue Lage und eine weitergehende eigene Fließtextbeschreibung sind aus dem zugeordneten Datenmaterial nicht sicher ableitbar.","hasMore":true,"hasExcerpt":true,"sources":[{"bookId":"sr5-shadows-in-focus-city-by-shadow-san-francisco-metroplex","title":"Shadows in Focus - City by Shadow - San Francisco Metroplex","edition":"SR5","citation":"Konzernprofil NeoNET","purpose":"description"}]}}}},{"type":"Feature","geometry":{"type":"Point","coordinates":[-122.271,37.804]},"properties":{"id":2,"global_id":"san-francisco:place:2-oakland","name":"Oakland","aliases":[],"category":"Bezirke","detail_map":"Oakland","source_pages":"Kapitel Oakland","map_source":"Shadows in Focus - City by Shadow - San Francisco Metroplex","placement_note":"Geografischer Bezugspunkt des Lore-Distrikts Oakland","accuracy":"Lore-Bezirkszentrum; Grenzpolygon noch nicht georeferenziert","source_map":"san-francisco-content","source_panel":"Oakland","description_preview":"Oakland ist ein eigenständiger östlicher Teilraum mit Industrie, Hafen und ausgeprägter Straßenszene.","description_full":"Oakland ist ein eigenständiger östlicher Teilraum mit Industrie, Hafen und ausgeprägter Straßenszene. Die Position ist auf den belegten Stadt- oder Teilraum angenähert; eine hausgenaue Lage und eine weitergehende eigene Fließtextbeschreibung sind aus dem zugeordneten Datenmaterial nicht sicher ableitbar.","description_source":"Kapitel Oakland","description_kind":"Ortsprofil","description_has_more":true,"detail_plans":[],"alternate_locations":[],"sources":[{"bookId":"sr5-shadows-in-focus-city-by-shadow-san-francisco-metroplex","title":"Shadows in Focus - City by Shadow - San Francisco Metroplex","edition":"SR5","citation":"Kapitel Oakland","purpose":"description"}],"map_sources":[],"editions":["SR5"],"edition_descriptions":{"SR5":{"kind":"Ortsprofil","preview":"Oakland ist ein eigenständiger östlicher Teilraum mit Industrie, Hafen und ausgeprägter Straßenszene.","full":"Oakland ist ein eigenständiger östlicher Teilraum mit Industrie, Hafen und ausgeprägter Straßenszene. Die Position ist auf den belegten Stadt- oder Teilraum angenähert; eine hausgenaue Lage und eine weitergehende eigene Fließtextbeschreibung sind aus dem zugeordneten Datenmaterial nicht sicher ableitbar.","hasMore":true,"hasExcerpt":true,"sources":[{"bookId":"sr5-shadows-in-focus-city-by-shadow-san-francisco-metroplex","title":"Shadows in Focus - City by Shadow - San Francisco Metroplex","edition":"SR5","citation":"Kapitel Oakland","purpose":"description"}]}}}},{"type":"Feature","geometry":{"type":"Point","coordinates":[-122.408,37.654]},"properties":{"id":3,"global_id":"san-francisco:place:3-south-city","name":"South City","aliases":[],"category":"Bezirke","detail_map":"South City","source_pages":"Kapitel South City","map_source":"Shadows in Focus - City by Shadow - San Francisco Metroplex","placement_note":"Geografischer Bezugspunkt des Lore-Distrikts South City","accuracy":"Lore-Bezirkszentrum; Grenzpolygon noch nicht georeferenziert","source_map":"san-francisco-content","source_panel":"South City","description_preview":"South City umfasst die südlichen Industrie-, Wohn- und Verkehrsräume des Plexes.","description_full":"South City umfasst die südlichen Industrie-, Wohn- und Verkehrsräume des Plexes. Die Position ist auf den belegten Stadt- oder Teilraum angenähert; eine hausgenaue Lage und eine weitergehende eigene Fließtextbeschreibung sind aus dem zugeordneten Datenmaterial nicht sicher ableitbar.","description_source":"Kapitel South City","description_kind":"Ortsprofil","description_has_more":true,"detail_plans":[],"alternate_locations":[],"sources":[{"bookId":"sr5-shadows-in-focus-city-by-shadow-san-francisco-metroplex","title":"Shadows in Focus - City by Shadow - San Francisco Metroplex","edition":"SR5","citation":"Kapitel South City","purpose":"description"}],"map_sources":[],"editions":["SR5"],"edition_descriptions":{"SR5":{"kind":"Ortsprofil","preview":"South City umfasst die südlichen Industrie-, Wohn- und Verkehrsräume des Plexes.","full":"South City umfasst die südlichen Industrie-, Wohn- und Verkehrsräume des Plexes. Die Position ist auf den belegten Stadt- oder Teilraum angenähert; eine hausgenaue Lage und eine weitergehende eigene Fließtextbeschreibung sind aus dem zugeordneten Datenmaterial nicht sicher ableitbar.","hasMore":true,"hasExcerpt":true,"sources":[{"bookId":"sr5-shadows-in-focus-city-by-shadow-san-francisco-metroplex","title":"Shadows in Focus - City by Shadow - San Francisco Metroplex","edition":"SR5","citation":"Kapitel South City","purpose":"description"}]}}}},{"type":"Feature","geometry":null,"properties":{"id":6,"global_id":"san-francisco:place:6-the-peoples-university","name":"The People’s University","aliases":[],"category":"Bildung und Kultur","detail_map":"San Francisco Metroplex","source_pages":"The People’s University","map_source":"Shadows in Focus - City by Shadow - San Francisco Metroplex","placement_note":"Keine belastbare Einzelposition; Eintrag bleibt im Katalog","accuracy":"Nur Stadt oder Lore-Teilraum belegt","source_map":"san-francisco-content","source_panel":"San Francisco Metroplex","description_preview":"The People’s University ist ein im Stadtquellenband benannter Bildungsstandort.","description_full":"The People’s University ist ein im Stadtquellenband benannter Bildungsstandort. Die Position ist auf den belegten Stadt- oder Teilraum angenähert; eine hausgenaue Lage und eine weitergehende eigene Fließtextbeschreibung sind aus dem zugeordneten Datenmaterial nicht sicher ableitbar.","description_source":"The People’s University","description_kind":"Ortsprofil","description_has_more":true,"detail_plans":[],"alternate_locations":[],"sources":[{"bookId":"sr5-shadows-in-focus-city-by-shadow-san-francisco-metroplex","title":"Shadows in Focus - City by Shadow - San Francisco Metroplex","edition":"SR5","citation":"The People’s University","purpose":"description"}],"map_sources":[],"editions":["SR5"],"edition_descriptions":{"SR5":{"kind":"Ortsprofil","preview":"The People’s University ist ein im Stadtquellenband benannter Bildungsstandort.","full":"The People’s University ist ein im Stadtquellenband benannter Bildungsstandort. Die Position ist auf den belegten Stadt- oder Teilraum angenähert; eine hausgenaue Lage und eine weitergehende eigene Fließtextbeschreibung sind aus dem zugeordneten Datenmaterial nicht sicher ableitbar.","hasMore":true,"hasExcerpt":true,"sources":[{"bookId":"sr5-shadows-in-focus-city-by-shadow-san-francisco-metroplex","title":"Shadows in Focus - City by Shadow - San Francisco Metroplex","edition":"SR5","citation":"The People’s University","purpose":"description"}]}}}},{"type":"Feature","geometry":null,"properties":{"id":5,"global_id":"san-francisco:place:5-wuxing-san-francisco","name":"Wuxing San Francisco","aliases":[],"category":"Konzerne","detail_map":"San Francisco Metroplex","source_pages":"Konzernprofil Wuxing","map_source":"Shadows in Focus - City by Shadow - San Francisco Metroplex","placement_note":"Keine belastbare Einzelposition; Eintrag bleibt im Katalog","accuracy":"Nur Stadt oder Lore-Teilraum belegt","source_map":"san-francisco-content","source_panel":"San Francisco Metroplex","description_preview":"Wuxing gehört zu den im Metroplex ausdrücklich belegten Konzernakteuren.","description_full":"Wuxing gehört zu den im Metroplex ausdrücklich belegten Konzernakteuren. Die Position ist auf den belegten Stadt- oder Teilraum angenähert; eine hausgenaue Lage und eine weitergehende eigene Fließtextbeschreibung sind aus dem zugeordneten Datenmaterial nicht sicher ableitbar.","description_source":"Konzernprofil Wuxing","description_kind":"Ortsprofil","description_has_more":true,"detail_plans":[],"alternate_locations":[],"sources":[{"bookId":"sr5-shadows-in-focus-city-by-shadow-san-francisco-metroplex","title":"Shadows in Focus - City by Shadow - San Francisco Metroplex","edition":"SR5","citation":"Konzernprofil Wuxing","purpose":"description"}],"map_sources":[],"editions":["SR5"],"edition_descriptions":{"SR5":{"kind":"Ortsprofil","preview":"Wuxing gehört zu den im Metroplex ausdrücklich belegten Konzernakteuren.","full":"Wuxing gehört zu den im Metroplex ausdrücklich belegten Konzernakteuren. Die Position ist auf den belegten Stadt- oder Teilraum angenähert; eine hausgenaue Lage und eine weitergehende eigene Fließtextbeschreibung sind aus dem zugeordneten Datenmaterial nicht sicher ableitbar.","hasMore":true,"hasExcerpt":true,"sources":[{"bookId":"sr5-shadows-in-focus-city-by-shadow-san-francisco-metroplex","title":"Shadows in Focus - City by Shadow - San Francisco Metroplex","edition":"SR5","citation":"Konzernprofil Wuxing","purpose":"description"}]}}}}]}
