{"type":"FeatureCollection","name":"San Francisco Metroplex – geprüfte zusätzliche Quellenorte","features":[{"type":"Feature","geometry":null,"properties":{"id":7,"global_id":"san-francisco:source-place:the-sandwich-shop","name":"The Sandwich Shop","aliases":[],"category":"Sonstige Spots","detail_map":"San Francisco Metroplex","source_pages":"Textzeile 8286","map_source":"SRPM005 - Jumping Ship","placement_note":"Keine belastbare Einzelposition; Eintrag bleibt im Katalog","accuracy":"Nur Stadt oder Lore-Teilraum belegt","source_map":"source-supplement","source_panel":"San Francisco Metroplex","description_preview":"The Sandwich Shop ist in SRPM005 - Jumping Ship als benannter Schauplatz mit Bezug zu San Francisco Metroplex belegt.","description_full":"The Sandwich Shop ist in SRPM005 - Jumping Ship als benannter Schauplatz mit Bezug zu San Francisco Metroplex belegt. Das Dossier fasst den belegten Quellenstand redaktionell zusammen; eine nicht belegte Kartenposition wird nicht ergänzt.","description_source":"Textzeile 8286","description_kind":"Ortsdossier","description_has_more":true,"detail_plans":[],"alternate_locations":[],"sources":[{"bookId":"sr5-srpm005-jumping-ship","title":"SRPM005 - Jumping Ship","edition":"SR5","citation":"Textzeile 8286","purpose":"description"}],"map_sources":[],"editions":["SR5"],"edition_descriptions":{"SR5":{"kind":"Ortsdossier","preview":"The Sandwich Shop ist in SRPM005 - Jumping Ship als benannter Schauplatz mit Bezug zu San Francisco Metroplex belegt.","full":"The Sandwich Shop ist in SRPM005 - Jumping Ship als benannter Schauplatz mit Bezug zu San Francisco Metroplex belegt. Das Dossier fasst den belegten Quellenstand redaktionell zusammen; eine nicht belegte Kartenposition wird nicht ergänzt.","hasMore":true,"hasExcerpt":true,"sources":[{"bookId":"sr5-srpm005-jumping-ship","title":"SRPM005 - Jumping Ship","edition":"SR5","citation":"Textzeile 8286","purpose":"description"}]}}}}]}
