{"type":"FeatureCollection","name":"Sydney Orte","features":[{"type":"Feature","geometry":null,"properties":{"id":2,"global_id":"sydney:place:2-link-club-sydney","name":"Link Club Sydney","aliases":[],"category":"Bars und Clubs","detail_map":"Sydney","source_pages":"Link Club","map_source":"Gestohlene Seelen","placement_note":"Keine belastbare Einzelposition; Eintrag bleibt im Katalog","accuracy":"Nur Stadt oder Lore-Teilraum belegt","source_map":"sydney-content","source_panel":"Sydney","description_preview":"Der Sydney-Ableger gehört zur international vernetzten Clubkette.","description_full":"Der Sydney-Ableger gehört zur international vernetzten Clubkette. Die Position ist auf den belegten Stadt- oder Teilraum angenähert; eine hausgenaue Lage und eine weitergehende eigene Fließtextbeschreibung sind aus dem zugeordneten Datenmaterial nicht sicher ableitbar.","description_source":"Link Club","description_kind":"Ortsprofil","description_has_more":true,"detail_plans":[],"alternate_locations":[],"sources":[{"bookId":"sr5-gestohlene-seelen","title":"Gestohlene Seelen","edition":"SR5","citation":"Link Club","purpose":"description"}],"map_sources":[],"editions":["SR5"],"edition_descriptions":{"SR5":{"kind":"Ortsprofil","preview":"Der Sydney-Ableger gehört zur international vernetzten Clubkette.","full":"Der Sydney-Ableger gehört zur international vernetzten Clubkette. Die Position ist auf den belegten Stadt- oder Teilraum angenähert; eine hausgenaue Lage und eine weitergehende eigene Fließtextbeschreibung sind aus dem zugeordneten Datenmaterial nicht sicher ableitbar.","hasMore":true,"hasExcerpt":true,"sources":[{"bookId":"sr5-gestohlene-seelen","title":"Gestohlene Seelen","edition":"SR5","citation":"Link Club","purpose":"description"}]}}}},{"type":"Feature","geometry":{"type":"Point","coordinates":[151.2093,-33.8688]},"properties":{"id":1,"global_id":"sydney:place:1-sydney-lore-raum","name":"Sydney Lore-Raum","aliases":[],"category":"Bezirke","detail_map":"Sydney Lore-Raum","source_pages":"Stadt- oder Regionalkapitel","map_source":"Target Awakened Lands","placement_note":"Geografischer Bezugspunkt des Lore-Distrikts Sydney Lore-Raum","accuracy":"Lore-Bezirkszentrum; Grenzpolygon noch nicht georeferenziert","source_map":"sydney-content","source_panel":"Sydney Lore-Raum","description_preview":"Sydney ist ein australischer Küstenplex mit starken Konzern-, Syndikats- und erwachten Einflüssen.","description_full":"Sydney ist ein australischer Küstenplex mit starken Konzern-, Syndikats- und erwachten Einflüssen. Die Position ist auf den belegten Stadt- oder Teilraum angenähert; eine hausgenaue Lage und eine weitergehende eigene Fließtextbeschreibung sind aus dem zugeordneten Datenmaterial nicht sicher ableitbar.","description_source":"Stadt- oder Regionalkapitel","description_kind":"Ortsprofil","description_has_more":true,"detail_plans":[],"alternate_locations":[],"sources":[{"bookId":"sr3-target-awakened-lands","title":"Target Awakened Lands","edition":"SR3","citation":"Stadt- oder Regionalkapitel","purpose":"description"}],"map_sources":[],"editions":["SR3"],"edition_descriptions":{"SR3":{"kind":"Ortsprofil","preview":"Sydney ist ein australischer Küstenplex mit starken Konzern-, Syndikats- und erwachten Einflüssen.","full":"Sydney ist ein australischer Küstenplex mit starken Konzern-, Syndikats- und erwachten Einflüssen. Die Position ist auf den belegten Stadt- oder Teilraum angenähert; eine hausgenaue Lage und eine weitergehende eigene Fließtextbeschreibung sind aus dem zugeordneten Datenmaterial nicht sicher ableitbar.","hasMore":true,"hasExcerpt":true,"sources":[{"bookId":"sr3-target-awakened-lands","title":"Target Awakened Lands","edition":"SR3","citation":"Stadt- oder Regionalkapitel","purpose":"description"}]}}}}]}
