{"type":"FeatureCollection","name":"Paris Orte","features":[{"type":"Feature","geometry":null,"properties":{"id":8,"global_id":"paris:place:8-au-tresor-des-belles","name":"Au Trésor des Belles","aliases":[],"category":"Einkaufen","detail_map":"Paris","source_pages":"The Joygirl","map_source":"Final Bets (Paris Grand Tour)","placement_note":"Keine belastbare Einzelposition; Eintrag bleibt im Katalog","accuracy":"Nur Stadt oder Lore-Teilraum belegt","source_map":"paris-content","source_panel":"Paris","description_preview":"Das exklusive Modegeschäft im 8. Arrondissement dient im Grand-Tour-Plot als Kontakt- und Übergabeort.","description_full":"Das exklusive Modegeschäft im 8. Arrondissement dient im Grand-Tour-Plot als Kontakt- und Übergabeort. Die Position ist auf den belegten Stadt- oder Teilraum angenähert; eine hausgenaue Lage und eine weitergehende eigene Fließtextbeschreibung sind aus dem zugeordneten Datenmaterial nicht sicher ableitbar.","description_source":"The Joygirl","description_kind":"Ortsprofil","description_has_more":true,"detail_plans":[],"alternate_locations":[],"sources":[{"bookId":"sr6-final-bets-paris-grand-tour","title":"Final Bets (Paris Grand Tour)","edition":"SR6","citation":"The Joygirl","purpose":"description"}],"map_sources":[],"editions":["SR6"],"edition_descriptions":{"SR6":{"kind":"Ortsprofil","preview":"Das exklusive Modegeschäft im 8. Arrondissement dient im Grand-Tour-Plot als Kontakt- und Übergabeort.","full":"Das exklusive Modegeschäft im 8. Arrondissement dient im Grand-Tour-Plot als Kontakt- und Übergabeort. Die Position ist auf den belegten Stadt- oder Teilraum angenähert; eine hausgenaue Lage und eine weitergehende eigene Fließtextbeschreibung sind aus dem zugeordneten Datenmaterial nicht sicher ableitbar.","hasMore":true,"hasExcerpt":true,"sources":[{"bookId":"sr6-final-bets-paris-grand-tour","title":"Final Bets (Paris Grand Tour)","edition":"SR6","citation":"The Joygirl","purpose":"description"}]}}}},{"type":"Feature","geometry":{"type":"Point","coordinates":[2.3765,48.8337]},"properties":{"id":9,"global_id":"paris:place:9-bibliotheque-francois-mitterrand","name":"Bibliothèque François Mitterrand","aliases":[],"category":"Bildung und Kultur","detail_map":"Paris","source_pages":"The French National Library","map_source":"Final Bets (Paris Grand Tour)","placement_note":"Erhaltener geographischer Bezugspunkt","accuracy":"Geographischer Bezugspunkt","source_map":"paris-content","source_panel":"Paris","description_preview":"Die Nationalbibliothek bewahrt trotz der Matrixcrashs einen außergewöhnlich vollständigen Archivbestand.","description_full":"Die Nationalbibliothek bewahrt trotz der Matrixcrashs einen außergewöhnlich vollständigen Archivbestand. Die Position folgt einem erhaltenen heutigen Bezugspunkt.","description_source":"The French National Library","description_kind":"Ortsprofil","description_has_more":true,"detail_plans":[],"alternate_locations":[],"sources":[{"bookId":"sr6-final-bets-paris-grand-tour","title":"Final Bets (Paris Grand Tour)","edition":"SR6","citation":"The French National Library","purpose":"description"}],"map_sources":[],"editions":["SR6"],"edition_descriptions":{"SR6":{"kind":"Ortsprofil","preview":"Die Nationalbibliothek bewahrt trotz der Matrixcrashs einen außergewöhnlich vollständigen Archivbestand.","full":"Die Nationalbibliothek bewahrt trotz der Matrixcrashs einen außergewöhnlich vollständigen Archivbestand. Die Position folgt einem erhaltenen heutigen Bezugspunkt.","hasMore":true,"hasExcerpt":true,"sources":[{"bookId":"sr6-final-bets-paris-grand-tour","title":"Final Bets (Paris Grand Tour)","edition":"SR6","citation":"The French National Library","purpose":"description"}]}}}},{"type":"Feature","geometry":{"type":"Point","coordinates":[2.455,48.79]},"properties":{"id":2,"global_id":"paris:place:2-creteil","name":"Créteil","aliases":[],"category":"Bezirke","detail_map":"Créteil","source_pages":"Créteil","map_source":"Final Bets (Paris Grand Tour)","placement_note":"Geografischer Bezugspunkt des Lore-Distrikts Créteil","accuracy":"Lore-Bezirkszentrum; Grenzpolygon noch nicht georeferenziert","source_map":"paris-content","source_panel":"Créteil","description_preview":"Créteil ist ein südöstlicher Teilraum mit eigener BTL- und Straßenszene.","description_full":"Créteil ist ein südöstlicher Teilraum mit eigener BTL- und Straßenszene. Die Position ist auf den belegten Stadt- oder Teilraum angenähert; eine hausgenaue Lage und eine weitergehende eigene Fließtextbeschreibung sind aus dem zugeordneten Datenmaterial nicht sicher ableitbar.","description_source":"Créteil","description_kind":"Ortsprofil","description_has_more":true,"detail_plans":[],"alternate_locations":[],"sources":[{"bookId":"sr6-final-bets-paris-grand-tour","title":"Final Bets (Paris Grand Tour)","edition":"SR6","citation":"Créteil","purpose":"description"}],"map_sources":[],"editions":["SR6"],"edition_descriptions":{"SR6":{"kind":"Ortsprofil","preview":"Créteil ist ein südöstlicher Teilraum mit eigener BTL- und Straßenszene.","full":"Créteil ist ein südöstlicher Teilraum mit eigener BTL- und Straßenszene. Die Position ist auf den belegten Stadt- oder Teilraum angenähert; eine hausgenaue Lage und eine weitergehende eigene Fließtextbeschreibung sind aus dem zugeordneten Datenmaterial nicht sicher ableitbar.","hasMore":true,"hasExcerpt":true,"sources":[{"bookId":"sr6-final-bets-paris-grand-tour","title":"Final Bets (Paris Grand Tour)","edition":"SR6","citation":"Créteil","purpose":"description"}]}}}},{"type":"Feature","geometry":null,"properties":{"id":4,"global_id":"paris:place:4-institut-medico-legal-de-paris","name":"Institut Médico-Légal de Paris","aliases":[],"category":"Medizin","detail_map":"Paris","source_pages":"L’Institut Médico-Légal de Paris","map_source":"Final Bets (Paris Grand Tour)","placement_note":"Keine belastbare Einzelposition; Eintrag bleibt im Katalog","accuracy":"Nur Stadt oder Lore-Teilraum belegt","source_map":"paris-content","source_panel":"Paris","description_preview":"Das rechtsmedizinische Institut ist ein wichtiger Ermittlungs- und Missionsschauplatz.","description_full":"Das rechtsmedizinische Institut ist ein wichtiger Ermittlungs- und Missionsschauplatz. Die Position ist auf den belegten Stadt- oder Teilraum angenähert; eine hausgenaue Lage und eine weitergehende eigene Fließtextbeschreibung sind aus dem zugeordneten Datenmaterial nicht sicher ableitbar.","description_source":"L’Institut Médico-Légal de Paris","description_kind":"Ortsprofil","description_has_more":true,"detail_plans":[],"alternate_locations":[],"sources":[{"bookId":"sr6-final-bets-paris-grand-tour","title":"Final Bets (Paris Grand Tour)","edition":"SR6","citation":"L’Institut Médico-Légal de Paris","purpose":"description"}],"map_sources":[],"editions":["SR6"],"edition_descriptions":{"SR6":{"kind":"Ortsprofil","preview":"Das rechtsmedizinische Institut ist ein wichtiger Ermittlungs- und Missionsschauplatz.","full":"Das rechtsmedizinische Institut ist ein wichtiger Ermittlungs- und Missionsschauplatz. Die Position ist auf den belegten Stadt- oder Teilraum angenähert; eine hausgenaue Lage und eine weitergehende eigene Fließtextbeschreibung sind aus dem zugeordneten Datenmaterial nicht sicher ableitbar.","hasMore":true,"hasExcerpt":true,"sources":[{"bookId":"sr6-final-bets-paris-grand-tour","title":"Final Bets (Paris Grand Tour)","edition":"SR6","citation":"L’Institut Médico-Légal de Paris","purpose":"description"}]}}}},{"type":"Feature","geometry":{"type":"Point","coordinates":[2.3327,48.8421]},"properties":{"id":3,"global_id":"paris:place:3-la-closerie-des-lilas","name":"La Closerie des Lilas","aliases":[],"category":"Restaurants","detail_map":"Paris","source_pages":"La Closerie des Lilas","map_source":"Final Bets (Paris Grand Tour)","placement_note":"Erhaltener geographischer Bezugspunkt","accuracy":"Geographischer Bezugspunkt","source_map":"paris-content","source_panel":"Paris","description_preview":"La Closerie des Lilas ist ein traditionsreicher Pariser Gastronomie- und Treffpunkt.","description_full":"La Closerie des Lilas ist ein traditionsreicher Pariser Gastronomie- und Treffpunkt. Die Position folgt einem erhaltenen heutigen Bezugspunkt.","description_source":"La Closerie des Lilas","description_kind":"Ortsprofil","description_has_more":true,"detail_plans":[],"alternate_locations":[],"sources":[{"bookId":"sr6-final-bets-paris-grand-tour","title":"Final Bets (Paris Grand Tour)","edition":"SR6","citation":"La Closerie des Lilas","purpose":"description"}],"map_sources":[],"editions":["SR6"],"edition_descriptions":{"SR6":{"kind":"Ortsprofil","preview":"La Closerie des Lilas ist ein traditionsreicher Pariser Gastronomie- und Treffpunkt.","full":"La Closerie des Lilas ist ein traditionsreicher Pariser Gastronomie- und Treffpunkt. Die Position folgt einem erhaltenen heutigen Bezugspunkt.","hasMore":true,"hasExcerpt":true,"sources":[{"bookId":"sr6-final-bets-paris-grand-tour","title":"Final Bets (Paris Grand Tour)","edition":"SR6","citation":"La Closerie des Lilas","purpose":"description"}]}}}},{"type":"Feature","geometry":null,"properties":{"id":12,"global_id":"paris:place:12-link-club-paris","name":"Link Club Paris","aliases":[],"category":"Bars und Clubs","detail_map":"Paris","source_pages":"Link Club","map_source":"Gestohlene Seelen","placement_note":"Keine belastbare Einzelposition; Eintrag bleibt im Katalog","accuracy":"Nur Stadt oder Lore-Teilraum belegt","source_map":"paris-content","source_panel":"Paris","description_preview":"Der Pariser Ableger gehört zur international vernetzten Link-Club-Kette.","description_full":"Der Pariser Ableger gehört zur international vernetzten Link-Club-Kette. Die Position ist auf den belegten Stadt- oder Teilraum angenähert; eine hausgenaue Lage und eine weitergehende eigene Fließtextbeschreibung sind aus dem zugeordneten Datenmaterial nicht sicher ableitbar.","description_source":"Link Club","description_kind":"Ortsprofil","description_has_more":true,"detail_plans":[],"alternate_locations":[],"sources":[{"bookId":"sr5-gestohlene-seelen","title":"Gestohlene Seelen","edition":"SR5","citation":"Link Club","purpose":"description"}],"map_sources":[],"editions":["SR5"],"edition_descriptions":{"SR5":{"kind":"Ortsprofil","preview":"Der Pariser Ableger gehört zur international vernetzten Link-Club-Kette.","full":"Der Pariser Ableger gehört zur international vernetzten Link-Club-Kette. Die Position ist auf den belegten Stadt- oder Teilraum angenähert; eine hausgenaue Lage und eine weitergehende eigene Fließtextbeschreibung sind aus dem zugeordneten Datenmaterial nicht sicher ableitbar.","hasMore":true,"hasExcerpt":true,"sources":[{"bookId":"sr5-gestohlene-seelen","title":"Gestohlene Seelen","edition":"SR5","citation":"Link Club","purpose":"description"}]}}}},{"type":"Feature","geometry":{"type":"Point","coordinates":[2.233,48.858]},"properties":{"id":5,"global_id":"paris:place:5-longchamp-racetrack","name":"Longchamp Racetrack","aliases":[],"category":"Freizeit und Natur","detail_map":"Paris","source_pages":"Longchamp Racetrack","map_source":"Final Bets (Paris Grand Tour)","placement_note":"Erhaltener geographischer Bezugspunkt","accuracy":"Geographischer Bezugspunkt","source_map":"paris-content","source_panel":"Paris","description_preview":"Die Rennbahn Longchamp ist Veranstaltungs- und Grand-Tour-Schauplatz.","description_full":"Die Rennbahn Longchamp ist Veranstaltungs- und Grand-Tour-Schauplatz. Die Position folgt einem erhaltenen heutigen Bezugspunkt.","description_source":"Longchamp Racetrack","description_kind":"Ortsprofil","description_has_more":true,"detail_plans":[],"alternate_locations":[],"sources":[{"bookId":"sr6-final-bets-paris-grand-tour","title":"Final Bets (Paris Grand Tour)","edition":"SR6","citation":"Longchamp Racetrack","purpose":"description"}],"map_sources":[],"editions":["SR6"],"edition_descriptions":{"SR6":{"kind":"Ortsprofil","preview":"Die Rennbahn Longchamp ist Veranstaltungs- und Grand-Tour-Schauplatz.","full":"Die Rennbahn Longchamp ist Veranstaltungs- und Grand-Tour-Schauplatz. Die Position folgt einem erhaltenen heutigen Bezugspunkt.","hasMore":true,"hasExcerpt":true,"sources":[{"bookId":"sr6-final-bets-paris-grand-tour","title":"Final Bets (Paris Grand Tour)","edition":"SR6","citation":"Longchamp Racetrack","purpose":"description"}]}}}},{"type":"Feature","geometry":null,"properties":{"id":10,"global_id":"paris:place:10-lutetia-hotel-tunnel","name":"Lutetia Hotel Tunnel","aliases":[],"category":"Unterwelt","detail_map":"Paris","source_pages":"The Lutetia Hotel Tunnel","map_source":"Final Bets (Paris Grand Tour)","placement_note":"Keine belastbare Einzelposition; Eintrag bleibt im Katalog","accuracy":"Nur Stadt oder Lore-Teilraum belegt","source_map":"paris-content","source_panel":"Paris","description_preview":"Ein besonders gesicherter Tunnel verbindet das Lutetia Hotel mit unterirdischen Anlagen und einer Bahntrasse.","description_full":"Ein besonders gesicherter Tunnel verbindet das Lutetia Hotel mit unterirdischen Anlagen und einer Bahntrasse. Die Position ist auf den belegten Stadt- oder Teilraum angenähert; eine hausgenaue Lage und eine weitergehende eigene Fließtextbeschreibung sind aus dem zugeordneten Datenmaterial nicht sicher ableitbar.","description_source":"The Lutetia Hotel Tunnel","description_kind":"Ortsprofil","description_has_more":true,"detail_plans":[],"alternate_locations":[],"sources":[{"bookId":"sr6-final-bets-paris-grand-tour","title":"Final Bets (Paris Grand Tour)","edition":"SR6","citation":"The Lutetia Hotel Tunnel","purpose":"description"}],"map_sources":[],"editions":["SR6"],"edition_descriptions":{"SR6":{"kind":"Ortsprofil","preview":"Ein besonders gesicherter Tunnel verbindet das Lutetia Hotel mit unterirdischen Anlagen und einer Bahntrasse.","full":"Ein besonders gesicherter Tunnel verbindet das Lutetia Hotel mit unterirdischen Anlagen und einer Bahntrasse. Die Position ist auf den belegten Stadt- oder Teilraum angenähert; eine hausgenaue Lage und eine weitergehende eigene Fließtextbeschreibung sind aus dem zugeordneten Datenmaterial nicht sicher ableitbar.","hasMore":true,"hasExcerpt":true,"sources":[{"bookId":"sr6-final-bets-paris-grand-tour","title":"Final Bets (Paris Grand Tour)","edition":"SR6","citation":"The Lutetia Hotel Tunnel","purpose":"description"}]}}}},{"type":"Feature","geometry":{"type":"Point","coordinates":[2.344,48.849]},"properties":{"id":1,"global_id":"paris:place:1-quartier-latin","name":"Quartier Latin","aliases":[],"category":"Bezirke","detail_map":"Quartier Latin","source_pages":"Le Quartier Latin","map_source":"Final Bets (Paris Grand Tour)","placement_note":"Geografischer Bezugspunkt des Lore-Distrikts Quartier Latin","accuracy":"Lore-Bezirkszentrum; Grenzpolygon noch nicht georeferenziert","source_map":"paris-content","source_panel":"Quartier Latin","description_preview":"Das Quartier Latin ist ein traditionsreicher Bildungs-, Kultur- und Ausgehbezirk.","description_full":"Das Quartier Latin ist ein traditionsreicher Bildungs-, Kultur- und Ausgehbezirk. Die Position ist auf den belegten Stadt- oder Teilraum angenähert; eine hausgenaue Lage und eine weitergehende eigene Fließtextbeschreibung sind aus dem zugeordneten Datenmaterial nicht sicher ableitbar.","description_source":"Le Quartier Latin","description_kind":"Ortsprofil","description_has_more":true,"detail_plans":[],"alternate_locations":[],"sources":[{"bookId":"sr6-final-bets-paris-grand-tour","title":"Final Bets (Paris Grand Tour)","edition":"SR6","citation":"Le Quartier Latin","purpose":"description"}],"map_sources":[],"editions":["SR6"],"edition_descriptions":{"SR6":{"kind":"Ortsprofil","preview":"Das Quartier Latin ist ein traditionsreicher Bildungs-, Kultur- und Ausgehbezirk.","full":"Das Quartier Latin ist ein traditionsreicher Bildungs-, Kultur- und Ausgehbezirk. Die Position ist auf den belegten Stadt- oder Teilraum angenähert; eine hausgenaue Lage und eine weitergehende eigene Fließtextbeschreibung sind aus dem zugeordneten Datenmaterial nicht sicher ableitbar.","hasMore":true,"hasExcerpt":true,"sources":[{"bookId":"sr6-final-bets-paris-grand-tour","title":"Final Bets (Paris Grand Tour)","edition":"SR6","citation":"Le Quartier Latin","purpose":"description"}]}}}},{"type":"Feature","geometry":null,"properties":{"id":11,"global_id":"paris:place:11-saint-louis-general-hospital","name":"Saint-Louis General Hospital","aliases":[],"category":"Medizin","detail_map":"Paris","source_pages":"Saint-Louis General Hospital","map_source":"Final Bets (Paris Grand Tour)","placement_note":"Keine belastbare Einzelposition; Eintrag bleibt im Katalog","accuracy":"Nur Stadt oder Lore-Teilraum belegt","source_map":"paris-content","source_panel":"Paris","description_preview":"Das Krankenhaus ist ein zentraler medizinischer und forensischer Schauplatz des Grand-Tour-Plots.","description_full":"Das Krankenhaus ist ein zentraler medizinischer und forensischer Schauplatz des Grand-Tour-Plots. Die Position ist auf den belegten Stadt- oder Teilraum angenähert; eine hausgenaue Lage und eine weitergehende eigene Fließtextbeschreibung sind aus dem zugeordneten Datenmaterial nicht sicher ableitbar.","description_source":"Saint-Louis General Hospital","description_kind":"Ortsprofil","description_has_more":true,"detail_plans":[],"alternate_locations":[],"sources":[{"bookId":"sr6-final-bets-paris-grand-tour","title":"Final Bets (Paris Grand Tour)","edition":"SR6","citation":"Saint-Louis General Hospital","purpose":"description"}],"map_sources":[],"editions":["SR6"],"edition_descriptions":{"SR6":{"kind":"Ortsprofil","preview":"Das Krankenhaus ist ein zentraler medizinischer und forensischer Schauplatz des Grand-Tour-Plots.","full":"Das Krankenhaus ist ein zentraler medizinischer und forensischer Schauplatz des Grand-Tour-Plots. Die Position ist auf den belegten Stadt- oder Teilraum angenähert; eine hausgenaue Lage und eine weitergehende eigene Fließtextbeschreibung sind aus dem zugeordneten Datenmaterial nicht sicher ableitbar.","hasMore":true,"hasExcerpt":true,"sources":[{"bookId":"sr6-final-bets-paris-grand-tour","title":"Final Bets (Paris Grand Tour)","edition":"SR6","citation":"Saint-Louis General Hospital","purpose":"description"}]}}}},{"type":"Feature","geometry":{"type":"Point","coordinates":[2.3601,48.9245]},"properties":{"id":6,"global_id":"paris:place:6-stade-de-france","name":"Stade de France","aliases":[],"category":"Freizeit und Natur","detail_map":"Paris","source_pages":"Stade de France","map_source":"Final Bets (Paris Grand Tour)","placement_note":"Erhaltener geographischer Bezugspunkt","accuracy":"Geographischer Bezugspunkt","source_map":"paris-content","source_panel":"Paris","description_preview":"Das Stade de France ist eine der großen Arenen des Pariser Plexes.","description_full":"Das Stade de France ist eine der großen Arenen des Pariser Plexes. Die Position folgt einem erhaltenen heutigen Bezugspunkt.","description_source":"Stade de France","description_kind":"Ortsprofil","description_has_more":true,"detail_plans":[],"alternate_locations":[],"sources":[{"bookId":"sr6-final-bets-paris-grand-tour","title":"Final Bets (Paris Grand Tour)","edition":"SR6","citation":"Stade de France","purpose":"description"}],"map_sources":[],"editions":["SR6"],"edition_descriptions":{"SR6":{"kind":"Ortsprofil","preview":"Das Stade de France ist eine der großen Arenen des Pariser Plexes.","full":"Das Stade de France ist eine der großen Arenen des Pariser Plexes. Die Position folgt einem erhaltenen heutigen Bezugspunkt.","hasMore":true,"hasExcerpt":true,"sources":[{"bookId":"sr6-final-bets-paris-grand-tour","title":"Final Bets (Paris Grand Tour)","edition":"SR6","citation":"Stade de France","purpose":"description"}]}}}},{"type":"Feature","geometry":null,"properties":{"id":7,"global_id":"paris:place:7-the-fairground-museum","name":"The Fairground Museum","aliases":[],"category":"Bildung und Kultur","detail_map":"Paris","source_pages":"The Fairground Museum","map_source":"Final Bets (Paris Grand Tour)","placement_note":"Keine belastbare Einzelposition; Eintrag bleibt im Katalog","accuracy":"Nur Stadt oder Lore-Teilraum belegt","source_map":"paris-content","source_panel":"Paris","description_preview":"Das Musée des Arts Forains ist als besonderer Kultur- und Missionsort belegt.","description_full":"Das Musée des Arts Forains ist als besonderer Kultur- und Missionsort belegt. Die Position ist auf den belegten Stadt- oder Teilraum angenähert; eine hausgenaue Lage und eine weitergehende eigene Fließtextbeschreibung sind aus dem zugeordneten Datenmaterial nicht sicher ableitbar.","description_source":"The Fairground Museum","description_kind":"Ortsprofil","description_has_more":true,"detail_plans":[],"alternate_locations":[],"sources":[{"bookId":"sr6-final-bets-paris-grand-tour","title":"Final Bets (Paris Grand Tour)","edition":"SR6","citation":"The Fairground Museum","purpose":"description"}],"map_sources":[],"editions":["SR6"],"edition_descriptions":{"SR6":{"kind":"Ortsprofil","preview":"Das Musée des Arts Forains ist als besonderer Kultur- und Missionsort belegt.","full":"Das Musée des Arts Forains ist als besonderer Kultur- und Missionsort belegt. Die Position ist auf den belegten Stadt- oder Teilraum angenähert; eine hausgenaue Lage und eine weitergehende eigene Fließtextbeschreibung sind aus dem zugeordneten Datenmaterial nicht sicher ableitbar.","hasMore":true,"hasExcerpt":true,"sources":[{"bookId":"sr6-final-bets-paris-grand-tour","title":"Final Bets (Paris Grand Tour)","edition":"SR6","citation":"The Fairground Museum","purpose":"description"}]}}}}]}
