{"type":"FeatureCollection","name":"Paris – geprüfte zusätzliche Quellenorte","features":[{"type":"Feature","geometry":null,"properties":{"id":13,"global_id":"paris:source-place:abdi-ipekci-strasse","name":"Abdi-Ipekçi-Strasse","aliases":[],"category":"Sonstige Spots","detail_map":"Paris","source_pages":"Textzeile 7560","map_source":"Mit Tricks und Finesse","placement_note":"Keine belastbare Einzelposition; Eintrag bleibt im Katalog","accuracy":"Nur Stadt oder Lore-Teilraum belegt","source_map":"source-supplement","source_panel":"Paris","description_preview":"Abdi-Ipekçi-Strasse ist in Mit Tricks und Finesse als benannter Schauplatz mit Bezug zu Paris belegt.","description_full":"Abdi-Ipekçi-Strasse ist in Mit Tricks und Finesse als benannter Schauplatz mit Bezug zu Paris belegt. Das Dossier fasst den belegten Quellenstand redaktionell zusammen; eine nicht belegte Kartenposition wird nicht ergänzt.","description_source":"Textzeile 7560","description_kind":"Ortsdossier","description_has_more":true,"detail_plans":[],"alternate_locations":[],"sources":[{"bookId":"sr5-mit-tricks-und-finesse","title":"Mit Tricks und Finesse","edition":"SR5","citation":"Textzeile 7560","purpose":"description"}],"map_sources":[],"editions":["SR5"],"edition_descriptions":{"SR5":{"kind":"Ortsdossier","preview":"Abdi-Ipekçi-Strasse ist in Mit Tricks und Finesse als benannter Schauplatz mit Bezug zu Paris belegt.","full":"Abdi-Ipekçi-Strasse ist in Mit Tricks und Finesse als benannter Schauplatz mit Bezug zu Paris belegt. Das Dossier fasst den belegten Quellenstand redaktionell zusammen; eine nicht belegte Kartenposition wird nicht ergänzt.","hasMore":true,"hasExcerpt":true,"sources":[{"bookId":"sr5-mit-tricks-und-finesse","title":"Mit Tricks und Finesse","edition":"SR5","citation":"Textzeile 7560","purpose":"description"}]}}}},{"type":"Feature","geometry":null,"properties":{"id":14,"global_id":"paris:source-place:hotel-harvester","name":"Hotel Harvester","aliases":[],"category":"Sonstige Spots","detail_map":"Paris","source_pages":"Textzeile 10768","map_source":"Final Bets (Paris Grand Tour)","placement_note":"Keine belastbare Einzelposition; Eintrag bleibt im Katalog","accuracy":"Nur Stadt oder Lore-Teilraum belegt","source_map":"source-supplement","source_panel":"Paris","description_preview":"Hotel Harvester ist in Final Bets (Paris Grand Tour) als benannter Schauplatz mit Bezug zu Paris belegt.","description_full":"Hotel Harvester ist in Final Bets (Paris Grand Tour) als benannter Schauplatz mit Bezug zu Paris belegt. Das Dossier fasst den belegten Quellenstand redaktionell zusammen; eine nicht belegte Kartenposition wird nicht ergänzt.","description_source":"Textzeile 10768","description_kind":"Ortsdossier","description_has_more":true,"detail_plans":[],"alternate_locations":[],"sources":[{"bookId":"sr6-final-bets-paris-grand-tour","title":"Final Bets (Paris Grand Tour)","edition":"SR6","citation":"Textzeile 10768","purpose":"description"}],"map_sources":[],"editions":["SR6"],"edition_descriptions":{"SR6":{"kind":"Ortsdossier","preview":"Hotel Harvester ist in Final Bets (Paris Grand Tour) als benannter Schauplatz mit Bezug zu Paris belegt.","full":"Hotel Harvester ist in Final Bets (Paris Grand Tour) als benannter Schauplatz mit Bezug zu Paris belegt. Das Dossier fasst den belegten Quellenstand redaktionell zusammen; eine nicht belegte Kartenposition wird nicht ergänzt.","hasMore":true,"hasExcerpt":true,"sources":[{"bookId":"sr6-final-bets-paris-grand-tour","title":"Final Bets (Paris Grand Tour)","edition":"SR6","citation":"Textzeile 10768","purpose":"description"}]}}}},{"type":"Feature","geometry":null,"properties":{"id":15,"global_id":"paris:source-place:the-haunted-building","name":"The Haunted Building","aliases":[],"category":"Sonstige Spots","detail_map":"Paris","source_pages":"Textzeile 11082","map_source":"Final Bets (Paris Grand Tour)","placement_note":"Keine belastbare Einzelposition; Eintrag bleibt im Katalog","accuracy":"Nur Stadt oder Lore-Teilraum belegt","source_map":"source-supplement","source_panel":"Paris","description_preview":"The Haunted Building ist in Final Bets (Paris Grand Tour) als benannter Schauplatz mit Bezug zu Paris belegt.","description_full":"The Haunted Building ist in Final Bets (Paris Grand Tour) als benannter Schauplatz mit Bezug zu Paris belegt. Das Dossier fasst den belegten Quellenstand redaktionell zusammen; eine nicht belegte Kartenposition wird nicht ergänzt.","description_source":"Textzeile 11082","description_kind":"Ortsdossier","description_has_more":true,"detail_plans":[],"alternate_locations":[],"sources":[{"bookId":"sr6-final-bets-paris-grand-tour","title":"Final Bets (Paris Grand Tour)","edition":"SR6","citation":"Textzeile 11082","purpose":"description"}],"map_sources":[],"editions":["SR6"],"edition_descriptions":{"SR6":{"kind":"Ortsdossier","preview":"The Haunted Building ist in Final Bets (Paris Grand Tour) als benannter Schauplatz mit Bezug zu Paris belegt.","full":"The Haunted Building ist in Final Bets (Paris Grand Tour) als benannter Schauplatz mit Bezug zu Paris belegt. Das Dossier fasst den belegten Quellenstand redaktionell zusammen; eine nicht belegte Kartenposition wird nicht ergänzt.","hasMore":true,"hasExcerpt":true,"sources":[{"bookId":"sr6-final-bets-paris-grand-tour","title":"Final Bets (Paris Grand Tour)","edition":"SR6","citation":"Textzeile 11082","purpose":"description"}]}}}}]}
