{"type":"FeatureCollection","name":"Singapur Orte","features":[{"type":"Feature","geometry":{"type":"Point","coordinates":[103.853,1.286]},"properties":{"id":3,"global_id":"singapur:place:3-chid-ballroom-fullerton-hotel","name":"Chid Ballroom, Fullerton Hotel","aliases":[],"category":"Hotels","detail_map":"Singapur","source_pages":"Chid Ballroom, The Fullerton Hotel, Singapore","map_source":"Margin Calls (Corporate World Post DIS Plot)","placement_note":"Erhaltener geographischer Bezugspunkt","accuracy":"Geographischer Bezugspunkt","source_map":"singapur-content","source_panel":"Singapur","description_preview":"Der Ballsaal ist ein hochrangiger Veranstaltungs- und Geschäftsort.","description_full":"Der Ballsaal ist ein hochrangiger Veranstaltungs- und Geschäftsort. Die Position folgt einem erhaltenen heutigen Bezugspunkt.","description_source":"Chid Ballroom, The Fullerton Hotel, Singapore","description_kind":"Ortsprofil","description_has_more":true,"detail_plans":[],"alternate_locations":[],"sources":[{"bookId":"sr6-margin-calls-corporate-world-post-dis-plot","title":"Margin Calls (Corporate World Post DIS Plot)","edition":"SR6","citation":"Chid Ballroom, The Fullerton Hotel, Singapore","purpose":"description"}],"map_sources":[],"editions":["SR6"],"edition_descriptions":{"SR6":{"kind":"Ortsprofil","preview":"Der Ballsaal ist ein hochrangiger Veranstaltungs- und Geschäftsort.","full":"Der Ballsaal ist ein hochrangiger Veranstaltungs- und Geschäftsort. Die Position folgt einem erhaltenen heutigen Bezugspunkt.","hasMore":true,"hasExcerpt":true,"sources":[{"bookId":"sr6-margin-calls-corporate-world-post-dis-plot","title":"Margin Calls (Corporate World Post DIS Plot)","edition":"SR6","citation":"Chid Ballroom, The Fullerton Hotel, Singapore","purpose":"description"}]}}}},{"type":"Feature","geometry":null,"properties":{"id":2,"global_id":"singapur:place:2-marina-bay-orchid","name":"Marina Bay Orchid","aliases":[],"category":"Hotels","detail_map":"Singapur","source_pages":"Marina Bay Orchid","map_source":"Blutige Geschäfte","placement_note":"Keine belastbare Einzelposition; Eintrag bleibt im Katalog","accuracy":"Nur Stadt oder Lore-Teilraum belegt","source_map":"singapur-content","source_panel":"Singapur","description_preview":"Die Marina Bay Orchid ist ein benannter Hotel- und Missionsstandort.","description_full":"Die Marina Bay Orchid ist ein benannter Hotel- und Missionsstandort. Die Position ist auf den belegten Stadt- oder Teilraum angenähert; eine hausgenaue Lage und eine weitergehende eigene Fließtextbeschreibung sind aus dem zugeordneten Datenmaterial nicht sicher ableitbar.","description_source":"Marina Bay Orchid","description_kind":"Ortsprofil","description_has_more":true,"detail_plans":[],"alternate_locations":[],"sources":[{"bookId":"sr5-blutige-geschafte","title":"Blutige Geschäfte","edition":"SR5","citation":"Marina Bay Orchid","purpose":"description"}],"map_sources":[],"editions":["SR5"],"edition_descriptions":{"SR5":{"kind":"Ortsprofil","preview":"Die Marina Bay Orchid ist ein benannter Hotel- und Missionsstandort.","full":"Die Marina Bay Orchid ist ein benannter Hotel- und Missionsstandort. Die Position ist auf den belegten Stadt- oder Teilraum angenähert; eine hausgenaue Lage und eine weitergehende eigene Fließtextbeschreibung sind aus dem zugeordneten Datenmaterial nicht sicher ableitbar.","hasMore":true,"hasExcerpt":true,"sources":[{"bookId":"sr5-blutige-geschafte","title":"Blutige Geschäfte","edition":"SR5","citation":"Marina Bay Orchid","purpose":"description"}]}}}},{"type":"Feature","geometry":{"type":"Point","coordinates":[103.8198,1.3521]},"properties":{"id":1,"global_id":"singapur:place:1-singapur-lore-raum","name":"Singapur Lore-Raum","aliases":[],"category":"Bezirke","detail_map":"Singapur Lore-Raum","source_pages":"Stadt- oder Regionalkapitel","map_source":"Shadows of Asia","placement_note":"Geografischer Bezugspunkt des Lore-Distrikts Singapur Lore-Raum","accuracy":"Lore-Bezirkszentrum; Grenzpolygon noch nicht georeferenziert","source_map":"singapur-content","source_panel":"Singapur Lore-Raum","description_preview":"Singapur ist ein hochkontrollierter asiatischer Handels-, Hafen-, Finanz- und Matrixknoten.","description_full":"Singapur ist ein hochkontrollierter asiatischer Handels-, Hafen-, Finanz- und Matrixknoten. Die Position ist auf den belegten Stadt- oder Teilraum angenähert; eine hausgenaue Lage und eine weitergehende eigene Fließtextbeschreibung sind aus dem zugeordneten Datenmaterial nicht sicher ableitbar.","description_source":"Stadt- oder Regionalkapitel","description_kind":"Ortsprofil","description_has_more":true,"detail_plans":[],"alternate_locations":[],"sources":[{"bookId":"sr3-shadows-of-asia","title":"Shadows of Asia","edition":"SR3","citation":"Stadt- oder Regionalkapitel","purpose":"description"}],"map_sources":[],"editions":["SR3"],"edition_descriptions":{"SR3":{"kind":"Ortsprofil","preview":"Singapur ist ein hochkontrollierter asiatischer Handels-, Hafen-, Finanz- und Matrixknoten.","full":"Singapur ist ein hochkontrollierter asiatischer Handels-, Hafen-, Finanz- und Matrixknoten. Die Position ist auf den belegten Stadt- oder Teilraum angenähert; eine hausgenaue Lage und eine weitergehende eigene Fließtextbeschreibung sind aus dem zugeordneten Datenmaterial nicht sicher ableitbar.","hasMore":true,"hasExcerpt":true,"sources":[{"bookId":"sr3-shadows-of-asia","title":"Shadows of Asia","edition":"SR3","citation":"Stadt- oder Regionalkapitel","purpose":"description"}]}}}}]}
