{"type":"FeatureCollection","name":"Singapur – geprüfte zusätzliche Quellenorte","features":[{"type":"Feature","geometry":null,"properties":{"id":4,"global_id":"singapur:source-place:gum-the-national-university-of-singapore-trained","name":"Gum, the National University of Singapore-trained","aliases":[],"category":"Sonstige Spots","detail_map":"Singapur","source_pages":"Textzeile 14663","map_source":"Margin Calls (Corporate World Post DIS Plot)","placement_note":"Keine belastbare Einzelposition; Eintrag bleibt im Katalog","accuracy":"Nur Stadt oder Lore-Teilraum belegt","source_map":"source-supplement","source_panel":"Singapur","description_preview":"Gum, the National University of Singapore-trained ist in Margin Calls (Corporate World Post DIS Plot) als benannter Schauplatz mit Bezug zu Singapur belegt.","description_full":"Gum, the National University of Singapore-trained ist in Margin Calls (Corporate World Post DIS Plot) als benannter Schauplatz mit Bezug zu Singapur belegt. Das Dossier fasst den belegten Quellenstand redaktionell zusammen; eine nicht belegte Kartenposition wird nicht ergänzt.","description_source":"Textzeile 14663","description_kind":"Ortsdossier","description_has_more":true,"detail_plans":[],"alternate_locations":[],"sources":[{"bookId":"sr6-margin-calls-corporate-world-post-dis-plot","title":"Margin Calls (Corporate World Post DIS Plot)","edition":"SR6","citation":"Textzeile 14663","purpose":"description"}],"map_sources":[],"editions":["SR6"],"edition_descriptions":{"SR6":{"kind":"Ortsdossier","preview":"Gum, the National University of Singapore-trained ist in Margin Calls (Corporate World Post DIS Plot) als benannter Schauplatz mit Bezug zu Singapur belegt.","full":"Gum, the National University of Singapore-trained ist in Margin Calls (Corporate World Post DIS Plot) als benannter Schauplatz mit Bezug zu Singapur belegt. Das Dossier fasst den belegten Quellenstand redaktionell zusammen; eine nicht belegte Kartenposition wird nicht ergänzt.","hasMore":true,"hasExcerpt":true,"sources":[{"bookId":"sr6-margin-calls-corporate-world-post-dis-plot","title":"Margin Calls (Corporate World Post DIS Plot)","edition":"SR6","citation":"Textzeile 14663","purpose":"description"}]}}}}]}
