{"type":"FeatureCollection","name":"Istanbul Orte","features":[{"type":"Feature","geometry":{"type":"Point","coordinates":[28.977,41.037]},"properties":{"id":2,"global_id":"istanbul:place:2-beyoglu","name":"Beyoğlu","aliases":[],"category":"Bezirke","detail_map":"Beyoğlu","source_pages":"Beyoglu","map_source":"Runner Havens","placement_note":"Geografischer Bezugspunkt des Lore-Distrikts Beyoğlu","accuracy":"Lore-Bezirkszentrum; Grenzpolygon noch nicht georeferenziert","source_map":"istanbul-content","source_panel":"Beyoğlu","description_preview":"Beyoğlu ist ein moderner, nach Erdbeben teilweise neu errichteter Bezirk mit hyperaktivem Nachtleben.","description_full":"Beyoğlu ist ein moderner, nach Erdbeben teilweise neu errichteter Bezirk mit hyperaktivem Nachtleben. Die Position ist auf den belegten Stadt- oder Teilraum angenähert; eine hausgenaue Lage und eine weitergehende eigene Fließtextbeschreibung sind aus dem zugeordneten Datenmaterial nicht sicher ableitbar.","description_source":"Beyoglu","description_kind":"Ortsprofil","description_has_more":true,"detail_plans":[],"alternate_locations":[],"sources":[{"bookId":"sr4-runner-havens","title":"Runner Havens","edition":"SR4","citation":"Beyoglu","purpose":"description"}],"map_sources":[],"editions":["SR4"],"edition_descriptions":{"SR4":{"kind":"Ortsprofil","preview":"Beyoğlu ist ein moderner, nach Erdbeben teilweise neu errichteter Bezirk mit hyperaktivem Nachtleben.","full":"Beyoğlu ist ein moderner, nach Erdbeben teilweise neu errichteter Bezirk mit hyperaktivem Nachtleben. Die Position ist auf den belegten Stadt- oder Teilraum angenähert; eine hausgenaue Lage und eine weitergehende eigene Fließtextbeschreibung sind aus dem zugeordneten Datenmaterial nicht sicher ableitbar.","hasMore":true,"hasExcerpt":true,"sources":[{"bookId":"sr4-runner-havens","title":"Runner Havens","edition":"SR4","citation":"Beyoglu","purpose":"description"}]}}}},{"type":"Feature","geometry":{"type":"Point","coordinates":[28.9741,41.0256]},"properties":{"id":1,"global_id":"istanbul:place:1-galata","name":"Galata","aliases":[],"category":"Bezirke","detail_map":"Galata","source_pages":"Galata","map_source":"Mit Tricks und Finesse","placement_note":"Geografischer Bezugspunkt des Lore-Distrikts Galata","accuracy":"Lore-Bezirkszentrum; Grenzpolygon noch nicht georeferenziert","source_map":"istanbul-content","source_panel":"Galata","description_preview":"Galata umfasst Galata und Beyoğlu und verbindet alte Handels-, Bank-, Hafen- und Vergnügungsräume.","description_full":"Galata umfasst Galata und Beyoğlu und verbindet alte Handels-, Bank-, Hafen- und Vergnügungsräume. Die Position ist auf den belegten Stadt- oder Teilraum angenähert; eine hausgenaue Lage und eine weitergehende eigene Fließtextbeschreibung sind aus dem zugeordneten Datenmaterial nicht sicher ableitbar.","description_source":"Galata","description_kind":"Ortsprofil","description_has_more":true,"detail_plans":[],"alternate_locations":[],"sources":[{"bookId":"sr5-mit-tricks-und-finesse","title":"Mit Tricks und Finesse","edition":"SR5","citation":"Galata","purpose":"description"}],"map_sources":[],"editions":["SR5"],"edition_descriptions":{"SR5":{"kind":"Ortsprofil","preview":"Galata umfasst Galata und Beyoğlu und verbindet alte Handels-, Bank-, Hafen- und Vergnügungsräume.","full":"Galata umfasst Galata und Beyoğlu und verbindet alte Handels-, Bank-, Hafen- und Vergnügungsräume. Die Position ist auf den belegten Stadt- oder Teilraum angenähert; eine hausgenaue Lage und eine weitergehende eigene Fließtextbeschreibung sind aus dem zugeordneten Datenmaterial nicht sicher ableitbar.","hasMore":true,"hasExcerpt":true,"sources":[{"bookId":"sr5-mit-tricks-und-finesse","title":"Mit Tricks und Finesse","edition":"SR5","citation":"Galata","purpose":"description"}]}}}},{"type":"Feature","geometry":null,"properties":{"id":4,"global_id":"istanbul:place:4-house-of-justice","name":"House of Justice","aliases":[],"category":"Behörden","detail_map":"Istanbul","source_pages":"House of Justice","map_source":"Cutting Aces","placement_note":"Keine belastbare Einzelposition; Eintrag bleibt im Katalog","accuracy":"Nur Stadt oder Lore-Teilraum belegt","source_map":"istanbul-content","source_panel":"Istanbul","description_preview":"Das große Justizgebäude beherbergt Gerichte, Genehmigungsstellen und eine eigene Sicherheitseinheit.","description_full":"Das große Justizgebäude beherbergt Gerichte, Genehmigungsstellen und eine eigene Sicherheitseinheit. Die Position ist auf den belegten Stadt- oder Teilraum angenähert; eine hausgenaue Lage und eine weitergehende eigene Fließtextbeschreibung sind aus dem zugeordneten Datenmaterial nicht sicher ableitbar.","description_source":"House of Justice","description_kind":"Ortsprofil","description_has_more":true,"detail_plans":[],"alternate_locations":[],"sources":[{"bookId":"sr5-cutting-aces","title":"Cutting Aces","edition":"SR5","citation":"House of Justice","purpose":"description"}],"map_sources":[],"editions":["SR5"],"edition_descriptions":{"SR5":{"kind":"Ortsprofil","preview":"Das große Justizgebäude beherbergt Gerichte, Genehmigungsstellen und eine eigene Sicherheitseinheit.","full":"Das große Justizgebäude beherbergt Gerichte, Genehmigungsstellen und eine eigene Sicherheitseinheit. Die Position ist auf den belegten Stadt- oder Teilraum angenähert; eine hausgenaue Lage und eine weitergehende eigene Fließtextbeschreibung sind aus dem zugeordneten Datenmaterial nicht sicher ableitbar.","hasMore":true,"hasExcerpt":true,"sources":[{"bookId":"sr5-cutting-aces","title":"Cutting Aces","edition":"SR5","citation":"House of Justice","purpose":"description"}]}}}},{"type":"Feature","geometry":null,"properties":{"id":6,"global_id":"istanbul:place:6-link-club-istanbul","name":"Link Club Istanbul","aliases":[],"category":"Bars und Clubs","detail_map":"Istanbul","source_pages":"Link Club","map_source":"Gestohlene Seelen","placement_note":"Keine belastbare Einzelposition; Eintrag bleibt im Katalog","accuracy":"Nur Stadt oder Lore-Teilraum belegt","source_map":"istanbul-content","source_panel":"Istanbul","description_preview":"Der lokale Ableger gehört zur internationalen Link-Club-Kette.","description_full":"Der lokale Ableger gehört zur internationalen Link-Club-Kette. Die Position ist auf den belegten Stadt- oder Teilraum angenähert; eine hausgenaue Lage und eine weitergehende eigene Fließtextbeschreibung sind aus dem zugeordneten Datenmaterial nicht sicher ableitbar.","description_source":"Link Club","description_kind":"Ortsprofil","description_has_more":true,"detail_plans":[],"alternate_locations":[],"sources":[{"bookId":"sr5-gestohlene-seelen","title":"Gestohlene Seelen","edition":"SR5","citation":"Link Club","purpose":"description"}],"map_sources":[],"editions":["SR5"],"edition_descriptions":{"SR5":{"kind":"Ortsprofil","preview":"Der lokale Ableger gehört zur internationalen Link-Club-Kette.","full":"Der lokale Ableger gehört zur internationalen Link-Club-Kette. Die Position ist auf den belegten Stadt- oder Teilraum angenähert; eine hausgenaue Lage und eine weitergehende eigene Fließtextbeschreibung sind aus dem zugeordneten Datenmaterial nicht sicher ableitbar.","hasMore":true,"hasExcerpt":true,"sources":[{"bookId":"sr5-gestohlene-seelen","title":"Gestohlene Seelen","edition":"SR5","citation":"Link Club","purpose":"description"}]}}}},{"type":"Feature","geometry":{"type":"Point","coordinates":[28.951,41.005]},"properties":{"id":3,"global_id":"istanbul:place:3-yenikap","name":"Yenikapı","aliases":[],"category":"Bezirke","detail_map":"Yenikapı","source_pages":"Yenikapi Square","map_source":"Cutting Aces","placement_note":"Geografischer Bezugspunkt des Lore-Distrikts Yenikapı","accuracy":"Lore-Bezirkszentrum; Grenzpolygon noch nicht georeferenziert","source_map":"istanbul-content","source_panel":"Yenikapı","description_preview":"Yenikapı ist ein Küsten-, Verkehrs- und Großveranstaltungsraum.","description_full":"Yenikapı ist ein Küsten-, Verkehrs- und Großveranstaltungsraum. Die Position ist auf den belegten Stadt- oder Teilraum angenähert; eine hausgenaue Lage und eine weitergehende eigene Fließtextbeschreibung sind aus dem zugeordneten Datenmaterial nicht sicher ableitbar.","description_source":"Yenikapi Square","description_kind":"Ortsprofil","description_has_more":true,"detail_plans":[],"alternate_locations":[],"sources":[{"bookId":"sr5-cutting-aces","title":"Cutting Aces","edition":"SR5","citation":"Yenikapi Square","purpose":"description"}],"map_sources":[],"editions":["SR5"],"edition_descriptions":{"SR5":{"kind":"Ortsprofil","preview":"Yenikapı ist ein Küsten-, Verkehrs- und Großveranstaltungsraum.","full":"Yenikapı ist ein Küsten-, Verkehrs- und Großveranstaltungsraum. Die Position ist auf den belegten Stadt- oder Teilraum angenähert; eine hausgenaue Lage und eine weitergehende eigene Fließtextbeschreibung sind aus dem zugeordneten Datenmaterial nicht sicher ableitbar.","hasMore":true,"hasExcerpt":true,"sources":[{"bookId":"sr5-cutting-aces","title":"Cutting Aces","edition":"SR5","citation":"Yenikapi Square","purpose":"description"}]}}}},{"type":"Feature","geometry":{"type":"Point","coordinates":[28.951,41.005]},"properties":{"id":5,"global_id":"istanbul:place:5-yenikap-square","name":"Yenikapı Square","aliases":[],"category":"Freizeit und Natur","detail_map":"Yenikapı","source_pages":"Yenikapi Square","map_source":"Cutting Aces","placement_note":"Erhaltener geographischer Bezugspunkt","accuracy":"Geographischer Bezugspunkt","source_map":"istanbul-content","source_panel":"Yenikapı","description_preview":"Der sehr große Küstenplatz dient Kundgebungen und Feiern mit bis zu einer Million Menschen.","description_full":"Der sehr große Küstenplatz dient Kundgebungen und Feiern mit bis zu einer Million Menschen. Die Position folgt einem erhaltenen heutigen Bezugspunkt.","description_source":"Yenikapi Square","description_kind":"Ortsprofil","description_has_more":true,"detail_plans":[],"alternate_locations":[],"sources":[{"bookId":"sr5-cutting-aces","title":"Cutting Aces","edition":"SR5","citation":"Yenikapi Square","purpose":"description"}],"map_sources":[],"editions":["SR5"],"edition_descriptions":{"SR5":{"kind":"Ortsprofil","preview":"Der sehr große Küstenplatz dient Kundgebungen und Feiern mit bis zu einer Million Menschen.","full":"Der sehr große Küstenplatz dient Kundgebungen und Feiern mit bis zu einer Million Menschen. Die Position folgt einem erhaltenen heutigen Bezugspunkt.","hasMore":true,"hasExcerpt":true,"sources":[{"bookId":"sr5-cutting-aces","title":"Cutting Aces","edition":"SR5","citation":"Yenikapi Square","purpose":"description"}]}}}}]}
