{"type":"FeatureCollection","name":"Istanbul – geprüfte zusätzliche Quellenorte","features":[{"type":"Feature","geometry":null,"properties":{"id":7,"global_id":"istanbul:source-place:istanbul-grand-bazaar","name":"Istanbul Grand Bazaar","aliases":[],"category":"Sonstige Spots","detail_map":"Istanbul","source_pages":"Textzeile 9305","map_source":"Dawn of the Artifacts 5 - Artifacts Unbound","placement_note":"Keine belastbare Einzelposition; Eintrag bleibt im Katalog","accuracy":"Nur Stadt oder Lore-Teilraum belegt","source_map":"source-supplement","source_panel":"Istanbul","description_preview":"Istanbul Grand Bazaar ist in Dawn of the Artifacts 5 - Artifacts Unbound als benannter Schauplatz mit Bezug zu Istanbul belegt.","description_full":"Istanbul Grand Bazaar ist in Dawn of the Artifacts 5 - Artifacts Unbound als benannter Schauplatz mit Bezug zu Istanbul belegt. Das Dossier fasst den belegten Quellenstand redaktionell zusammen; eine nicht belegte Kartenposition wird nicht ergänzt.","description_source":"Textzeile 9305","description_kind":"Ortsdossier","description_has_more":true,"detail_plans":[],"alternate_locations":[],"sources":[{"bookId":"sr4-dawn-of-the-artifacts-5-artifacts-unbound","title":"Dawn of the Artifacts 5 - Artifacts Unbound","edition":"SR4","citation":"Textzeile 9305","purpose":"description"}],"map_sources":[],"editions":["SR4"],"edition_descriptions":{"SR4":{"kind":"Ortsdossier","preview":"Istanbul Grand Bazaar ist in Dawn of the Artifacts 5 - Artifacts Unbound als benannter Schauplatz mit Bezug zu Istanbul belegt.","full":"Istanbul Grand Bazaar ist in Dawn of the Artifacts 5 - Artifacts Unbound als benannter Schauplatz mit Bezug zu Istanbul belegt. Das Dossier fasst den belegten Quellenstand redaktionell zusammen; eine nicht belegte Kartenposition wird nicht ergänzt.","hasMore":true,"hasExcerpt":true,"sources":[{"bookId":"sr4-dawn-of-the-artifacts-5-artifacts-unbound","title":"Dawn of the Artifacts 5 - Artifacts Unbound","edition":"SR4","citation":"Textzeile 9305","purpose":"description"}]}}}},{"type":"Feature","geometry":null,"properties":{"id":8,"global_id":"istanbul:source-place:yenikapi-square","name":"Yenikapi Square","aliases":[],"category":"Sonstige Spots","detail_map":"Istanbul","source_pages":"Textzeile 8254","map_source":"Cutting Aces","placement_note":"Keine belastbare Einzelposition; Eintrag bleibt im Katalog","accuracy":"Nur Stadt oder Lore-Teilraum belegt","source_map":"source-supplement","source_panel":"Istanbul","description_preview":"Yenikapi Square ist in Cutting Aces als benannter Schauplatz mit Bezug zu Istanbul belegt.","description_full":"Yenikapi Square ist in Cutting Aces als benannter Schauplatz mit Bezug zu Istanbul belegt. Das Dossier fasst den belegten Quellenstand redaktionell zusammen; eine nicht belegte Kartenposition wird nicht ergänzt.","description_source":"Textzeile 8254","description_kind":"Ortsdossier","description_has_more":true,"detail_plans":[],"alternate_locations":[],"sources":[{"bookId":"sr5-cutting-aces","title":"Cutting Aces","edition":"SR5","citation":"Textzeile 8254","purpose":"description"}],"map_sources":[],"editions":["SR5"],"edition_descriptions":{"SR5":{"kind":"Ortsdossier","preview":"Yenikapi Square ist in Cutting Aces als benannter Schauplatz mit Bezug zu Istanbul belegt.","full":"Yenikapi Square ist in Cutting Aces als benannter Schauplatz mit Bezug zu Istanbul belegt. Das Dossier fasst den belegten Quellenstand redaktionell zusammen; eine nicht belegte Kartenposition wird nicht ergänzt.","hasMore":true,"hasExcerpt":true,"sources":[{"bookId":"sr5-cutting-aces","title":"Cutting Aces","edition":"SR5","citation":"Textzeile 8254","purpose":"description"}]}}}}]}
