{"type":"FeatureCollection","name":"Vancouver Orte","features":[{"type":"Feature","geometry":null,"properties":{"id":2,"global_id":"vancouver:place:2-kyuusei-medical","name":"Kyuusei Medical","aliases":[],"category":"Medizin","detail_map":"Vancouver","source_pages":"Kyuusei Medical","map_source":"Shadows of North America","placement_note":"Keine belastbare Einzelposition; Eintrag bleibt im Katalog","accuracy":"Nur Stadt oder Lore-Teilraum belegt","source_map":"vancouver-content","source_panel":"Vancouver","description_preview":"Kyuusei Medical ist ein belegter Biotech- und Medizinkonzernstandort.","description_full":"Kyuusei Medical ist ein belegter Biotech- und Medizinkonzernstandort. Die Position ist auf den belegten Stadt- oder Teilraum angenähert; eine hausgenaue Lage und eine weitergehende eigene Fließtextbeschreibung sind aus dem zugeordneten Datenmaterial nicht sicher ableitbar.","description_source":"Kyuusei Medical","description_kind":"Ortsprofil","description_has_more":true,"detail_plans":[],"alternate_locations":[],"sources":[{"bookId":"sr3-shadows-of-north-america","title":"Shadows of North America","edition":"SR3","citation":"Kyuusei Medical","purpose":"description"}],"map_sources":[],"editions":["SR3"],"edition_descriptions":{"SR3":{"kind":"Ortsprofil","preview":"Kyuusei Medical ist ein belegter Biotech- und Medizinkonzernstandort.","full":"Kyuusei Medical ist ein belegter Biotech- und Medizinkonzernstandort. Die Position ist auf den belegten Stadt- oder Teilraum angenähert; eine hausgenaue Lage und eine weitergehende eigene Fließtextbeschreibung sind aus dem zugeordneten Datenmaterial nicht sicher ableitbar.","hasMore":true,"hasExcerpt":true,"sources":[{"bookId":"sr3-shadows-of-north-america","title":"Shadows of North America","edition":"SR3","citation":"Kyuusei Medical","purpose":"description"}]}}}},{"type":"Feature","geometry":null,"properties":{"id":3,"global_id":"vancouver:place:3-pacific-cybernetics-incorporated","name":"Pacific Cybernetics Incorporated","aliases":[],"category":"Konzerne","detail_map":"Vancouver","source_pages":"Pacific Cybernetics Incorporated","map_source":"Nordamerika in den Schatten","placement_note":"Keine belastbare Einzelposition; Eintrag bleibt im Katalog","accuracy":"Nur Stadt oder Lore-Teilraum belegt","source_map":"vancouver-content","source_panel":"Vancouver","description_preview":"Pacific Cybernetics ist ein lokaler Technologie- und Konzernakteur.","description_full":"Pacific Cybernetics ist ein lokaler Technologie- und Konzernakteur. Die Position ist auf den belegten Stadt- oder Teilraum angenähert; eine hausgenaue Lage und eine weitergehende eigene Fließtextbeschreibung sind aus dem zugeordneten Datenmaterial nicht sicher ableitbar.","description_source":"Pacific Cybernetics Incorporated","description_kind":"Ortsprofil","description_has_more":true,"detail_plans":[],"alternate_locations":[],"sources":[{"bookId":"sr3-nordamerika-in-den-schatten","title":"Nordamerika in den Schatten","edition":"SR3","citation":"Pacific Cybernetics Incorporated","purpose":"description"}],"map_sources":[],"editions":["SR3"],"edition_descriptions":{"SR3":{"kind":"Ortsprofil","preview":"Pacific Cybernetics ist ein lokaler Technologie- und Konzernakteur.","full":"Pacific Cybernetics ist ein lokaler Technologie- und Konzernakteur. Die Position ist auf den belegten Stadt- oder Teilraum angenähert; eine hausgenaue Lage und eine weitergehende eigene Fließtextbeschreibung sind aus dem zugeordneten Datenmaterial nicht sicher ableitbar.","hasMore":true,"hasExcerpt":true,"sources":[{"bookId":"sr3-nordamerika-in-den-schatten","title":"Nordamerika in den Schatten","edition":"SR3","citation":"Pacific Cybernetics Incorporated","purpose":"description"}]}}}},{"type":"Feature","geometry":{"type":"Point","coordinates":[-123.1207,49.2827]},"properties":{"id":1,"global_id":"vancouver:place:1-vancouver-lore-raum","name":"Vancouver Lore-Raum","aliases":[],"category":"Bezirke","detail_map":"Vancouver Lore-Raum","source_pages":"Stadt- oder Regionalkapitel","map_source":"Shadows of North America","placement_note":"Geografischer Bezugspunkt des Lore-Distrikts Vancouver Lore-Raum","accuracy":"Lore-Bezirkszentrum; Grenzpolygon noch nicht georeferenziert","source_map":"vancouver-content","source_panel":"Vancouver Lore-Raum","description_preview":"Vancouver ist ein salish-shidischer Küstenplex mit Hafen, Biotechnologie, Schmuggel und starker indigener Politik.","description_full":"Vancouver ist ein salish-shidischer Küstenplex mit Hafen, Biotechnologie, Schmuggel und starker indigener Politik. Die Position ist auf den belegten Stadt- oder Teilraum angenähert; eine hausgenaue Lage und eine weitergehende eigene Fließtextbeschreibung sind aus dem zugeordneten Datenmaterial nicht sicher ableitbar.","description_source":"Stadt- oder Regionalkapitel","description_kind":"Ortsprofil","description_has_more":true,"detail_plans":[],"alternate_locations":[],"sources":[{"bookId":"sr3-shadows-of-north-america","title":"Shadows of North America","edition":"SR3","citation":"Stadt- oder Regionalkapitel","purpose":"description"}],"map_sources":[],"editions":["SR3"],"edition_descriptions":{"SR3":{"kind":"Ortsprofil","preview":"Vancouver ist ein salish-shidischer Küstenplex mit Hafen, Biotechnologie, Schmuggel und starker indigener Politik.","full":"Vancouver ist ein salish-shidischer Küstenplex mit Hafen, Biotechnologie, Schmuggel und starker indigener Politik. Die Position ist auf den belegten Stadt- oder Teilraum angenähert; eine hausgenaue Lage und eine weitergehende eigene Fließtextbeschreibung sind aus dem zugeordneten Datenmaterial nicht sicher ableitbar.","hasMore":true,"hasExcerpt":true,"sources":[{"bookId":"sr3-shadows-of-north-america","title":"Shadows of North America","edition":"SR3","citation":"Stadt- oder Regionalkapitel","purpose":"description"}]}}}}]}
