{"type":"FeatureCollection","name":"Dallas/Fort Worth Orte","features":[{"type":"Feature","geometry":{"type":"Point","coordinates":[-97.04,32.899]},"properties":{"id":2,"global_id":"dallas-fort-worth:place:2-d-fw-airport","name":"D/FW Airport","aliases":[],"category":"Verkehr","detail_map":"Dallas/Fort Worth","source_pages":"D/FW Airport","map_source":"Nordamerika Quellenbuch","placement_note":"Erhaltener geographischer Bezugspunkt","accuracy":"Geographischer Bezugspunkt","source_map":"dallas-fort-worth-content","source_panel":"Dallas/Fort Worth","description_preview":"Der Großflughafen ist das zentrale Verkehrsdrehkreuz des Sprawls.","description_full":"Der Großflughafen ist das zentrale Verkehrsdrehkreuz des Sprawls. Die Position folgt einem erhaltenen heutigen Bezugspunkt.","description_source":"D/FW Airport","description_kind":"Ortsprofil","description_has_more":true,"detail_plans":[],"alternate_locations":[],"sources":[{"bookId":"sr2-nordamerika-quellenbuch","title":"Nordamerika Quellenbuch","edition":"SR2","citation":"D/FW Airport","purpose":"description"}],"map_sources":[],"editions":["SR2"],"edition_descriptions":{"SR2":{"kind":"Ortsprofil","preview":"Der Großflughafen ist das zentrale Verkehrsdrehkreuz des Sprawls.","full":"Der Großflughafen ist das zentrale Verkehrsdrehkreuz des Sprawls. Die Position folgt einem erhaltenen heutigen Bezugspunkt.","hasMore":true,"hasExcerpt":true,"sources":[{"bookId":"sr2-nordamerika-quellenbuch","title":"Nordamerika Quellenbuch","edition":"SR2","citation":"D/FW Airport","purpose":"description"}]}}}},{"type":"Feature","geometry":{"type":"Point","coordinates":[-97.0,32.85]},"properties":{"id":1,"global_id":"dallas-fort-worth:place:1-dallas-fort-worth-lore-raum","name":"Dallas/Fort Worth Lore-Raum","aliases":[],"category":"Bezirke","detail_map":"Dallas/Fort Worth Lore-Raum","source_pages":"Stadt- oder Regionalkapitel","map_source":"The Neo-Anarchist's Guide to North America","placement_note":"Geografischer Bezugspunkt des Lore-Distrikts Dallas/Fort Worth Lore-Raum","accuracy":"Lore-Bezirkszentrum; Grenzpolygon noch nicht georeferenziert","source_map":"dallas-fort-worth-content","source_panel":"Dallas/Fort Worth Lore-Raum","description_preview":"Der DFW-Sprawl ist ein weitläufiger texanischer Wirtschafts-, Luftfahrt-, Sicherheits- und Verkehrsknoten.","description_full":"Der DFW-Sprawl ist ein weitläufiger texanischer Wirtschafts-, Luftfahrt-, Sicherheits- und Verkehrsknoten. Die Position ist auf den belegten Stadt- oder Teilraum angenähert; eine hausgenaue Lage und eine weitergehende eigene Fließtextbeschreibung sind aus dem zugeordneten Datenmaterial nicht sicher ableitbar.","description_source":"Stadt- oder Regionalkapitel","description_kind":"Ortsprofil","description_has_more":true,"detail_plans":[],"alternate_locations":[],"sources":[{"bookId":"sr1-the-neo-anarchist-s-guide-to-north-america","title":"The Neo-Anarchist's Guide to North America","edition":"SR1","citation":"Stadt- oder Regionalkapitel","purpose":"description"}],"map_sources":[],"editions":["SR1"],"edition_descriptions":{"SR1":{"kind":"Ortsprofil","preview":"Der DFW-Sprawl ist ein weitläufiger texanischer Wirtschafts-, Luftfahrt-, Sicherheits- und Verkehrsknoten.","full":"Der DFW-Sprawl ist ein weitläufiger texanischer Wirtschafts-, Luftfahrt-, Sicherheits- und Verkehrsknoten. Die Position ist auf den belegten Stadt- oder Teilraum angenähert; eine hausgenaue Lage und eine weitergehende eigene Fließtextbeschreibung sind aus dem zugeordneten Datenmaterial nicht sicher ableitbar.","hasMore":true,"hasExcerpt":true,"sources":[{"bookId":"sr1-the-neo-anarchist-s-guide-to-north-america","title":"The Neo-Anarchist's Guide to North America","edition":"SR1","citation":"Stadt- oder Regionalkapitel","purpose":"description"}]}}}},{"type":"Feature","geometry":null,"properties":{"id":3,"global_id":"dallas-fort-worth:place:3-link-club-dallas-fort-worth","name":"Link Club Dallas/Fort Worth","aliases":[],"category":"Bars und Clubs","detail_map":"Dallas/Fort Worth","source_pages":"Link Club","map_source":"Gestohlene Seelen","placement_note":"Keine belastbare Einzelposition; Eintrag bleibt im Katalog","accuracy":"Nur Stadt oder Lore-Teilraum belegt","source_map":"dallas-fort-worth-content","source_panel":"Dallas/Fort Worth","description_preview":"Der DFW-Ableger gehört zur internationalen Link-Club-Kette.","description_full":"Der DFW-Ableger gehört zur internationalen Link-Club-Kette. Die Position ist auf den belegten Stadt- oder Teilraum angenähert; eine hausgenaue Lage und eine weitergehende eigene Fließtextbeschreibung sind aus dem zugeordneten Datenmaterial nicht sicher ableitbar.","description_source":"Link Club","description_kind":"Ortsprofil","description_has_more":true,"detail_plans":[],"alternate_locations":[],"sources":[{"bookId":"sr5-gestohlene-seelen","title":"Gestohlene Seelen","edition":"SR5","citation":"Link Club","purpose":"description"}],"map_sources":[],"editions":["SR5"],"edition_descriptions":{"SR5":{"kind":"Ortsprofil","preview":"Der DFW-Ableger gehört zur internationalen Link-Club-Kette.","full":"Der DFW-Ableger gehört zur internationalen Link-Club-Kette. Die Position ist auf den belegten Stadt- oder Teilraum angenähert; eine hausgenaue Lage und eine weitergehende eigene Fließtextbeschreibung sind aus dem zugeordneten Datenmaterial nicht sicher ableitbar.","hasMore":true,"hasExcerpt":true,"sources":[{"bookId":"sr5-gestohlene-seelen","title":"Gestohlene Seelen","edition":"SR5","citation":"Link Club","purpose":"description"}]}}}}]}
