{"type":"FeatureCollection","name":"Dallas/Fort Worth – geprüfte zusätzliche Quellenorte","features":[{"type":"Feature","geometry":null,"properties":{"id":4,"global_id":"dallas-fort-worth:source-place:dallas-fort-worthsprawl-dfw-sprawl","name":"Dallas-Fort-Worthsprawl (Dfw-Sprawl)","aliases":[],"category":"Sonstige Spots","detail_map":"Dallas/Fort Worth","source_pages":"Textzeile 5087","map_source":"Neo-Anarchistische Enzyklopädie","placement_note":"Keine belastbare Einzelposition; Eintrag bleibt im Katalog","accuracy":"Nur Stadt oder Lore-Teilraum belegt","source_map":"source-supplement","source_panel":"Dallas/Fort Worth","description_preview":"Dallas-Fort-Worthsprawl (Dfw-Sprawl) ist in Neo-Anarchistische Enzyklopädie als benannter Schauplatz mit Bezug zu Dallas/Fort Worth belegt.","description_full":"Dallas-Fort-Worthsprawl (Dfw-Sprawl) ist in Neo-Anarchistische Enzyklopädie als benannter Schauplatz mit Bezug zu Dallas/Fort Worth belegt. Das Dossier fasst den belegten Quellenstand redaktionell zusammen; eine nicht belegte Kartenposition wird nicht ergänzt.","description_source":"Textzeile 5087","description_kind":"Ortsdossier","description_has_more":true,"detail_plans":[],"alternate_locations":[],"sources":[{"bookId":"sr5-neo-anarchistische-enzyklopadie","title":"Neo-Anarchistische Enzyklopädie","edition":"SR5","citation":"Textzeile 5087","purpose":"description"}],"map_sources":[],"editions":["SR5"],"edition_descriptions":{"SR5":{"kind":"Ortsdossier","preview":"Dallas-Fort-Worthsprawl (Dfw-Sprawl) ist in Neo-Anarchistische Enzyklopädie als benannter Schauplatz mit Bezug zu Dallas/Fort Worth belegt.","full":"Dallas-Fort-Worthsprawl (Dfw-Sprawl) ist in Neo-Anarchistische Enzyklopädie als benannter Schauplatz mit Bezug zu Dallas/Fort Worth belegt. Das Dossier fasst den belegten Quellenstand redaktionell zusammen; eine nicht belegte Kartenposition wird nicht ergänzt.","hasMore":true,"hasExcerpt":true,"sources":[{"bookId":"sr5-neo-anarchistische-enzyklopadie","title":"Neo-Anarchistische Enzyklopädie","edition":"SR5","citation":"Textzeile 5087","purpose":"description"}]}}}},{"type":"Feature","geometry":null,"properties":{"id":5,"global_id":"dallas-fort-worth:source-place:dallas-fort-worth-art-museum","name":"Dallas/Fort Worth Art Museum","aliases":[],"category":"Sonstige Spots","detail_map":"Dallas/Fort Worth","source_pages":"Textzeile 6096","map_source":"The Neo-Anarchist's Guide to North America","placement_note":"Keine belastbare Einzelposition; Eintrag bleibt im Katalog","accuracy":"Nur Stadt oder Lore-Teilraum belegt","source_map":"source-supplement","source_panel":"Dallas/Fort Worth","description_preview":"Dallas/Fort Worth Art Museum ist in The Neo-Anarchist's Guide to North America als benannter Schauplatz mit Bezug zu Dallas/Fort Worth belegt.","description_full":"Dallas/Fort Worth Art Museum ist in The Neo-Anarchist's Guide to North America als benannter Schauplatz mit Bezug zu Dallas/Fort Worth belegt. Das Dossier fasst den belegten Quellenstand redaktionell zusammen; eine nicht belegte Kartenposition wird nicht ergänzt.","description_source":"Textzeile 6096","description_kind":"Ortsdossier","description_has_more":true,"detail_plans":[],"alternate_locations":[],"sources":[{"bookId":"sr1-the-neo-anarchist-s-guide-to-north-america","title":"The Neo-Anarchist's Guide to North America","edition":"SR1","citation":"Textzeile 6096","purpose":"description"}],"map_sources":[],"editions":["SR1"],"edition_descriptions":{"SR1":{"kind":"Ortsdossier","preview":"Dallas/Fort Worth Art Museum ist in The Neo-Anarchist's Guide to North America als benannter Schauplatz mit Bezug zu Dallas/Fort Worth belegt.","full":"Dallas/Fort Worth Art Museum ist in The Neo-Anarchist's Guide to North America als benannter Schauplatz mit Bezug zu Dallas/Fort Worth belegt. Das Dossier fasst den belegten Quellenstand redaktionell zusammen; eine nicht belegte Kartenposition wird nicht ergänzt.","hasMore":true,"hasExcerpt":true,"sources":[{"bookId":"sr1-the-neo-anarchist-s-guide-to-north-america","title":"The Neo-Anarchist's Guide to North America","edition":"SR1","citation":"Textzeile 6096","purpose":"description"}]}}}},{"type":"Feature","geometry":null,"properties":{"id":6,"global_id":"dallas-fort-worth:source-place:dallas-fort-worth-kunstmuseum","name":"Dallas/Fort Worth Kunstmuseum","aliases":[],"category":"Sonstige Spots","detail_map":"Dallas/Fort Worth","source_pages":"Textzeile 9448","map_source":"Nordamerika Quellenbuch","placement_note":"Keine belastbare Einzelposition; Eintrag bleibt im Katalog","accuracy":"Nur Stadt oder Lore-Teilraum belegt","source_map":"source-supplement","source_panel":"Dallas/Fort Worth","description_preview":"Dallas/Fort Worth Kunstmuseum ist in Nordamerika Quellenbuch als benannter Schauplatz mit Bezug zu Dallas/Fort Worth belegt.","description_full":"Dallas/Fort Worth Kunstmuseum ist in Nordamerika Quellenbuch als benannter Schauplatz mit Bezug zu Dallas/Fort Worth belegt. Das Dossier fasst den belegten Quellenstand redaktionell zusammen; eine nicht belegte Kartenposition wird nicht ergänzt.","description_source":"Textzeile 9448","description_kind":"Ortsdossier","description_has_more":true,"detail_plans":[],"alternate_locations":[],"sources":[{"bookId":"sr2-nordamerika-quellenbuch","title":"Nordamerika Quellenbuch","edition":"SR2","citation":"Textzeile 9448","purpose":"description"}],"map_sources":[],"editions":["SR2"],"edition_descriptions":{"SR2":{"kind":"Ortsdossier","preview":"Dallas/Fort Worth Kunstmuseum ist in Nordamerika Quellenbuch als benannter Schauplatz mit Bezug zu Dallas/Fort Worth belegt.","full":"Dallas/Fort Worth Kunstmuseum ist in Nordamerika Quellenbuch als benannter Schauplatz mit Bezug zu Dallas/Fort Worth belegt. Das Dossier fasst den belegten Quellenstand redaktionell zusammen; eine nicht belegte Kartenposition wird nicht ergänzt.","hasMore":true,"hasExcerpt":true,"sources":[{"bookId":"sr2-nordamerika-quellenbuch","title":"Nordamerika Quellenbuch","edition":"SR2","citation":"Textzeile 9448","purpose":"description"}]}}}}]}
