{"type":"FeatureCollection","name":"Prag Orte","features":[{"type":"Feature","geometry":{"type":"Point","coordinates":[14.4378,50.0755]},"properties":{"id":1,"global_id":"prag:place:1-prag-lore-raum","name":"Prag Lore-Raum","aliases":[],"category":"Bezirke","detail_map":"Prag Lore-Raum","source_pages":"Stadt- oder Regionalkapitel","map_source":"Shadows of Europe","placement_note":"Geografischer Bezugspunkt des Lore-Distrikts Prag Lore-Raum","accuracy":"Lore-Bezirkszentrum; Grenzpolygon noch nicht georeferenziert","source_map":"prag-content","source_panel":"Prag Lore-Raum","description_preview":"Prag ist ein mitteleuropäisches Kultur-, Magie-, Handel- und Unterweltzentrum.","description_full":"Prag ist ein mitteleuropäisches Kultur-, Magie-, Handel- und Unterweltzentrum. Die Position ist auf den belegten Stadt- oder Teilraum angenähert; eine hausgenaue Lage und eine weitergehende eigene Fließtextbeschreibung sind aus dem zugeordneten Datenmaterial nicht sicher ableitbar.","description_source":"Stadt- oder Regionalkapitel","description_kind":"Ortsprofil","description_has_more":true,"detail_plans":[],"alternate_locations":[],"sources":[{"bookId":"sr3-shadows-of-europe","title":"Shadows of Europe","edition":"SR3","citation":"Stadt- oder Regionalkapitel","purpose":"description"}],"map_sources":[],"editions":["SR3"],"edition_descriptions":{"SR3":{"kind":"Ortsprofil","preview":"Prag ist ein mitteleuropäisches Kultur-, Magie-, Handel- und Unterweltzentrum.","full":"Prag ist ein mitteleuropäisches Kultur-, Magie-, Handel- und Unterweltzentrum. Die Position ist auf den belegten Stadt- oder Teilraum angenähert; eine hausgenaue Lage und eine weitergehende eigene Fließtextbeschreibung sind aus dem zugeordneten Datenmaterial nicht sicher ableitbar.","hasMore":true,"hasExcerpt":true,"sources":[{"bookId":"sr3-shadows-of-europe","title":"Shadows of Europe","edition":"SR3","citation":"Stadt- oder Regionalkapitel","purpose":"description"}]}}}}]}
