{"type":"FeatureCollection","name":"Toronto Stadtgrenze","features":[{"type":"Feature","geometry":{"type":"MultiPolygon","coordinates":[[[[-79.530723,43.587885],[-79.530867,43.588157],[-79.530524,43.588341],[-79.530824,43.588584],[-79.533473,43.5881],[-79.53399,43.587783],[-79.533943,43.587539],[-79.534245,43.587961],[-79.535996,43.588168],[-79.537097,43.58802],[-79.539879,43.586147],[-79.541092,43.584632],[-79.542204,43.583656],[-79.543393,43.580988],[-79.54388,43.58139],[-79.544678,43.585288],[-79.548239,43.587018],[-79.54637,43.589048],[-79.547105,43.589648],[-79.548529,43.590332],[-79.549218,43.590413],[-79.549476,43.591002],[-79.549247,43.591755],[-79.549465,43.591974],[-79.549433,43.592289],[-79.548834,43.592992],[-79.548544,43.593709],[-79.548482,43.594753],[-79.548695,43.595134],[-79.549085,43.595409],[-79.553376,43.595742],[-79.553785,43.596252],[-79.553474,43.598364],[-79.554013,43.599136],[-79.555548,43.599722],[-79.555761,43.600139],[-79.556172,43.602639],[-79.556901,43.603251],[-79.558309,43.603953],[-79.559599,43.60512],[-79.562786,43.606918],[-79.564721,43.607347],[-79.564521,43.607921],[-79.564612,43.6083],[-79.565481,43.608752],[-79.56691,43.609076],[-79.567185,43.610034],[-79.567122,43.610574],[-79.566844,43.610804],[-79.565801,43.610908],[-79.564835,43.611923],[-79.56406,43.61221],[-79.563824,43.612774],[-79.564379,43.613403],[-79.566581,43.613556],[-79.568273,43.614298],[-79.567526,43.617062],[-79.56685,43.617368],[-79.566353,43.617938],[-79.566309,43.618208],[-79.566679,43.618816],[-79.566606,43.619814],[-79.566771,43.620699],[-79.566691,43.620923],[-79.565436,43.621592],[-79.565782,43.622649],[-79.565458,43.624284],[-79.565069,43.624513],[-79.564004,43.624464],[-79.563652,43.624658],[-79.563279,43.626814],[-79.563739,43.627765],[-79.564409,43.628287],[-79.566801,43.62829],[-79.567639,43.627958],[-79.567888,43.627394],[-79.568421,43.626878],[-79.570401,43.626993],[-79.573921,43.625966],[-79.574339,43.625602],[-79.574787,43.625544],[-79.577282,43.626422],[-79.579551,43.626927],[-79.58077,43.627798],[-79.582549,43.628045],[-79.585282,43.628853],[-79.585874,43.629509],[-79.585049,43.631362],[-79.584998,43.631965],[-79.585166,43.632723],[-79.585656,43.633522],[-79.585412,43.634419],[-79.585875,43.635253],[-79.5858,43.635829],[-79.585214,43.637019],[-79.585253,43.637496],[-79.586829,43.639524],[-79.587269,43.640871],[-79.588153,43.641764],[-79.588161,43.642476],[-79.589695,43.643665],[-79.591754,43.644726],[-79.592633,43.644773],[-79.593382,43.644548],[-79.595869,43.643174],[-79.598125,43.643183],[-79.599154,43.643718],[-79.60197,43.644203],[-79.602369,43.644622],[-79.602998,43.644774],[-79.604765,43.644516],[-79.605661,43.644914],[-79.606892,43.644758],[-79.607726,43.645147],[-79.60827,43.646288],[-79.608611,43.64657],[-79.588579,43.664824],[-79.590254,43.666844],[-79.590279,43.66721],[-79.594991,43.674856],[-79.600088,43.683811],[-79.600798,43.685307],[-79.600816,43.686144],[-79.602128,43.688081],[-79.604934,43.693403],[-79.61369,43.707444],[-79.620937,43.719775],[-79.625999,43.729036],[-79.630708,43.736656],[-79.630623,43.736939],[-79.63013,43.736985],[-79.630005,43.737363],[-79.630261,43.737556],[-79.630113,43.738058],[-79.631154,43.738692],[-79.631914,43.739682],[-79.632625,43.741699],[-79.633271,43.742247],[-79.633978,43.742309],[-79.633918,43.742732],[-79.634672,43.743069],[-79.638151,43.748865],[-79.63922,43.749899],[-79.637167,43.75081],[-79.635765,43.751149],[-79.632791,43.751318],[-79.63093,43.751641],[-79.580714,43.762973],[-79.57989930410113,43.762620064950674],[-79.580572,43.762996],[-79.564758,43.766572],[-79.521688,43.775442],[-79.501513,43.779883],[-79.470087,43.787272],[-79.420024,43.798048],[-79.37177,43.808707],[-79.341309,43.815615],[-79.224099,43.842987],[-79.206122,43.846894],[-79.170316,43.855448],[-79.159536,43.831748],[-79.15638,43.824415],[-79.152933,43.817155],[-79.152145,43.814677],[-79.15173,43.813977],[-79.151219,43.813874],[-79.14946,43.812473],[-79.148214,43.812313],[-79.14666,43.811333],[-79.146116,43.810829],[-79.14612,43.810577],[-79.146392,43.810474],[-79.146083,43.810059],[-79.143625,43.810055],[-79.143416,43.81061],[-79.143183,43.810693],[-79.142864,43.81007],[-79.143138,43.80962],[-79.142452,43.809437],[-79.14196,43.809632],[-79.141231,43.808904],[-79.140685,43.808774],[-79.140627,43.80844],[-79.139316,43.808346],[-79.138933,43.807985],[-79.138398,43.807949],[-79.138151,43.807486],[-79.13787,43.807495],[-79.137599,43.807855],[-79.137038,43.807702],[-79.136248,43.808067],[-79.13588,43.808029],[-79.134087,43.806848],[-79.133896,43.806196],[-79.134409,43.804497],[-79.133659,43.802956],[-79.134168,43.802212],[-79.135393,43.801071],[-79.135243,43.800663],[-79.132151,43.801625],[-79.131015,43.801773],[-79.12985,43.801439],[-79.127671,43.800278],[-79.125166,43.80012],[-79.124589,43.799633],[-79.124214,43.799001],[-79.124342,43.797725],[-79.124213,43.797417],[-79.123461,43.79717],[-79.121919,43.797393],[-79.121161,43.797016],[-79.120294,43.796146],[-79.12026,43.79561],[-79.121218,43.795193],[-79.12099,43.79473],[-79.119308,43.794788],[-79.117425,43.794334],[-79.115798,43.794834],[-79.115232,43.794604],[-79.11836,43.79285],[-79.120171,43.791201],[-79.124874,43.784918],[-79.126798,43.782635],[-79.126702,43.782142],[-79.127264,43.78203],[-79.12835,43.780724],[-79.129724,43.779716],[-79.132897,43.776513],[-79.134718,43.775102],[-79.136524,43.77311],[-79.138492,43.771337],[-79.141209,43.769495],[-79.142992,43.767759],[-79.146448,43.765533],[-79.149846,43.762284],[-79.151504,43.760145],[-79.152993,43.75908],[-79.159598,43.758547],[-79.163337,43.757527],[-79.167269,43.756825],[-79.170587,43.755675],[-79.17079881551616,43.75584660386437],[-79.170626,43.755661],[-79.175061,43.754068],[-79.178945,43.752266],[-79.180226,43.751422],[-79.18167,43.750842],[-79.182761,43.750076],[-79.18326,43.749413],[-79.185774,43.748188],[-79.186344,43.747684],[-79.187544,43.747419],[-79.188928,43.746636],[-79.18964,43.746093],[-79.189844,43.7457],[-79.193504,43.742895],[-79.194504,43.742506],[-79.195194,43.741413],[-79.196136,43.740924],[-79.197532,43.739136],[-79.202364,43.735724],[-79.204735,43.734986],[-79.205283,43.735333],[-79.206056,43.73507],[-79.208684,43.733149],[-79.212891,43.728528],[-79.213296,43.727873],[-79.213355,43.727257],[-79.213821,43.726778],[-79.214722,43.726495],[-79.216495,43.724672],[-79.217405,43.723304],[-79.218517,43.722075],[-79.21969,43.721575],[-79.222683,43.719344],[-79.224174,43.717782],[-79.225688,43.715478],[-79.226639,43.713382],[-79.226627,43.712954],[-79.225207,43.712387],[-79.225618,43.71211],[-79.225771,43.711694],[-79.225009,43.71106],[-79.225133,43.71081],[-79.225678,43.710549],[-79.226466,43.7089],[-79.226318,43.708483],[-79.225823,43.708102],[-79.225985,43.707366],[-79.226238,43.707244],[-79.226504,43.70804],[-79.227803,43.708065],[-79.228089,43.708308],[-79.22719,43.708767],[-79.226735,43.709737],[-79.226289,43.711256],[-79.226594,43.712382],[-79.228136,43.712644],[-79.229395,43.712569],[-79.230507,43.711528],[-79.230565,43.711111],[-79.230363,43.710716],[-79.229536,43.710311],[-79.229133,43.710544],[-79.229109,43.711736],[-79.228067,43.711756],[-79.22719,43.711508],[-79.22727,43.711231],[-79.228234,43.710935],[-79.228042,43.710909],[-79.228035,43.710473],[-79.228282,43.709959],[-79.22781,43.709641],[-79.227897,43.709368],[-79.228219,43.709274],[-79.229159,43.709639],[-79.229684,43.709215],[-79.22915,43.708784],[-79.228511,43.709084],[-79.228416,43.708786],[-79.229224,43.708438],[-79.229445,43.708172],[-79.229476,43.707695],[-79.229768,43.707762],[-79.229905,43.708462],[-79.231016,43.708768],[-79.23141,43.708432],[-79.231835,43.708515],[-79.231361,43.709498],[-79.230106,43.71005],[-79.230637,43.710477],[-79.231124,43.710597],[-79.23161,43.71042],[-79.23304,43.709299],[-79.233311,43.708353],[-79.233196,43.708117],[-79.233456,43.70759],[-79.231857,43.706723],[-79.231086,43.706626],[-79.231061,43.7064],[-79.22977,43.705885],[-79.228765,43.706887],[-79.228618,43.707375],[-79.227579,43.707386],[-79.227661,43.707109],[-79.228359,43.706872],[-79.229066,43.705618],[-79.22916,43.70538],[-79.22894,43.704765],[-79.229196,43.704679],[-79.230131,43.705125],[-79.231111,43.705325],[-79.231525,43.705273],[-79.232153,43.704833],[-79.232535,43.705275],[-79.233211,43.705245],[-79.233305,43.705404],[-79.232991,43.705629],[-79.233098,43.705865],[-79.232712,43.706313],[-79.232657,43.706686],[-79.233802,43.706884],[-79.233873,43.706633],[-79.234128,43.706646],[-79.233969,43.706391],[-79.234367,43.706343],[-79.233592,43.705814],[-79.233954,43.705374],[-79.235766,43.704483],[-79.236527,43.70327],[-79.236388,43.702404],[-79.235416,43.701664],[-79.235632,43.701244],[-79.236376,43.701305],[-79.236842,43.701884],[-79.237437,43.702213],[-79.238172,43.702211],[-79.238603,43.701893],[-79.239138,43.702041],[-79.23905,43.702476],[-79.238487,43.702459],[-79.23778,43.702831],[-79.237541,43.703579],[-79.236777,43.704157],[-79.236661,43.704627],[-79.23739,43.705053],[-79.238584,43.704599],[-79.238316,43.70432],[-79.237589,43.704322],[-79.237659,43.704166],[-79.238599,43.704257],[-79.239716,43.703738],[-79.23903,43.703602],[-79.238148,43.702994],[-79.239367,43.703472],[-79.240119,43.703483],[-79.246316,43.699684],[-79.246176,43.699426],[-79.247306,43.698714],[-79.249402,43.698071],[-79.251241,43.696964],[-79.253187,43.69626],[-79.255488,43.695111],[-79.2569,43.694039],[-79.25729,43.693536],[-79.257815,43.693346],[-79.260632,43.689814],[-79.262479,43.688033],[-79.263069,43.688033],[-79.263565,43.687387],[-79.263656,43.687056],[-79.263453,43.687017],[-79.263732,43.68671],[-79.266629,43.684467],[-79.266958,43.683977],[-79.267385,43.68379],[-79.267674,43.68329],[-79.268098,43.683076],[-79.268312,43.682597],[-79.270346,43.680715],[-79.270309,43.680548],[-79.270703,43.680365],[-79.272103,43.67877],[-79.272624,43.678516],[-79.273429,43.6772],[-79.274899,43.675701],[-79.27601,43.67416],[-79.276426,43.673901],[-79.27764,43.672082],[-79.278314,43.672178],[-79.279719,43.67106],[-79.27992484432114,43.67118820331879],[-79.280003,43.670992],[-79.280172,43.671224],[-79.28123,43.67084],[-79.281562,43.670921],[-79.282686,43.67038],[-79.283454,43.670346],[-79.283519,43.670136],[-79.284466,43.670051],[-79.284929,43.669743],[-79.285513,43.66977],[-79.286078,43.669449],[-79.287137,43.669366],[-79.288412,43.668751],[-79.289276,43.668682],[-79.291136,43.667963],[-79.291988,43.667895],[-79.293263,43.667229],[-79.294704,43.665981],[-79.294938,43.666066],[-79.296965,43.665304],[-79.297689,43.665247],[-79.299437,43.665665],[-79.300277,43.665362],[-79.300849,43.665461],[-79.3039,43.664338],[-79.306431,43.663009],[-79.307417,43.661934],[-79.307751,43.661115],[-79.307611,43.66033],[-79.307156,43.659994],[-79.306397,43.65996],[-79.306372,43.660298],[-79.306086,43.660402],[-79.305455,43.660316],[-79.305006,43.65998],[-79.305092,43.659549],[-79.305625,43.65922],[-79.306005,43.658379],[-79.305919,43.657892],[-79.305049,43.657001],[-79.304951,43.656657],[-79.305494,43.6564],[-79.306752,43.656589],[-79.307613,43.656183],[-79.308373,43.654889],[-79.308306,43.654199],[-79.308643,43.654128],[-79.309542,43.655298],[-79.310213,43.655416],[-79.310272,43.655196],[-79.310658,43.655157],[-79.311168,43.655385],[-79.311209,43.655867],[-79.310042,43.656125],[-79.309267,43.655897],[-79.308487,43.655967],[-79.307711,43.656766],[-79.306807,43.656856],[-79.306907,43.657276],[-79.307479,43.657685],[-79.309551,43.658256],[-79.309708,43.658065],[-79.310331,43.658389],[-79.31091,43.657929],[-79.31119,43.657254],[-79.310215,43.656929],[-79.310405,43.656679],[-79.310736,43.656608],[-79.311626,43.656918],[-79.312428,43.656768],[-79.312608,43.657077],[-79.311728,43.657527],[-79.31166,43.657769],[-79.31183,43.657952],[-79.311687,43.658332],[-79.312137,43.658843],[-79.311857,43.659001],[-79.312174,43.658902],[-79.312389,43.659063],[-79.312218,43.659299],[-79.312454,43.659114],[-79.312645,43.659256],[-79.312409,43.659428],[-79.312636,43.659405],[-79.314395,43.660921],[-79.313394,43.66132],[-79.31332,43.661594],[-79.314225,43.661553],[-79.314823,43.661962],[-79.317093,43.661437],[-79.317047,43.660942],[-79.317664,43.660861],[-79.317885,43.661053],[-79.317864,43.660882],[-79.318043,43.660898],[-79.317192,43.660777],[-79.315601,43.659579],[-79.313689,43.658484],[-79.313122,43.657912],[-79.314415,43.657396],[-79.316259,43.657594],[-79.316808,43.65731],[-79.3165,43.657228],[-79.316033,43.657456],[-79.316412,43.656908],[-79.316035,43.656168],[-79.318119,43.654119],[-79.319516,43.65115],[-79.320156,43.64885],[-79.320199,43.648405],[-79.319861,43.648013],[-79.320009,43.64657],[-79.319582,43.646064],[-79.320326,43.645535],[-79.320757,43.64433],[-79.3212,43.642306],[-79.32063,43.641731],[-79.321176,43.641243],[-79.321667,43.640251],[-79.323104,43.635244],[-79.322988,43.634368],[-79.321414,43.633368],[-79.321618,43.633065],[-79.3223,43.63272],[-79.322707,43.631528],[-79.322874,43.630293],[-79.322337,43.629348],[-79.322875,43.628856],[-79.323064,43.628247],[-79.323254,43.626701],[-79.322776,43.625987],[-79.323265,43.625171],[-79.323646,43.62311],[-79.322976,43.622389],[-79.323813,43.621897],[-79.324181,43.61971],[-79.324215,43.61835],[-79.323207,43.617435],[-79.323683,43.617091],[-79.325056,43.617737],[-79.325687,43.61776],[-79.32677,43.617465],[-79.327121,43.617686],[-79.325635,43.618511],[-79.325041,43.619416],[-79.325096,43.620187],[-79.324768,43.621384],[-79.325464,43.621975],[-79.326553,43.622058],[-79.328814,43.621587],[-79.328719,43.620992],[-79.326926,43.619781],[-79.326888,43.619407],[-79.327235,43.619115],[-79.32788,43.619237],[-79.329506,43.620089],[-79.332079,43.620329],[-79.333051,43.62028],[-79.335045,43.619459],[-79.335659,43.619463],[-79.336065,43.619631],[-79.336213,43.619948],[-79.335288,43.62102],[-79.336031,43.621382],[-79.33694,43.621359],[-79.337237,43.621012],[-79.337511,43.6194],[-79.337706,43.619236],[-79.33833,43.619214],[-79.338715,43.619471],[-79.33985,43.619456],[-79.341496,43.618319],[-79.34225,43.617182],[-79.342608,43.616242],[-79.342437,43.615816],[-79.341782,43.615392],[-79.341825,43.615186],[-79.342406,43.614609],[-79.342896,43.613153],[-79.343663,43.613083],[-79.343939,43.613821],[-79.34368,43.615325],[-79.343752,43.616722],[-79.344345,43.617712],[-79.344676,43.617901],[-79.343532,43.619501],[-79.343366,43.62034],[-79.343542,43.620748],[-79.344406,43.62162],[-79.344913,43.621601],[-79.343871,43.622108],[-79.343077,43.621997],[-79.343231,43.621563],[-79.342798,43.620436],[-79.342836,43.619666],[-79.342114,43.619354],[-79.341216,43.619494],[-79.340431,43.619861],[-79.339735,43.620508],[-79.339749,43.621206],[-79.340945,43.621863],[-79.341298,43.622476],[-79.342984,43.622896],[-79.343246,43.623409],[-79.342103,43.623608],[-79.341775,43.623955],[-79.341692,43.624593],[-79.341074,43.624579],[-79.341278,43.624416],[-79.341094,43.624139],[-79.339436,43.62289],[-79.338993,43.622127],[-79.33837,43.622087],[-79.33756,43.622705],[-79.337417,43.623567],[-79.336679,43.624732],[-79.336819,43.625341],[-79.337485,43.625734],[-79.338248,43.626663],[-79.339406,43.629215],[-79.339936,43.6292],[-79.33935,43.629344],[-79.338687,43.629042],[-79.337389,43.628938],[-79.338517,43.628653],[-79.338669,43.628367],[-79.338502,43.628301],[-79.337942,43.628721],[-79.33749,43.628683],[-79.338593,43.628145],[-79.338568,43.627956],[-79.337518,43.628526],[-79.33731,43.627816],[-79.336878,43.627508],[-79.334976,43.627422],[-79.334893,43.627078],[-79.335745,43.626339],[-79.335415,43.625681],[-79.334857,43.625245],[-79.334264,43.62512],[-79.334127,43.625581],[-79.333915,43.625691],[-79.33265,43.625834],[-79.332132,43.626165],[-79.331291,43.625788],[-79.331959,43.625518],[-79.332943,43.624047],[-79.333333,43.623004],[-79.333231,43.622408],[-79.333024,43.622283],[-79.332036,43.622193],[-79.327479,43.622635],[-79.324669,43.622589],[-79.324259,43.622831],[-79.323957,43.625028],[-79.324026,43.625659],[-79.325219,43.62637],[-79.327165,43.626866],[-79.32731,43.627229],[-79.32681,43.627262],[-79.324304,43.626437],[-79.323834,43.626435],[-79.323549,43.629078],[-79.323644,43.629597],[-79.324208,43.62974],[-79.325326,43.629275],[-79.325704,43.629479],[-79.32406,43.630112],[-79.323583,43.630573],[-79.323683,43.631286],[-79.32322,43.632094],[-79.323033,43.633374],[-79.324136,43.633485],[-79.32656,43.630833],[-79.327388,43.629562],[-79.3265,43.62936],[-79.326506,43.629189],[-79.32669,43.629025],[-79.327788,43.628991],[-79.328303,43.62804],[-79.327925,43.627539],[-79.32843,43.627371],[-79.329571,43.627401],[-79.330407,43.626765],[-79.330876,43.626097],[-79.33186,43.626692],[-79.331454,43.626789],[-79.331453,43.627262],[-79.33061,43.628114],[-79.32989,43.628473],[-79.328788,43.630176],[-79.328687,43.63085],[-79.329854,43.631228],[-79.331217,43.631243],[-79.331585,43.631064],[-79.331908,43.63047],[-79.332407,43.630445],[-79.332427,43.630198],[-79.332614,43.630142],[-79.332595,43.630615],[-79.333622,43.630535],[-79.33393,43.630279],[-79.333707,43.6296],[-79.334135,43.629363],[-79.335239,43.629667],[-79.336296,43.629147],[-79.336627,43.629458],[-79.335822,43.630419],[-79.334816,43.63103],[-79.334494,43.631565],[-79.33342,43.631523],[-79.329444,43.633049],[-79.328646,43.633087],[-79.329244,43.632412],[-79.328964,43.632034],[-79.327263,43.631662],[-79.326581,43.631769],[-79.326404,43.632032],[-79.326409,43.632654],[-79.325395,43.633787],[-79.325651,43.634525],[-79.326226,43.63488],[-79.326073,43.63571],[-79.325307,43.63587],[-79.324581,43.636346],[-79.323388,43.637526],[-79.323013,43.638141],[-79.322586,43.640467],[-79.322611,43.641201],[-79.322306,43.641548],[-79.321568,43.644716],[-79.324309,43.645197],[-79.324568,43.64439],[-79.324448,43.64424],[-79.325314,43.642267],[-79.326284,43.640791],[-79.324699,43.640066],[-79.325042,43.6399],[-79.326694,43.640428],[-79.328803,43.638159],[-79.328469,43.637794],[-79.328479,43.637519],[-79.329463,43.63707],[-79.330249,43.637797],[-79.330316,43.638248],[-79.331029,43.638664],[-79.329901,43.638985],[-79.329755,43.639199],[-79.329919,43.639728],[-79.328966,43.640038],[-79.328546,43.64064],[-79.328699,43.640822],[-79.328141,43.640877],[-79.32751,43.641426],[-79.32755,43.642111],[-79.327173,43.642502],[-79.327096,43.642978],[-79.327496,43.643456],[-79.328691,43.643852],[-79.326818,43.643964],[-79.325329,43.64564],[-79.325897,43.646877],[-79.326931,43.646829],[-79.327417,43.647034],[-79.327308,43.64724],[-79.328348,43.647606],[-79.32959,43.649047],[-79.329889,43.648921],[-79.328639,43.647403],[-79.33044,43.646579],[-79.330945,43.645875],[-79.333519,43.643945],[-79.335251,43.642287],[-79.335304,43.642017],[-79.335734,43.641893],[-79.337426,43.640193],[-79.337339,43.639953],[-79.336422,43.639404],[-79.335167,43.640003],[-79.334949,43.640004],[-79.334978,43.63986],[-79.336481,43.639135],[-79.337636,43.639381],[-79.339024,43.639361],[-79.340642,43.639029],[-79.341492,43.638325],[-79.341707,43.637842],[-79.34292,43.637297],[-79.345764,43.634781],[-79.34685,43.63432],[-79.3471,43.633108],[-79.347888,43.633732],[-79.34809,43.633563],[-79.350313,43.635261],[-79.350744,43.6352],[-79.35333,43.638127],[-79.332946,43.649731],[-79.324955,43.653183],[-79.325339,43.653639],[-79.330127,43.652232],[-79.331446,43.653872],[-79.335022,43.652349],[-79.333725,43.65068],[-79.354047,43.639127],[-79.356192,43.641721],[-79.352205,43.643432],[-79.352464,43.643949],[-79.356591,43.642181],[-79.358156,43.643991],[-79.354018,43.645782],[-79.354392,43.646215],[-79.356348,43.645405],[-79.356696,43.64582],[-79.354743,43.64667],[-79.35507,43.647098],[-79.352119,43.648374],[-79.351971,43.648196],[-79.350029,43.649003],[-79.350181,43.649187],[-79.34985,43.649327],[-79.349698,43.649143],[-79.347412,43.650112],[-79.347572,43.650305],[-79.347064,43.650728],[-79.34718201963175,43.65085086264545],[-79.359415,43.64558],[-79.360739,43.647206],[-79.360951,43.646417],[-79.36019,43.645294],[-79.367428,43.642588],[-79.368286,43.64387],[-79.36874,43.643715],[-79.369117,43.643567],[-79.368254,43.642262],[-79.373519,43.640321],[-79.374517,43.641807],[-79.375179,43.641564],[-79.374644,43.640755],[-79.374217,43.640583],[-79.374445,43.6405],[-79.374212,43.640132],[-79.374487,43.640348],[-79.374718,43.640275],[-79.374562,43.639998],[-79.374817,43.640236],[-79.375401,43.640028],[-79.375179,43.639691],[-79.375546,43.639917],[-79.37539,43.639618],[-79.377131,43.638976],[-79.377449,43.639481],[-79.377524,43.639257],[-79.377727,43.639376],[-79.37872,43.639039],[-79.378361,43.638512],[-79.3788,43.638347],[-79.379564,43.639461],[-79.380253,43.639682],[-79.379563,43.638061],[-79.383662,43.637687],[-79.384224,43.639108],[-79.384982,43.638997],[-79.384389,43.637607],[-79.385421,43.637514],[-79.385016,43.637616],[-79.385228,43.638159],[-79.385725,43.638058],[-79.385547,43.637488],[-79.386574,43.637377],[-79.387008,43.638571],[-79.387536,43.638471],[-79.387101,43.637353],[-79.388793,43.637169],[-79.389172,43.638062],[-79.389856,43.637918],[-79.389541,43.637126],[-79.391017,43.636989],[-79.391288,43.637583],[-79.391946,43.637452],[-79.391525,43.636317],[-79.391817,43.636883],[-79.3951,43.636592],[-79.395227,43.636418],[-79.394452,43.635498],[-79.392899,43.636268],[-79.391824,43.636294],[-79.392851,43.636205],[-79.394415,43.635425],[-79.394945,43.635298],[-79.395929,43.636504],[-79.396945,43.636424],[-79.395468,43.634688],[-79.397351,43.633657],[-79.397672,43.63381],[-79.397558,43.633525],[-79.402306,43.630989],[-79.40299,43.631264],[-79.402944,43.63147],[-79.400284,43.632896],[-79.401577,43.634166],[-79.403423,43.633332],[-79.40663,43.632796],[-79.408593,43.633035],[-79.408776,43.631669],[-79.409987,43.631133],[-79.40998,43.630935],[-79.409449,43.631007],[-79.409042,43.629642],[-79.410183,43.62923],[-79.410018,43.628323],[-79.410365,43.627792],[-79.411225,43.627304],[-79.412797,43.627344],[-79.413474,43.626966],[-79.414354,43.627168],[-79.415363,43.627074],[-79.415576,43.626861],[-79.415621,43.627636],[-79.416085,43.627849],[-79.416182,43.628098],[-79.417322,43.627916],[-79.41782,43.627332],[-79.417742,43.626904],[-79.418354,43.627022],[-79.418623,43.626745],[-79.416508,43.626392],[-79.414963,43.626591],[-79.414823,43.626449],[-79.416578,43.626258],[-79.41821,43.626483],[-79.419446,43.626883],[-79.420001,43.626751],[-79.420349,43.627161],[-79.420952,43.627426],[-79.422467,43.627532],[-79.422532,43.627727],[-79.422041,43.628382],[-79.422472,43.629036],[-79.419615,43.629307],[-79.419322,43.628983],[-79.419702,43.628736],[-79.419862,43.628333],[-79.419346,43.628695],[-79.419135,43.628481],[-79.419313,43.62797],[-79.418763,43.6279],[-79.418523,43.628247],[-79.418424,43.62794],[-79.418682,43.627511],[-79.420035,43.627877],[-79.419736,43.62758],[-79.419037,43.627507],[-79.418694,43.627201],[-79.418376,43.62757],[-79.41787,43.627572],[-79.418318,43.627587],[-79.418273,43.627861],[-79.417859,43.627788],[-79.415995,43.628244],[-79.415598,43.628247],[-79.414894,43.627725],[-79.414503,43.627697],[-79.414206,43.627994],[-79.414444,43.628628],[-79.413872,43.628746],[-79.41377,43.62896],[-79.413945,43.629278],[-79.41443,43.629501],[-79.414174,43.62983],[-79.41427,43.630021],[-79.413845,43.630082],[-79.412292,43.629321],[-79.412001,43.629377],[-79.410746,43.629928],[-79.410746,43.630233],[-79.410371,43.630394],[-79.410435,43.630773],[-79.411391,43.630679],[-79.41033,43.630858],[-79.410373,43.631065],[-79.411538,43.630865],[-79.411748,43.630594],[-79.41455,43.630101],[-79.414926,43.6303],[-79.417391,43.629889],[-79.417902,43.62954],[-79.418671,43.629416],[-79.420099,43.630088],[-79.427137,43.629676],[-79.431821,43.630421],[-79.435049,43.631347],[-79.439152,43.633078],[-79.439308,43.63317],[-79.439276,43.633539],[-79.440017,43.63395],[-79.439965,43.634187],[-79.441097,43.634806],[-79.441971,43.634958],[-79.443096,43.634685],[-79.446139,43.636081],[-79.447675,43.636476],[-79.449097,43.63618],[-79.449746,43.636499],[-79.452384,43.636702],[-79.453663,43.637201],[-79.454985,43.637403],[-79.457688,43.637134],[-79.458678,43.636692],[-79.460012,43.636733],[-79.461547,43.636308],[-79.462548,43.635763],[-79.464015,43.635625],[-79.465983,43.63458],[-79.468121,43.633893],[-79.469313,43.632644],[-79.470794,43.631912],[-79.470776,43.630736],[-79.470983,43.630595],[-79.472044,43.630614],[-79.472745,43.629574],[-79.473727,43.629727],[-79.474558,43.629274],[-79.475123,43.629183],[-79.475504,43.62872],[-79.476052,43.628759],[-79.476773,43.628417],[-79.476996,43.62756],[-79.475963,43.627236],[-79.475982,43.626943],[-79.476377,43.62612],[-79.477194,43.625748],[-79.476738,43.625405],[-79.477513,43.625005],[-79.476982,43.624337],[-79.477076,43.623897],[-79.477944,43.623363],[-79.478847,43.622115],[-79.478501,43.621989],[-79.477641,43.622288],[-79.476846,43.623002],[-79.475718,43.62346],[-79.474506,43.622539],[-79.473987,43.622473],[-79.473145,43.623358],[-79.473779,43.624213],[-79.47281,43.623398],[-79.472387,43.623483],[-79.471547,43.624327],[-79.472014,43.625346],[-79.47134,43.625099],[-79.470443,43.62524],[-79.469899,43.623711],[-79.469116,43.622764],[-79.469191,43.622553],[-79.469604,43.62237],[-79.470456,43.622557],[-79.472523,43.622391],[-79.473227,43.622053],[-79.47481,43.62017],[-79.474307,43.619047],[-79.474628,43.618727],[-79.475297,43.618921],[-79.475759,43.619764],[-79.477208,43.620234],[-79.477047,43.620929],[-79.477532,43.621575],[-79.478547,43.621494],[-79.481064,43.621919],[-79.480478,43.621691],[-79.481565,43.621809],[-79.48142,43.621388],[-79.481615,43.620837],[-79.481444,43.620713],[-79.480983,43.620698],[-79.480319,43.621067],[-79.479436,43.620461],[-79.479452,43.620282],[-79.479214,43.620346],[-79.478066,43.619768],[-79.477119,43.619602],[-79.476624,43.619244],[-79.476522,43.618707],[-79.47726,43.618308],[-79.477666,43.618408],[-79.478313,43.6191],[-79.47883,43.618599],[-79.478326,43.617912],[-79.477257,43.617344],[-79.47672,43.617454],[-79.475937,43.618132],[-79.474961,43.617791],[-79.475722,43.617504],[-79.477143,43.615686],[-79.477496,43.614957],[-79.476913,43.61444],[-79.476996,43.614315],[-79.477274,43.614184],[-79.478268,43.614431],[-79.47873,43.614068],[-79.479267,43.613026],[-79.478895,43.612387],[-79.478919,43.612085],[-79.479426,43.611912],[-79.479946,43.612284],[-79.480565,43.613354],[-79.481277,43.613422],[-79.482251,43.613228],[-79.482609,43.613053],[-79.482687,43.612514],[-79.482911,43.612323],[-79.484167,43.613204],[-79.483233,43.614772],[-79.483044,43.614243],[-79.48269,43.613954],[-79.480413,43.6141],[-79.480094,43.615383],[-79.480519,43.615596],[-79.480416,43.616184],[-79.47995,43.616223],[-79.478864,43.617149],[-79.48055,43.618374],[-79.481301,43.617826],[-79.481636,43.618087],[-79.48119,43.618486],[-79.481636,43.618708],[-79.483145,43.618372],[-79.484617,43.617685],[-79.485257,43.616685],[-79.485404,43.615692],[-79.486247,43.613952],[-79.486508,43.613744],[-79.487144,43.613734],[-79.487671,43.612994],[-79.487187,43.612564],[-79.487379,43.611973],[-79.48691,43.611611],[-79.486895,43.611147],[-79.486525,43.610867],[-79.486796,43.610758],[-79.486654,43.610324],[-79.486407,43.610312],[-79.486525,43.609683],[-79.486963,43.609329],[-79.487193,43.608458],[-79.487741,43.60798],[-79.488408,43.606795],[-79.488908,43.606626],[-79.489453,43.605522],[-79.492488,43.602653],[-79.492511,43.602203],[-79.492721,43.602058],[-79.494923,43.602195],[-79.496123,43.601859],[-79.496878,43.601212],[-79.498145,43.599775],[-79.497852,43.598506],[-79.498352,43.598048],[-79.49831,43.597818],[-79.498741,43.597923],[-79.499551,43.597524],[-79.500295,43.596242],[-79.500471,43.595753],[-79.500377,43.595392],[-79.500906,43.594989],[-79.502497,43.594425],[-79.504953,43.594214],[-79.505052,43.593954],[-79.505905,43.593429],[-79.506259,43.593546],[-79.5064,43.594111],[-79.506739,43.594165],[-79.508617,43.593735],[-79.509005,43.593915],[-79.510711,43.593645],[-79.510835,43.593377],[-79.510686,43.593032],[-79.509748,43.592683],[-79.510666,43.592591],[-79.509669,43.592389],[-79.510248,43.592387],[-79.510575,43.592099],[-79.510925,43.591406],[-79.51086,43.591036],[-79.508675,43.590382],[-79.508776,43.590198],[-79.509527,43.590077],[-79.510407,43.589009],[-79.510492,43.588406],[-79.510299,43.587936],[-79.509179,43.587457],[-79.5096,43.587197],[-79.511215,43.587376],[-79.514013,43.587129],[-79.517245,43.588368],[-79.517298,43.588513],[-79.516076,43.588254],[-79.51465,43.587623],[-79.513521,43.587991],[-79.513063,43.587702],[-79.512189,43.587938],[-79.512246,43.588267],[-79.511295,43.58861],[-79.51106,43.589026],[-79.511547,43.590396],[-79.513004,43.590848],[-79.514646,43.590446],[-79.515126,43.590794],[-79.515293,43.590562],[-79.515018,43.59046],[-79.515022,43.590009],[-79.515409,43.590122],[-79.515486,43.590808],[-79.515834,43.590704],[-79.515669,43.589442],[-79.515049,43.589398],[-79.514899,43.58904],[-79.51523,43.588891],[-79.516161,43.58911],[-79.516478,43.588885],[-79.516263,43.58967],[-79.517106,43.590523],[-79.518191,43.590384],[-79.518554,43.590713],[-79.51968,43.590232],[-79.523475,43.59002],[-79.524764,43.589739],[-79.527677,43.58952],[-79.528516,43.589099],[-79.529701,43.587899],[-79.530723,43.587885]],[[-79.526195,43.601523],[-79.50239,43.61331],[-79.548529,43.590332],[-79.526195,43.601523]],[[-79.586092,43.670463],[-79.58558061366766,43.670708822542345],[-79.591218,43.66874],[-79.586092,43.670463]],[[-79.335593,43.802546],[-79.32301,43.775262],[-79.335491,43.802327],[-79.341309,43.815615],[-79.335593,43.802546]],[[-79.32580000556622,43.77476570093293],[-79.325167,43.774799],[-79.32301,43.775262],[-79.32580000556622,43.77476570093293]],[[-79.310765,43.807917],[-79.3066604882607,43.80898473056976],[-79.335491,43.802327],[-79.310765,43.807917]],[[-79.245331,43.704209],[-79.24541164527284,43.704249073560426],[-79.244114,43.701129],[-79.245331,43.704209]],[[-79.40553501820813,43.73881489643005],[-79.406522,43.74334],[-79.408083,43.750142],[-79.40553501820813,43.73881489643005]],[[-79.413732,43.718907],[-79.414298,43.722527],[-79.414681,43.724945],[-79.413732,43.718907]],[[-79.405824,43.698126],[-79.40582040793068,43.698124900210516],[-79.409032,43.699259],[-79.405824,43.698126]],[[-79.432987,43.670328],[-79.421843,43.67248],[-79.41699555124379,43.67349992974074],[-79.432987,43.670328]],[[-79.41840738130269,43.66355858688576],[-79.41840738130267,43.66355858688576],[-79.421843,43.67248],[-79.41840738130269,43.66355858688576]],[[-79.386773,43.650822],[-79.390712,43.660177],[-79.390976,43.660579],[-79.390575,43.659826],[-79.386773,43.650822]],[[-79.403957,43.647183],[-79.387447,43.65067],[-79.386773,43.650822],[-79.403957,43.647183]],[[-79.378249,43.646182],[-79.373787,43.648545],[-79.376909,43.646901],[-79.378249,43.646182]],[[-79.3714162761528,43.64944032298397],[-79.376676,43.662456],[-79.38048394715996,43.67157869053532],[-79.3714162761528,43.64944032298397]],[[-79.45945771764303,43.751067587886894],[-79.45945771764305,43.751067587886894],[-79.458213,43.748014],[-79.45945771764303,43.751067587886894]],[[-79.492438,43.71994],[-79.472502,43.724786],[-79.4718401090366,43.72492877614194],[-79.472454,43.724798],[-79.492438,43.71994]],[[-79.469779,43.710768],[-79.46869,43.70536],[-79.472502,43.724786],[-79.469779,43.710768]],[[-79.49467101624127,43.6914028152182],[-79.497574,43.69285],[-79.50127064256093,43.694675220743456],[-79.49467101624127,43.6914028152182]],[[-79.470493,43.679555],[-79.472049,43.679369],[-79.47230550751141,43.679324565627944],[-79.470493,43.679555]],[[-79.481946,43.665165],[-79.48285786304696,43.66702781892642],[-79.482766,43.666777],[-79.481946,43.665165]],[[-79.41949575359806,43.663323116864596],[-79.449818,43.656871],[-79.42942,43.661176],[-79.41949575359806,43.663323116864596]],[[-79.444444,43.651397],[-79.44406950229524,43.651087686360285],[-79.449818,43.656871],[-79.444444,43.651397]],[[-79.419496,43.635792],[-79.422368,43.643468],[-79.426405,43.653608],[-79.421387,43.640664],[-79.419496,43.635792]],[[-79.57978,43.674086],[-79.578534,43.67556],[-79.57800701299524,43.67642512771501],[-79.57978,43.674086]],[[-79.57766735460928,43.6769827275812],[-79.577588,43.677113],[-79.574007,43.683959],[-79.57766735460928,43.6769827275812]],[[-79.574007,43.683959],[-79.567997,43.693757],[-79.570283,43.69032],[-79.574007,43.683959]],[[-79.554256,43.708756],[-79.55153227869557,43.70977933517075],[-79.552367,43.709585],[-79.554256,43.708756]],[[-79.53791509074989,43.71294961311926],[-79.55010766328601,43.71011100620562],[-79.549422,43.710197],[-79.53791509074989,43.71294961311926]],[[-79.538243,43.711889],[-79.538881,43.711582],[-79.53911790166245,43.71132862209411],[-79.538243,43.711889]],[[-79.53933023656529,43.711101519538246],[-79.539413,43.711013],[-79.53942065404004,43.710894481973604],[-79.53933023656529,43.711101519538246]],[[-79.53945732687394,43.71032662606128],[-79.539477,43.710022],[-79.53936467891242,43.7098234606128],[-79.53945732687394,43.71032662606128]],[[-79.53916856819848,43.70947681420997],[-79.539051,43.709269],[-79.53891651014995,43.709170399295324],[-79.53916856819848,43.70947681420997]],[[-79.53845490675454,43.70883197658128],[-79.538339,43.708747],[-79.537445,43.708332],[-79.53845490675454,43.70883197658128]],[[-79.523693,43.707569],[-79.52081,43.707975],[-79.523156,43.707698],[-79.523693,43.707569]],[[-79.507765,43.717705],[-79.505767,43.710208],[-79.502797,43.699375],[-79.503752,43.702898],[-79.507765,43.717705]],[[-79.502215,43.718351],[-79.525213,43.715784],[-79.507765,43.717705],[-79.502215,43.718351]],[[-79.486744,43.642104],[-79.48567689692233,43.64214805471422],[-79.485946,43.642212],[-79.486744,43.642104]],[[-79.48534743339385,43.642069766351014],[-79.484904,43.641628],[-79.485138,43.64202],[-79.48534743339385,43.642069766351014]],[[-79.4831007593555,43.638037964450135],[-79.482606,43.637994],[-79.478542,43.638186],[-79.4831007593555,43.638037964450135]],[[-79.57866188927714,43.644379088923685],[-79.578963,43.64438],[-79.57911200207766,43.644236712817985],[-79.57866188927714,43.644379088923685]],[[-79.576176,43.643129],[-79.578302,43.644378],[-79.57835178637677,43.64437815063957],[-79.576176,43.643129]],[[-79.54318,43.659883],[-79.555227,43.65711],[-79.56616235493527,43.65455005695662],[-79.54318,43.659883]],[[-79.53870236640317,43.65516071832755],[-79.53909,43.655194],[-79.54005,43.654945],[-79.53870236640317,43.65516071832755]],[[-79.53801835356667,43.65502646610545],[-79.5381,43.655109],[-79.53819633082342,43.65511727082828],[-79.53801835356667,43.65502646610545]],[[-79.532106,43.650188],[-79.53202095399182,43.65018191964472],[-79.5323,43.650371],[-79.532106,43.650188]],[[-79.531029,43.650111],[-79.53100673873662,43.65018602870251],[-79.53112361530651,43.650117764511236],[-79.531029,43.650111]],[[-79.53008405472558,43.65100090816166],[-79.530576,43.650889],[-79.53084,43.650748],[-79.53008405472558,43.65100090816166]],[[-79.52917977706636,43.651172233993016],[-79.529266,43.651187],[-79.52946107889548,43.65114262327416],[-79.52917977706636,43.651172233993016]],[[-79.52652497697807,43.65095172597227],[-79.526688,43.651028],[-79.52670864983395,43.65102694311873],[-79.52652497697807,43.65095172597227]],[[-79.507318,43.662941],[-79.510095,43.661988],[-79.5070744627743,43.662957727004866],[-79.507318,43.662941]],[[-79.51185641744964,43.66245737405497],[-79.511605,43.662242],[-79.51134953566066,43.66219902785285],[-79.51185641744964,43.66245737405497]],[[-79.50855539280646,43.664859550697706],[-79.509367,43.664624],[-79.510486,43.663999],[-79.50855539280646,43.664859550697706]],[[-79.50183704841369,43.66562456615026],[-79.506993,43.665313],[-79.50744373638487,43.66518218392199],[-79.50183704841369,43.66562456615026]],[[-79.56414339066166,43.647321048789145],[-79.565425,43.650224],[-79.56747583232698,43.65424257472752],[-79.56414339066166,43.647321048789145]],[[-79.5626443989058,43.643925708413164],[-79.55997501665443,43.63706941324095],[-79.561679,43.641739],[-79.5626443989058,43.643925708413164]],[[-79.525085,43.650278],[-79.5252138499006,43.65033828535586],[-79.522395,43.648226],[-79.525085,43.650278]],[[-79.518636,43.647277],[-79.519911,43.647384],[-79.51851152838616,43.647190041401],[-79.518636,43.647277]],[[-79.52506711282135,43.6038536777588],[-79.525013,43.604078],[-79.525088,43.605033],[-79.52506711282135,43.6038536777588]],[[-79.52552110810812,43.602646783783776],[-79.525288,43.602938],[-79.52520643220339,43.603276135593234],[-79.52552110810812,43.602646783783776]],[[-79.56819684575804,43.63618870814885],[-79.56812,43.636128],[-79.5676,43.636066],[-79.56819684575804,43.63618870814885]],[[-79.49261788071833,43.647395274462085],[-79.49139650438283,43.6491501105998],[-79.491978,43.648481],[-79.49261788071833,43.647395274462085]],[[-79.500042,43.657155],[-79.4998855571341,43.65736685609236],[-79.5005444043496,43.65686389969806],[-79.500042,43.657155]],[[-79.50212533044478,43.65552395179257],[-79.50161211667955,43.65604882037315],[-79.501904,43.655826],[-79.50212533044478,43.65552395179257]],[[-79.50280340477121,43.65346858466954],[-79.50285,43.654535],[-79.502893,43.653598],[-79.50280340477121,43.65346858466954]],[[-79.493563,43.652292],[-79.49436840120904,43.6522176214184],[-79.4928004296181,43.652174301069465],[-79.493563,43.652292]],[[-79.492021,43.652054],[-79.49218884073444,43.652079905379246],[-79.49174396531913,43.65180272954445],[-79.492021,43.652054]],[[-79.491021,43.651147],[-79.49112704782692,43.65124318537901],[-79.49094982943626,43.65084250162729],[-79.491021,43.651147]],[[-79.490766,43.650056],[-79.49080254380065,43.65021235014322],[-79.49088437779568,43.649885918406206],[-79.490766,43.650056]],[[-79.53644255225335,43.69106562785849],[-79.541393,43.688947],[-79.536749,43.69081],[-79.53644255225335,43.69106562785849]],[[-79.53610527072615,43.69134697616483],[-79.535322,43.692685],[-79.5348,43.693921],[-79.53610527072615,43.69134697616483]],[[-79.50549604621438,43.68122176902086],[-79.505595,43.680404],[-79.505446,43.680996],[-79.50549604621438,43.68122176902086]],[[-79.508648,43.682463],[-79.50841340426545,43.68245424969285],[-79.50897636170507,43.68259570784418],[-79.508648,43.682463]],[[-79.509467,43.682794],[-79.5093412452174,43.68274317602803],[-79.50991799168396,43.68338118860277],[-79.509467,43.682794]],[[-79.510222,43.684153],[-79.51096925068555,43.68569876689167],[-79.51010571689436,43.68362560575703],[-79.510222,43.684153]],[[-79.49673835870219,43.6811858589484],[-79.497682,43.681083],[-79.497046,43.681112],[-79.49673835870219,43.6811858589484]],[[-79.484267,43.68418],[-79.48385,43.684319],[-79.49521262505439,43.68155215919345],[-79.484267,43.68418]],[[-79.569355,43.673903],[-79.563161,43.674488],[-79.56292388725333,43.67454060675591],[-79.569355,43.673903]],[[-79.51131533524511,43.66822655406199],[-79.511276,43.668334],[-79.51168,43.669663],[-79.51131533524511,43.66822655406199]],[[-79.51185928845719,43.66764687665024],[-79.511425,43.667927],[-79.51138781495979,43.6680285725595],[-79.51185928845719,43.66764687665024]],[[-79.512956,43.666759],[-79.51297858604062,43.66660174469218],[-79.51255052130422,43.66708726778245],[-79.512956,43.666759]],[[-79.513116,43.665645],[-79.513063,43.66543026969699],[-79.513063,43.66601401249997],[-79.513116,43.665645]],[[-79.528754,43.702692],[-79.529158,43.703522],[-79.52936700376296,43.70366274177984],[-79.528754,43.702692]],[[-79.52848467479653,43.70253204864676],[-79.528328,43.702439],[-79.521265,43.699827],[-79.52848467479653,43.70253204864676]],[[-79.52018,43.698037],[-79.519201,43.697284],[-79.5189848865256,43.69724327793512],[-79.52018,43.698037]],[[-79.516712,43.696815],[-79.51338018102714,43.697222232464206],[-79.51368,43.697276],[-79.516712,43.696815]],[[-79.51267228566063,43.69709528322847],[-79.511903,43.696769],[-79.51218,43.697007],[-79.51267228566063,43.69709528322847]],[[-79.511911796146,43.696234034394166],[-79.511829,43.696339],[-79.511903,43.696769],[-79.511911796146,43.696234034394166]],[[-79.51332620167645,43.69189140697481],[-79.513318,43.691698],[-79.512861,43.690169],[-79.51332620167645,43.69189140697481]],[[-79.51318009049548,43.69316535921833],[-79.513361,43.692712],[-79.51334357613774,43.69230112101544],[-79.51318009049548,43.69316535921833]],[[-79.5792612079701,43.762343634825285],[-79.579082,43.762266],[-79.577604,43.762366],[-79.577827,43.762428],[-79.5792612079701,43.762343634825285]],[[-79.580582,43.760422],[-79.579593,43.760699],[-79.5792909888325,43.76090355988962],[-79.580582,43.760422]],[[-79.583465,43.758794],[-79.5836415196236,43.75870385429479],[-79.581997,43.758563],[-79.583465,43.758794]],[[-79.583933,43.758555],[-79.58391944752042,43.75847360540205],[-79.58385833440076,43.75859313050902],[-79.583933,43.758555]],[[-79.5837886437247,43.757688013193615],[-79.583774,43.757749],[-79.58382420947949,43.7579016169327],[-79.5837886437247,43.757688013193615]],[[-79.583859,43.757395],[-79.584944,43.757142],[-79.58498443434051,43.75702380731233],[-79.583859,43.757395]],[[-79.585178,43.756458],[-79.5851502449898,43.75639388983559],[-79.58513076352482,43.756596075850524],[-79.585178,43.756458]],[[-79.584965,43.755966],[-79.584221,43.755636],[-79.58504139370162,43.75614245869106],[-79.584965,43.755966]],[[-79.583104,43.752709],[-79.58289965061964,43.75264011970095],[-79.583338,43.753093],[-79.583104,43.752709]],[[-79.578412,43.750565],[-79.577561,43.750289],[-79.579348,43.751034],[-79.578412,43.750565]],[[-79.57537,43.75005],[-79.57525664433689,43.750072343429004],[-79.577561,43.750289],[-79.57537,43.75005]],[[-79.57327703122554,43.750257963242326],[-79.573348,43.750319],[-79.57350194410282,43.75029421785538],[-79.57327703122554,43.750257963242326]],[[-79.572934,43.748867],[-79.57280551136935,43.74884138557282],[-79.572935053598,43.748922890865614],[-79.572934,43.748867]],[[-79.572317,43.748744],[-79.57191951300236,43.7489354787234],[-79.57258801088845,43.748798026481815],[-79.572317,43.748744]],[[-79.57116523234986,43.74901854430534],[-79.571168,43.74909],[-79.57132512221342,43.74905769353967],[-79.57116523234986,43.74901854430534]],[[-79.571774,43.748022],[-79.571157,43.748806],[-79.57116197603196,43.7489344720978],[-79.571774,43.748022]],[[-79.57338,43.747492],[-79.573306,43.747396467213115],[-79.573306,43.747845],[-79.57338,43.747492]],[[-79.573136,43.747177],[-79.572572,43.746847],[-79.57322342214995,43.74728986056243],[-79.573136,43.747177]],[[-79.56743768659632,43.74609960034057],[-79.56831360658349,43.746285840431],[-79.568508,43.74624],[-79.56743768659632,43.74609960034057]],[[-79.55352519668168,43.749662631287244],[-79.557618,43.748808],[-79.56158185303528,43.74787327322363],[-79.55352519668168,43.749662631287244]],[[-79.50470579788745,43.759812701823904],[-79.504841,43.760393],[-79.504795,43.759982],[-79.50470579788745,43.759812701823904]],[[-79.509943,43.752536],[-79.50990159748382,43.75237593733119],[-79.509784,43.752966],[-79.509943,43.752536]],[[-79.509637,43.751353],[-79.50959492412143,43.751325293593254],[-79.50967562663064,43.751502331059],[-79.509637,43.751353]],[[-79.509148,43.751031],[-79.50862940089522,43.750991410138724],[-79.50934482187729,43.75116060458996],[-79.509148,43.751031]],[[-79.49690156763666,43.74240376528641],[-79.496919,43.742519],[-79.497365,43.742944],[-79.49690156763666,43.74240376528641]],[[-79.483749,43.745574],[-79.48368932567625,43.745623653370735],[-79.484513,43.745148],[-79.483749,43.745574]],[[-79.483088,43.746124],[-79.48300846253117,43.746338052142924],[-79.48327272475225,43.745970295591924],[-79.483088,43.746124]],[[-79.47793450566049,43.75485623464573],[-79.478689,43.7547],[-79.47895446618911,43.75462416561714],[-79.47793450566049,43.75485623464573]],[[-79.47450688529777,43.755489397546064],[-79.474758,43.755514],[-79.47528285451014,43.755405317331146],[-79.47450688529777,43.755489397546064]],[[-79.46933929538518,43.75379445386345],[-79.465761,43.750587],[-79.46549550024295,43.75046307703647],[-79.468983,43.753633],[-79.46933929538518,43.75379445386345]],[[-79.464994,43.750229],[-79.46472316267575,43.75020869310385],[-79.46521385010082,43.75033161582281],[-79.464994,43.750229]],[[-79.463847,43.750143],[-79.46284111399292,43.75035872732071],[-79.46418366002936,43.750168242164364],[-79.463847,43.750143]],[[-79.572441,43.736038],[-79.573639,43.735818],[-79.57209004981512,43.73602286944892],[-79.572441,43.736038]],[[-79.570655,43.735961],[-79.5711749941399,43.735983418560345],[-79.5704912178128,43.73590683895945],[-79.570655,43.735961]],[[-79.567763,43.733818],[-79.56817719215388,43.73434722716549],[-79.56763186840675,43.73332749102774],[-79.567763,43.733818]],[[-79.562072,43.730015],[-79.56005930959635,43.72919552770361],[-79.566984,43.732116],[-79.562072,43.730015]],[[-79.55641629654136,43.72780759078126],[-79.55686706607473,43.727745339552854],[-79.556635,43.727709],[-79.55641629654136,43.72780759078126]],[[-79.555047,43.729192],[-79.55507943465761,43.729129620869614],[-79.55489980852192,43.7292441009068],[-79.555047,43.729192]],[[-79.5539,43.729598],[-79.55405736105347,43.72954229940043],[-79.550864,43.730157],[-79.5539,43.729598]],[[-79.549912,43.730505],[-79.54988452806673,43.73055622056424],[-79.550864,43.730157],[-79.549912,43.730505]],[[-79.54883296043528,43.732876285047304],[-79.549309,43.731848],[-79.54883296043528,43.7328762850473],[-79.54883296043528,43.732876285047304]],[[-79.54606409326131,43.73152411138985],[-79.54639627405183,43.73156986529494],[-79.546222,43.731511],[-79.54606409326131,43.73152411138985]],[[-79.54519,43.73218],[-79.54581195699136,43.731545046892414],[-79.545668,43.731557],[-79.54519,43.73218]],[[-79.544594,43.73241],[-79.54482773456137,43.73231980042095],[-79.544179,43.732356],[-79.544594,43.73241]],[[-79.538839,43.714862],[-79.540488,43.715108],[-79.53861571626923,43.71476409482946],[-79.538839,43.714862]],[[-79.54305861077123,43.71696498642223],[-79.542956,43.716906],[-79.541051,43.716798],[-79.54305861077123,43.71696498642223]],[[-79.54335155110795,43.7194273869063],[-79.544094,43.718197],[-79.54408156054342,43.71810733225044],[-79.54335155110795,43.7194273869063]],[[-79.541328,43.721547],[-79.542615,43.720648],[-79.54272553027076,43.720464829145605],[-79.541328,43.721547]],[[-79.538903,43.732134],[-79.539403,43.732118],[-79.53881021943349,43.73205097488455],[-79.538903,43.732134]],[[-79.503305,43.734298],[-79.50313540245358,43.734526336208845],[-79.503213,43.734531],[-79.503305,43.734298]],[[-79.50163853039976,43.73493649883988],[-79.50111,43.734683],[-79.50139,43.734912],[-79.50163853039976,43.73493649883988]],[[-79.49412018859373,43.737713106767174],[-79.494055,43.737733],[-79.49404601840492,43.73782842944785],[-79.49412018859373,43.737713106767174]],[[-79.49404288424438,43.73786172990354],[-79.494039,43.737903],[-79.494274,43.737916],[-79.49404288424438,43.73786172990354]],[[-79.497118,43.741392],[-79.496842,43.74201],[-79.49687117643036,43.74220286757211],[-79.497118,43.741392]],[[-79.563351,43.741749],[-79.563506,43.741526],[-79.56348665957807,43.74128625935329],[-79.563351,43.741749]],[[-79.56347483117845,43.74113963648291],[-79.563458,43.740931],[-79.56278,43.740193],[-79.56347483117845,43.74113963648291]],[[-79.56103690334031,43.739792715018964],[-79.560668,43.739708],[-79.55993147758056,43.73974171914281],[-79.56103690334031,43.739792715018964]],[[-79.55934849140733,43.739768409157286],[-79.559139,43.739778],[-79.55889246800555,43.740017354934935],[-79.55934849140733,43.739768409157286]],[[-79.55858383991827,43.74031699821619],[-79.558452,43.740445],[-79.558418,43.74085],[-79.55858383991827,43.74031699821619]],[[-79.55042563673548,43.74404135886455],[-79.54986,43.743497],[-79.550381,43.744035],[-79.55042563673548,43.74404135886455]],[[-79.549519,43.741976],[-79.54761500722827,43.74172916867581],[-79.547721,43.741799],[-79.549519,43.741976]],[[-79.54620864762774,43.74080261536846],[-79.54619586608432,43.7405234185295],[-79.546147,43.740762],[-79.54620864762774,43.74080261536846]],[[-79.5462967364943,43.740030933586645],[-79.54646936465127,43.739849024345965],[-79.546317,43.739932],[-79.5462967364943,43.740030933586645]],[[-79.54683629250985,43.73964920057585],[-79.548168,43.739118],[-79.547573,43.739248],[-79.54683629250985,43.73964920057585]],[[-79.54850643932372,43.73838502643703],[-79.548424,43.738441],[-79.548168,43.739118],[-79.54850643932372,43.73838502643703]],[[-79.54863550170106,43.738297397369024],[-79.549902,43.737858],[-79.548966,43.738073],[-79.54863550170106,43.738297397369024]],[[-79.54940200308764,43.73597393156552],[-79.54911728685107,43.73594096945088],[-79.549136,43.735998],[-79.54940200308764,43.73597393156552]],[[-79.54910362301108,43.73589932727184],[-79.54919582344341,43.73573090172961],[-79.549073,43.735806],[-79.54910362301108,43.73589932727184]],[[-79.5501172433298,43.73516751547491],[-79.550243,43.735107],[-79.55026718382231,43.7350758369538],[-79.5501172433298,43.73516751547491]],[[-79.55044811233216,43.734842694175995],[-79.550541,43.734723],[-79.55037,43.733501],[-79.55044811233216,43.734842694175995]],[[-79.512309,43.76935],[-79.512144,43.769492],[-79.5121741424403,43.76959258401272],[-79.512309,43.76935]],[[-79.51221226953216,43.76971981246055],[-79.512236,43.769799],[-79.51238083643742,43.7698733184052],[-79.51221226953216,43.76971981246055]],[[-79.51247875517541,43.76992356242236],[-79.512579,43.769975],[-79.514179,43.770086],[-79.51247875517541,43.76992356242236]],[[-79.51484957016892,43.769478875334684],[-79.514766,43.769481],[-79.514179,43.770086],[-79.51484957016892,43.769478875334684]],[[-79.51487653267021,43.76947818984737],[-79.515298,43.770046],[-79.515002,43.769475],[-79.51487653267021,43.76947818984737]],[[-79.515637,43.769915],[-79.51595858980485,43.770037035272004],[-79.515945,43.770027],[-79.515637,43.769915]],[[-79.518523,43.773815],[-79.518565,43.774122],[-79.51861138485212,43.774110188243974],[-79.518523,43.773815]],[[-79.47214303676184,43.634583779400074],[-79.472426,43.634459],[-79.474266,43.633415],[-79.47214303676184,43.634583779400074]],[[-79.466183,43.637212],[-79.47142229603695,43.63490160724176],[-79.46521022233132,43.637540086419385],[-79.466183,43.637212]],[[-79.460437,43.638882],[-79.462794,43.638355],[-79.45964203702357,43.63895165815782],[-79.460437,43.638882]],[[-79.451717,43.639043],[-79.45284517861415,43.63911017315321],[-79.447988,43.638428],[-79.451717,43.639043]],[[-79.446798,43.638583],[-79.428057,43.642315],[-79.44691045032894,43.63859695113183],[-79.446798,43.638583]],[[-79.42702674543311,43.64194030816384],[-79.43878250609053,43.647330561649134],[-79.428057,43.642315],[-79.42702674543311,43.64194030816384]],[[-79.42435834315766,43.6410227228334],[-79.42484882030814,43.64114822163462],[-79.424576,43.641049],[-79.42435834315766,43.6410227228334]],[[-79.45206459360745,43.72919454188569],[-79.448822,43.729894],[-79.442899,43.731231],[-79.45206459360745,43.72919454188569]],[[-79.441082,43.731866],[-79.439108,43.732737],[-79.442899,43.731231],[-79.441082,43.731866]],[[-79.44650712269454,43.684566037588716],[-79.44495,43.684761],[-79.445737,43.684738],[-79.44650712269454,43.684566037588716]],[[-79.442494,43.678781],[-79.435897,43.680234],[-79.43401801436733,43.68059728943209],[-79.434908,43.680488],[-79.442494,43.678781]],[[-79.42986575957417,43.68140010040599],[-79.43236,43.680961],[-79.4324651636607,43.68089752283544],[-79.42986575957417,43.68140010040599]],[[-79.459998,43.667238],[-79.46851,43.675888],[-79.457068604763,43.6642547936717],[-79.459998,43.667238]],[[-79.451651,43.667188],[-79.449055,43.667333],[-79.459998,43.667238],[-79.451651,43.667188]],[[-79.449856,43.668983],[-79.4500278708745,43.66921609137068],[-79.449055,43.667333],[-79.449856,43.668983]],[[-79.45154177314772,43.67121363514902],[-79.45090234072346,43.6704020478413],[-79.451372,43.671039],[-79.45154177314772,43.67121363514902]],[[-79.433751,43.674445],[-79.437136,43.674005],[-79.434623,43.674322],[-79.433751,43.674445]],[[-79.46052,43.68205],[-79.46017323638593,43.681518645899665],[-79.46077002039506,43.68249156144347],[-79.46052,43.68205]],[[-79.4601510082878,43.68148458525836],[-79.456096,43.675271],[-79.45599041562498,43.67515479471152],[-79.4601510082878,43.68148458525836]],[[-79.45585882498916,43.67500996714783],[-79.455251,43.674341],[-79.45493936730115,43.674119349805515],[-79.45585882498916,43.67500996714783]],[[-79.462941,43.688959],[-79.4617,43.684134],[-79.46162638593069,43.68400399006742],[-79.462941,43.688959]],[[-79.4393875825129,43.70565490496832],[-79.43934063491837,43.70570913812716],[-79.44021557329704,43.70551982579772],[-79.4393875825129,43.70565490496832]],[[-79.436955,43.706217],[-79.4261512067993,43.70867198236682],[-79.427148,43.708472],[-79.436955,43.706217]],[[-79.442962,43.773854],[-79.446631,43.788309],[-79.44023700950608,43.76286048034562],[-79.442962,43.773854]],[[-79.44810585580186,43.753452828226216],[-79.43839,43.75548],[-79.430001,43.757257],[-79.44810585580186,43.753452828226216]],[[-79.403361,43.756708],[-79.408326,43.753504],[-79.40104585687118,43.75806608396067],[-79.403361,43.756708]],[[-79.360672,43.768021],[-79.360905,43.769563],[-79.360807,43.768369],[-79.360672,43.768021]],[[-79.3599158860519,43.76640338095025],[-79.359649,43.766415],[-79.359792,43.767197],[-79.359746,43.766413],[-79.3599158860519,43.76640338095025]],[[-79.34942,43.763414],[-79.34944433863433,43.76342688732529],[-79.34939390540539,43.76337485810809],[-79.34942,43.763414]],[[-79.349254,43.763165],[-79.34928158480177,43.76320637720265],[-79.34940076707412,43.76283113608922],[-79.349254,43.763165]],[[-79.34981,43.761043],[-79.34966080023042,43.76201243101514],[-79.349855,43.761401],[-79.34981,43.761043]],[[-79.382571,43.748912],[-79.383547,43.748241],[-79.382661,43.74885],[-79.365498,43.752533],[-79.382571,43.748912]],[[-79.350155,43.725508],[-79.350739,43.725931],[-79.35014703412945,43.725467529715125],[-79.350155,43.725508]],[[-79.350068,43.725066],[-79.35010824692603,43.72527047288854],[-79.350292,43.724592],[-79.350068,43.725066]],[[-79.35358845570825,43.72043389014697],[-79.35354451215403,43.72047869997197],[-79.353668,43.721059],[-79.35358845570825,43.72043389014697]],[[-79.376903,43.710364],[-79.378066,43.716724],[-79.377431,43.713141],[-79.376903,43.710364]],[[-79.364047,43.679124],[-79.366332,43.681023],[-79.364055,43.678986],[-79.364047,43.679124]],[[-79.36381820928705,43.6789487167925],[-79.36394848714664,43.679142911135486],[-79.364047,43.679124],[-79.36381820928705,43.6789487167925]],[[-79.364588,43.682776],[-79.36521518171682,43.68236027633908],[-79.363107,43.683346],[-79.364588,43.682776]],[[-79.35060718354822,43.69950276518101],[-79.35070987882396,43.699270673857846],[-79.350547,43.699403],[-79.35060718354822,43.69950276518101]],[[-79.350111,43.699864],[-79.35018811853068,43.699782459535214],[-79.34833,43.699913],[-79.350111,43.699864]],[[-79.34521,43.698317],[-79.347119,43.699034],[-79.345879,43.698518],[-79.34521,43.698317]],[[-79.34391923495598,43.69844080208407],[-79.34422428681228,43.698345114550726],[-79.344053,43.69835],[-79.34391923495598,43.69844080208407]],[[-79.34166423818407,43.69935411792174],[-79.343038,43.699039],[-79.341835,43.699267],[-79.34166423818407,43.69935411792174]],[[-79.339911,43.700456],[-79.34145069199145,43.699463063240664],[-79.341196,43.699593],[-79.339911,43.700456]],[[-79.336604,43.702783],[-79.33675724967738,43.70266407009516],[-79.33647748268493,43.70282988005938],[-79.336604,43.702783]],[[-79.335026,43.703779],[-79.335314,43.703261],[-79.3359150571865,43.70303828268593],[-79.335356,43.703152],[-79.335026,43.703779]],[[-79.332308,43.703241],[-79.333071,43.703408],[-79.33224935461755,43.70316107620444],[-79.332308,43.703241]],[[-79.319258,43.700892],[-79.327056,43.701272],[-79.31916606100788,43.700878302436315],[-79.319258,43.700892]],[[-79.312991,43.686243],[-79.31740526609339,43.69647374728487],[-79.317397,43.696453],[-79.312991,43.686243]],[[-79.344882,43.678936],[-79.323544,43.683379],[-79.31277173957746,43.68571224064414],[-79.344882,43.678936]],[[-79.329643,43.674959],[-79.325263,43.664398],[-79.332319,43.681464],[-79.329643,43.674959]],[[-79.336623,43.672064],[-79.33670631013916,43.67201222716158],[-79.329643,43.674959],[-79.336623,43.672064]],[[-79.340834,43.669163],[-79.342285,43.667728],[-79.34047570970586,43.669407692253415],[-79.340821,43.669134],[-79.344882,43.678936],[-79.340834,43.669163]],[[-79.312594,43.667245],[-79.316538,43.666385],[-79.314691,43.666781],[-79.312594,43.667245]],[[-79.36379420634324,43.67891293760548],[-79.363573,43.677941],[-79.363648,43.678695],[-79.36379420634324,43.67891293760548]],[[-79.366834,43.674635],[-79.37081672333848,43.672069758887176],[-79.37066,43.672122],[-79.366834,43.674635]],[[-79.37112995789931,43.6719653473669],[-79.37349397351123,43.672186549494754],[-79.37126,43.671922],[-79.37112995789931,43.6719653473669]],[[-79.385912,43.711342],[-79.388979,43.721308],[-79.388381,43.719085],[-79.385912,43.711342]],[[-79.399044,43.677592],[-79.39123277611688,43.681109189309915],[-79.39123277826893,43.681109194515685],[-79.397938,43.678091],[-79.399044,43.677592]],[[-79.40234615410331,43.676582243052124],[-79.401373,43.676787],[-79.399044,43.677592],[-79.40234615410331,43.676582243052124]],[[-79.376395,43.672458],[-79.378908450981,43.67191749381341],[-79.37618797250616,43.672438628333445],[-79.376395,43.672458]],[[-79.396026,43.695551],[-79.394925,43.690194],[-79.395297,43.692004],[-79.396026,43.695551]],[[-79.387126,43.763258],[-79.38851349923215,43.76879402329889],[-79.388044,43.766694],[-79.387126,43.763258]],[[-79.392951,43.761979],[-79.38250706267809,43.76415418220493],[-79.387126,43.763258],[-79.392951,43.761979]],[[-79.375447,43.765524],[-79.3758901553616,43.76543801746302],[-79.37197959278647,43.76572032666791],[-79.375447,43.765524]],[[-79.390359,43.728707],[-79.390214,43.727642],[-79.39005245337424,43.72703680747154],[-79.390359,43.728707]],[[-79.39214,43.785015],[-79.394174,43.795136],[-79.395793,43.80216],[-79.39214,43.785015]],[[-79.364434,43.655619],[-79.36699,43.661967],[-79.367945,43.664286],[-79.364434,43.655619]],[[-79.33692768967543,43.67187465150661],[-79.338945,43.670621],[-79.33978245322886,43.66995719778715],[-79.33692768967543,43.67187465150661]],[[-79.35733026919984,43.66814661109095],[-79.356297,43.664515],[-79.357161,43.667766],[-79.35733026919984,43.66814661109095]],[[-79.360326,43.671836],[-79.359604,43.670425],[-79.35946683916083,43.670325093760304],[-79.360326,43.671836]],[[-79.35780431218559,43.66902467479731],[-79.3576145413839,43.66878581270715],[-79.35768,43.668933],[-79.35780431218559,43.66902467479731]],[[-79.346277,43.682791],[-79.3488,43.68942],[-79.350999,43.695196],[-79.346277,43.682791]],[[-79.330531,43.739771],[-79.330839,43.740172],[-79.330155,43.739272],[-79.330531,43.739771]],[[-79.3301349797945,43.7386574667353],[-79.33020678298537,43.73849352125227],[-79.330132,43.738566],[-79.3301349797945,43.7386574667353]],[[-79.33109089787234,43.73498745531916],[-79.331064,43.734844],[-79.33026516716272,43.73438839578473],[-79.33109089787234,43.73498745531916]],[[-79.32958742116452,43.734001851918144],[-79.329493,43.733948],[-79.32936503979565,43.733979230965126],[-79.32958742116452,43.734001851918144]],[[-79.32888946172535,43.73409530425686],[-79.328313,43.734236],[-79.328584,43.734285],[-79.32888946172535,43.73409530425686]],[[-79.32463,43.730909],[-79.325262,43.729715],[-79.32518493897946,43.72961989304427],[-79.32463,43.730909]],[[-79.32512969505981,43.72955171225737],[-79.325104,43.72952],[-79.32486686740796,43.7295109889615],[-79.32512969505981,43.72955171225737]],[[-79.32360483573403,43.729463031757895],[-79.323104,43.729444],[-79.32298312442556,43.72953287663512],[-79.32360483573403,43.729463031757895]],[[-79.32000485730524,43.73157814103958],[-79.3198847099389,43.731584984876896],[-79.319947,43.73162],[-79.32000485730524,43.73157814103958]],[[-79.31872893205934,43.72913507784769],[-79.318707,43.728945],[-79.318677,43.729119],[-79.31872893205934,43.72913507784769]],[[-79.32239,43.725618],[-79.32231624139473,43.72528034949587],[-79.322292,43.725331],[-79.32239,43.725618]],[[-79.323427,43.72214],[-79.326772,43.72131],[-79.32679911851689,43.72121192136394],[-79.323427,43.72214]],[[-79.32681016398801,43.72117197357667],[-79.326832,43.721093],[-79.326712,43.720669],[-79.32681016398801,43.72117197357667]],[[-79.323074,43.720078],[-79.32420452425652,43.72062489339237],[-79.32290471805977,43.719923541347],[-79.323074,43.720078]],[[-79.32259961424035,43.71964515414925],[-79.32251678388386,43.719504687669705],[-79.322503,43.719557],[-79.32259961424035,43.71964515414925]],[[-79.323916,43.717723],[-79.323563,43.716865],[-79.32342665666376,43.71679671278668],[-79.323916,43.717723]],[[-79.32279888530582,43.71648229509808],[-79.322383,43.716274],[-79.320812,43.715948],[-79.32279888530582,43.71648229509808]],[[-79.29950725096344,43.71728812543639],[-79.299149,43.716423],[-79.29339888344575,43.70287589662919],[-79.29950725096344,43.71728812543639]],[[-79.281507,43.739328],[-79.290961,43.76249],[-79.27783520536448,43.72990120083275],[-79.281507,43.739328]],[[-79.254209,43.718133],[-79.2476471075487,43.727919799940004],[-79.247652,43.727914],[-79.254209,43.718133]],[[-79.26765557043962,43.69816171406895],[-79.266836,43.699208],[-79.254209,43.718133],[-79.26765557043962,43.69816171406895]],[[-79.24653170600091,43.729242094564],[-79.24525232808743,43.73068784897743],[-79.245447,43.730528],[-79.24653170600091,43.729242094564]],[[-79.32235929065332,43.72519040142666],[-79.33015,43.723154],[-79.33044257475106,43.72306379811294],[-79.32235929065332,43.72519040142666]],[[-79.314371,43.700361],[-79.305861,43.697352],[-79.30382369604497,43.696716703157605],[-79.314371,43.700361]],[[-79.33554129149037,43.74084086646231],[-79.3356394737555,43.740901024381984],[-79.335604,43.740856],[-79.33554129149037,43.74084086646231]],[[-79.333522,43.740802],[-79.33525560640017,43.740771921655515],[-79.334883,43.740682],[-79.333522,43.740802]],[[-79.332537,43.74148],[-79.33263589192839,43.741411930225944],[-79.33234900311223,43.741488245477534],[-79.332537,43.74148]],[[-79.330516,43.741149],[-79.33058302740119,43.74118913432445],[-79.330478,43.740824],[-79.330516,43.741149]],[[-79.35831568063868,43.70195176023303],[-79.358119,43.70188],[-79.35589770348287,43.70198558448814],[-79.35831568063868,43.70195176023303]],[[-79.35342763455287,43.70202013743725],[-79.35299343153366,43.701909170466145],[-79.353223,43.702023],[-79.35342763455287,43.70202013743725]],[[-79.338125,43.707516],[-79.338006,43.707686],[-79.33799078633558,43.70772267476516],[-79.338125,43.707516]],[[-79.33778142641063,43.70822736751203],[-79.337743,43.70832],[-79.338017,43.709189],[-79.33778142641063,43.70822736751203]],[[-79.341145,43.7762],[-79.33896132578839,43.77596574564806],[-79.339774,43.776056],[-79.341145,43.7762]],[[-79.32848419978738,43.77484180859346],[-79.327125,43.774696],[-79.32650628591044,43.774728547268246],[-79.32848419978738,43.77484180859346]],[[-79.294285,43.692505],[-79.302847,43.69053],[-79.303409,43.690305],[-79.294285,43.692505]],[[-79.28791911646158,43.69028044735522],[-79.284063,43.680867],[-79.2811969690569,43.674223269945664],[-79.28791911646158,43.69028044735522]],[[-79.310067,43.67199],[-79.30748236839102,43.67429106975271],[-79.307904,43.673929],[-79.310067,43.67199]],[[-79.30505211351506,43.676378014287295],[-79.300652,43.678366],[-79.304853,43.676549],[-79.30505211351506,43.676378014287295]],[[-79.27301020653242,43.693778762498326],[-79.272356,43.694088],[-79.269759,43.695948],[-79.27301020653242,43.693778762498326]],[[-79.268188,43.697482],[-79.26800772020727,43.69771215009043],[-79.269759,43.695948],[-79.268188,43.697482]],[[-79.247032,43.705929],[-79.246857,43.705098],[-79.2468171341059,43.70505192446506],[-79.247032,43.705929]],[[-79.2466586046803,43.70486870198253],[-79.246536,43.704727],[-79.2461064657585,43.704594337823714],[-79.2466586046803,43.70486870198253]],[[-79.29127027339621,43.698297827179765],[-79.2907663099951,43.69721393703711],[-79.290954,43.697671],[-79.29127027339621,43.698297827179765]],[[-79.267554,43.698814],[-79.267644,43.69959],[-79.26775169388063,43.69969549219498],[-79.267554,43.698814]],[[-79.31446,43.768365],[-79.31330348405577,43.76851058536602],[-79.319685,43.768295],[-79.31446,43.768365]],[[-79.311203,43.768775],[-79.30988960466127,43.769078672969506],[-79.31233718850615,43.76863222527248],[-79.311203,43.768775]],[[-79.28296817500681,43.775306404175495],[-79.284577,43.774947],[-79.29218585330666,43.77317259971607],[-79.28296817500681,43.775306404175495]],[[-79.287373,43.78169],[-79.2874199426314,43.78177526811063],[-79.284577,43.774947],[-79.287373,43.78169]],[[-79.27208991665078,43.777736557543236],[-79.25494,43.781135],[-79.244992,43.783092],[-79.270087,43.778184],[-79.27208991665078,43.777736557543236]],[[-79.237737,43.784869],[-79.23664431511858,43.78520969669056],[-79.244992,43.783092],[-79.237737,43.784869]],[[-79.228837,43.787644],[-79.22808107101163,43.78799312736621],[-79.22966425167638,43.7873860647863],[-79.228837,43.787644]],[[-79.225403,43.78923],[-79.219713,43.792301],[-79.22623855866354,43.78884409550368],[-79.225403,43.78923]],[[-79.21562140863168,43.79356724761005],[-79.217574,43.793039],[-79.219713,43.792301],[-79.21562140863168,43.79356724761005]],[[-79.20157,43.763135],[-79.201375,43.763816],[-79.2014208863337,43.76388734622547],[-79.20157,43.763135]],[[-79.20348174410967,43.75408083048289],[-79.20360730929771,43.75393494522673],[-79.20251719258457,43.754145608960066],[-79.20348174410967,43.75408083048289]],[[-79.250607,43.742152],[-79.25349270895595,43.74182157531039],[-79.2532,43.741823],[-79.250607,43.742152]],[[-79.245247,43.745807],[-79.24594323230366,43.745614659565035],[-79.24499415130462,43.74576608597162],[-79.245247,43.745807]],[[-79.24432,43.745657],[-79.24439320141138,43.74566884488858],[-79.244193,43.74534],[-79.24432,43.745657]],[[-79.23743721653543,43.753418260786326],[-79.23763358038777,43.75342684782518],[-79.238273,43.752821],[-79.23743721653543,43.753418260786326]],[[-79.235922,43.753352],[-79.23705807733708,43.753401680937294],[-79.234428,43.75305],[-79.235922,43.753352]],[[-79.267969,43.732242],[-79.248084,43.736684],[-79.26295,43.733451],[-79.267969,43.732242]],[[-79.206476,43.753191],[-79.21169080770939,43.75105705027437],[-79.211302,43.75117],[-79.206476,43.753191]],[[-79.20922579207392,43.7946765171274],[-79.214835,43.79378],[-79.215139685647,43.793697571352894],[-79.20922579207392,43.7946765171274]],[[-79.193848,43.788142],[-79.197305,43.796224],[-79.19379432853313,43.78796046415616],[-79.193848,43.788142]],[[-79.19361,43.787337],[-79.19366651656104,43.78752815895642],[-79.193532,43.785795],[-79.19361,43.787337]],[[-79.189442,43.779267],[-79.190636,43.778914],[-79.191704,43.778429],[-79.189442,43.779267]],[[-79.18361800291851,43.78034288066187],[-79.18417092010561,43.78047429738599],[-79.184064,43.780406],[-79.18361800291851,43.78034288066187]],[[-79.1827435308906,43.780252037325845],[-79.18288593192423,43.780239274969055],[-79.182778,43.780224],[-79.1827435308906,43.780252037325845]],[[-79.176432,43.780888],[-79.178289,43.780701],[-79.17633239271206,43.780833409159214],[-79.176432,43.780888]],[[-79.175246,43.780238],[-79.17585652093194,43.78057260253437],[-79.174252,43.779439],[-79.175246,43.780238]],[[-79.16782489320914,43.77998202906887],[-79.1676837651481,43.78008942597246],[-79.167814,43.780101],[-79.16782489320914,43.77998202906887]],[[-79.1669505528996,43.78002426508327],[-79.165688,43.779715],[-79.16661,43.779994],[-79.1669505528996,43.78002426508327]],[[-79.16340248165163,43.77907414848117],[-79.163147,43.778878],[-79.163324,43.779075],[-79.16340248165163,43.77907414848117]],[[-79.202159,43.765035],[-79.203329,43.766206],[-79.20209176623071,43.76493046177964],[-79.202159,43.765035]],[[-79.198923,43.771863],[-79.19931632217389,43.772354962908345],[-79.198788,43.771365],[-79.198923,43.771863]],[[-79.199551,43.773691],[-79.199612,43.772909],[-79.19955614011303,43.77280433050304],[-79.199551,43.773691]],[[-79.198614,43.774289],[-79.19862189699485,43.774320563378154],[-79.19864484395279,43.77426931517208],[-79.198614,43.774289]],[[-79.19889789474757,43.775423694582976],[-79.198932,43.775266],[-79.19875701715029,43.77486062306484],[-79.19889789474757,43.775423694582976]],[[-79.19857588451075,43.77586293644383],[-79.198831,43.775733],[-79.19885112386655,43.77563995202301],[-79.19857588451075,43.77586293644383]],[[-79.196741,43.776231],[-79.197973,43.77617],[-79.19813724036266,43.77608634844],[-79.196741,43.776231]],[[-79.193495,43.776747],[-79.19345767017234,43.77675980533139],[-79.19352719701445,43.77676251416939],[-79.193495,43.776747]],[[-79.192842,43.776971],[-79.19276153362401,43.77712205091634],[-79.19310004006839,43.77688248395817],[-79.192842,43.776971]],[[-79.193038,43.777874],[-79.19270113329416,43.77723543399168],[-79.19302614581223,43.778011570968715],[-79.193038,43.777874]],[[-79.19294753976338,43.77831961455785],[-79.193,43.778315],[-79.19300565536223,43.77824936803303],[-79.19294753976338,43.77831961455785]],[[-79.317293,43.783508],[-79.318948,43.782083],[-79.31693044763244,43.783715351872736],[-79.317293,43.783508]],[[-79.295927,43.794344],[-79.29601569457236,43.79422067179354],[-79.29576039212387,43.79439710584249],[-79.295927,43.794344]],[[-79.288527,43.796098],[-79.29110200707127,43.79544481597185],[-79.290667,43.795502],[-79.288527,43.796098]],[[-79.286849,43.792184],[-79.290446,43.800631],[-79.29060743543259,43.80088980030354],[-79.288527,43.796098],[-79.286849,43.792184]],[[-79.296594,43.801254],[-79.2916,43.802481],[-79.286278,43.803792],[-79.296594,43.801254]],[[-79.283438,43.797032],[-79.286425,43.804223],[-79.2865389694325,43.80436207885741],[-79.286278,43.803792],[-79.283438,43.797032]],[[-79.238757,43.793867],[-79.23984989955417,43.79561714155411],[-79.239592,43.794982],[-79.238757,43.793867]],[[-79.24368336054089,43.80598730518688],[-79.243602,43.805666],[-79.24207063261073,43.80229312709403],[-79.242101,43.802404],[-79.24368336054089,43.80598730518688]],[[-79.24381004436643,43.80648759893862],[-79.24389810458324,43.807502541145375],[-79.243956,43.807064],[-79.24381004436643,43.80648759893862]],[[-79.24381382193678,43.80814095797304],[-79.242825,43.811192],[-79.243782,43.808382],[-79.24381382193678,43.80814095797304]],[[-79.21546,43.818983],[-79.20577292105936,43.81298573815496],[-79.206292,43.81335],[-79.21546,43.818983]],[[-79.2042608932925,43.811924677917304],[-79.201668,43.80705],[-79.204059,43.811783],[-79.2042608932925,43.811924677917304]]],[[[-79.413976,43.629107],[-79.414509,43.628702],[-79.414572,43.628072],[-79.416533,43.628474],[-79.416551,43.628715],[-79.415936,43.629499],[-79.414894,43.629644],[-79.413976,43.629107]]],[[[-79.389399,43.614681],[-79.389392,43.614699],[-79.389058,43.614636],[-79.389399,43.614681]]],[[[-79.385291,43.615221],[-79.385488,43.614843],[-79.385987,43.615011],[-79.386221,43.615454],[-79.385931,43.615874],[-79.38562,43.615893],[-79.385291,43.615221]]],[[[-79.378546,43.617228],[-79.379901,43.618843],[-79.379264,43.618886],[-79.377746,43.618441],[-79.377891,43.617497],[-79.378546,43.617228]]],[[[-79.3719,43.619165],[-79.374003,43.619284],[-79.374232,43.619536],[-79.372532,43.619484],[-79.372277,43.61966],[-79.3719,43.619165]]],[[[-79.385809,43.619769],[-79.385505,43.620152],[-79.384644,43.6201],[-79.38469,43.619737],[-79.38448,43.619856],[-79.384332,43.619659],[-79.385216,43.619277],[-79.385597,43.619401],[-79.385809,43.619769]]],[[[-79.373964,43.619769],[-79.373828,43.619794],[-79.3738,43.619718],[-79.373964,43.619769]]],[[[-79.37359,43.619815],[-79.373485,43.619883],[-79.373429,43.61978],[-79.37359,43.619815]]],[[[-79.383391,43.624502],[-79.383271,43.623732],[-79.381745,43.62383],[-79.380855,43.623631],[-79.380592,43.624425],[-79.380364,43.624132],[-79.379378,43.624229],[-79.379254,43.623961],[-79.37896,43.623977],[-79.378748,43.623679],[-79.378152,43.623485],[-79.378199,43.623275],[-79.378793,43.622927],[-79.378748,43.622606],[-79.378127,43.622513],[-79.378221,43.622317],[-79.377121,43.621894],[-79.376751,43.621494],[-79.373851,43.621068],[-79.371974,43.621104],[-79.370445,43.619476],[-79.371738,43.619091],[-79.372084,43.619869],[-79.373956,43.619972],[-79.374766,43.619836],[-79.374231,43.619334],[-79.374546,43.619172],[-79.380404,43.620317],[-79.382362,43.620934],[-79.382606,43.621608],[-79.382338,43.621281],[-79.38125,43.621054],[-79.380986,43.622742],[-79.381238,43.622804],[-79.381456,43.622588],[-79.382264,43.62242],[-79.382445,43.621998],[-79.382769,43.621987],[-79.382928,43.622576],[-79.381893,43.62286],[-79.382071,43.62353],[-79.383155,43.62354],[-79.383262,43.622915],[-79.384152,43.624803],[-79.383422,43.625597],[-79.382821,43.625711],[-79.381316,43.625508],[-79.381299,43.624398],[-79.381461,43.624382],[-79.381736,43.625183],[-79.382459,43.625387],[-79.382933,43.624966],[-79.38248,43.624647],[-79.383391,43.624502]]],[[[-79.376679,43.621992],[-79.376997,43.621916],[-79.377514,43.622455],[-79.37732,43.623113],[-79.375558,43.623618],[-79.372825,43.623642],[-79.37203,43.622947],[-79.372007,43.622614],[-79.372263,43.622272],[-79.372183,43.621646],[-79.373478,43.621404],[-79.375457,43.62157],[-79.376679,43.621992]]],[[[-79.384302,43.618422],[-79.384176,43.618485],[-79.38439,43.619438],[-79.384062,43.618564],[-79.383836,43.618578],[-79.383513,43.618993],[-79.383931,43.619197],[-79.384091,43.619591],[-79.383881,43.619771],[-79.383326,43.619897],[-79.382959,43.619649],[-79.382545,43.619825],[-79.381908,43.619755],[-79.380671,43.618978],[-79.379116,43.616946],[-79.379708,43.61653],[-79.380478,43.617051],[-79.381048,43.617097],[-79.381092,43.616919],[-79.380284,43.616719],[-79.379848,43.616206],[-79.379668,43.616491],[-79.379252,43.616135],[-79.377649,43.616844],[-79.377246,43.61748],[-79.377209,43.618147],[-79.376795,43.618465],[-79.375914,43.618665],[-79.374764,43.618506],[-79.37429,43.618736],[-79.374177,43.618993],[-79.373595,43.619074],[-79.373105,43.618869],[-79.371656,43.618806],[-79.371457,43.61859],[-79.370062,43.619181],[-79.369894,43.619546],[-79.370639,43.620444],[-79.370512,43.620853],[-79.365749,43.621491],[-79.364367,43.622152],[-79.36405,43.622779],[-79.362737,43.623449],[-79.36236,43.623901],[-79.359986,43.625113],[-79.358495,43.626351],[-79.356317,43.629001],[-79.356488,43.629755],[-79.357184,43.630442],[-79.357196,43.631115],[-79.358167,43.631342],[-79.357777,43.631391],[-79.357897,43.631591],[-79.357541,43.631422],[-79.357285,43.631608],[-79.357008,43.632292],[-79.357154,43.632466],[-79.35672,43.63325],[-79.355597,43.633504],[-79.355226,43.633243],[-79.354745,43.633333],[-79.353036,43.634045],[-79.35434,43.635262],[-79.349443,43.631033],[-79.34981,43.629043],[-79.349836,43.629652],[-79.350345,43.629765],[-79.352553,43.629814],[-79.354592,43.629492],[-79.354815,43.629048],[-79.354665,43.628942],[-79.354965,43.628872],[-79.355107,43.628608],[-79.3549,43.628426],[-79.355214,43.628451],[-79.356467,43.626782],[-79.35824,43.625204],[-79.366908,43.61892],[-79.367648,43.618883],[-79.367894,43.618647],[-79.367806,43.618518],[-79.368184,43.618643],[-79.368753,43.618388],[-79.368759,43.618083],[-79.369131,43.61818],[-79.369752,43.617841],[-79.36971,43.617632],[-79.370018,43.617715],[-79.370708,43.617407],[-79.370661,43.617183],[-79.371042,43.617118],[-79.371411,43.616705],[-79.371377,43.616415],[-79.371034,43.616512],[-79.37152,43.616262],[-79.371991,43.616295],[-79.371821,43.61614],[-79.376341,43.614005],[-79.372633,43.615831],[-79.374066,43.615546],[-79.374372,43.615293],[-79.374293,43.615148],[-79.37519,43.614951],[-79.376144,43.614339],[-79.376923,43.614476],[-79.379155,43.613778],[-79.382561,43.612282],[-79.386903,43.611638],[-79.389252,43.611881],[-79.391607,43.613066],[-79.392013,43.613096],[-79.392107,43.614329],[-79.391696,43.615142],[-79.391947,43.616291],[-79.393222,43.618774],[-79.395965,43.621874],[-79.395891,43.622011],[-79.396708,43.622577],[-79.398058,43.624037],[-79.400326,43.625777],[-79.399802,43.625778],[-79.401039,43.626423],[-79.400679,43.626494],[-79.402218,43.626907],[-79.404289,43.626425],[-79.404921,43.627839],[-79.40265,43.62946],[-79.397866,43.632045],[-79.396749,43.632645],[-79.396265,43.632504],[-79.39641,43.632828],[-79.394919,43.63363],[-79.394201,43.632928],[-79.393945,43.633064],[-79.393829,43.632954],[-79.394079,43.632811],[-79.39212,43.63114],[-79.390144,43.631607],[-79.389736,43.631877],[-79.389338,43.631674],[-79.388283,43.631988],[-79.388908,43.632713],[-79.388105,43.631936],[-79.387462,43.630531],[-79.389078,43.630137],[-79.389672,43.62977],[-79.389176,43.628119],[-79.388776,43.628281],[-79.388964,43.62789],[-79.388653,43.628089],[-79.388944,43.627707],[-79.388557,43.627836],[-79.389351,43.627174],[-79.389591,43.62646],[-79.389466,43.625542],[-79.388858,43.624734],[-79.389165,43.624149],[-79.389829,43.623733],[-79.39024,43.622248],[-79.390146,43.618987],[-79.390369,43.618205],[-79.389533,43.616555],[-79.387271,43.615841],[-79.387092,43.615212],[-79.387343,43.614898],[-79.387718,43.615109],[-79.389211,43.61503],[-79.389501,43.6149],[-79.389495,43.614447],[-79.388461,43.614134],[-79.388137,43.613506],[-79.387386,43.613448],[-79.386862,43.61412],[-79.385762,43.614142],[-79.384852,43.614055],[-79.384133,43.613538],[-79.383333,43.613525],[-79.383783,43.614535],[-79.384877,43.614805],[-79.384679,43.615278],[-79.38395,43.615636],[-79.384514,43.616065],[-79.384633,43.616424],[-79.385832,43.616375],[-79.388748,43.6171],[-79.389339,43.618585],[-79.389233,43.619701],[-79.389492,43.620104],[-79.389308,43.620872],[-79.389022,43.621045],[-79.386492,43.620557],[-79.386343,43.620373],[-79.386413,43.619569],[-79.385187,43.618944],[-79.384842,43.618338],[-79.384671,43.618468],[-79.384781,43.618913],[-79.384302,43.618422]]],[[[-79.386842,43.622572],[-79.386976,43.622535],[-79.387781,43.624901],[-79.387834,43.625144],[-79.387636,43.625367],[-79.387848,43.625972],[-79.387458,43.626632],[-79.386986,43.626904],[-79.386633,43.627589],[-79.386314,43.627633],[-79.385118,43.626815],[-79.38428,43.62565],[-79.384669,43.624846],[-79.383043,43.621126],[-79.383122,43.62082],[-79.386178,43.621377],[-79.386842,43.622572]]],[[[-79.372581,43.619643],[-79.372544,43.619581],[-79.372655,43.619569],[-79.372581,43.619643]]],[[[-79.372567,43.61986],[-79.372576,43.61984],[-79.37285,43.619879],[-79.372567,43.61986]]],[[[-79.366674,43.621763],[-79.368727,43.621551],[-79.371524,43.621636],[-79.371696,43.621971],[-79.371499,43.622442],[-79.370646,43.622863],[-79.370687,43.622719],[-79.369698,43.622747],[-79.369677,43.622467],[-79.369254,43.622512],[-79.369254,43.622674],[-79.367117,43.622523],[-79.366674,43.621763]]],[[[-79.365487,43.622782],[-79.364519,43.623146],[-79.364262,43.622989],[-79.364607,43.62229],[-79.365865,43.621638],[-79.366877,43.622741],[-79.365487,43.622782]]],[[[-79.370676,43.622912],[-79.370555,43.622941],[-79.370531,43.622891],[-79.370676,43.622912]]],[[[-79.366413,43.623573],[-79.365205,43.623582],[-79.364708,43.623267],[-79.36598,43.622916],[-79.366413,43.623573]]],[[[-79.366234,43.622948],[-79.366977,43.622778],[-79.367998,43.623982],[-79.36655,43.623613],[-79.366597,43.623371],[-79.366234,43.622948]]],[[[-79.371219,43.623873],[-79.370595,43.624382],[-79.36906,43.62399],[-79.368213,43.623966],[-79.36746,43.623017],[-79.368035,43.622935],[-79.369181,43.623352],[-79.371237,43.623456],[-79.371219,43.623873]]],[[[-79.365848,43.624252],[-79.364595,43.624968],[-79.36325,43.624894],[-79.3626,43.623947],[-79.363026,43.623529],[-79.364047,43.623074],[-79.365811,43.623944],[-79.365848,43.624252]]],[[[-79.35748,43.62912],[-79.357482,43.628225],[-79.359166,43.626184],[-79.361932,43.624687],[-79.362927,43.625133],[-79.3632,43.625478],[-79.362327,43.626969],[-79.359036,43.630036],[-79.358396,43.630413],[-79.35788,43.630127],[-79.357232,43.629374],[-79.357312,43.629085],[-79.35748,43.62912]]]]},"properties":{"name":"Toronto","basis":"Vereinigung heutiger Stadtteilgeometrien; geografischer Arbeitsumriss, keine bestätigte Shadowrun-Außengrenze","boundary_role":"reference-city","source":"Code for Germany / Click That Hood","source_url":"https://github.com/codeforgermany/click_that_hood"}}]}
