{"type":"FeatureCollection","name":"London Orte","features":[{"type":"Feature","geometry":null,"properties":{"id":10,"global_id":"london:place:10-british-industrial-arcology","name":"British Industrial Arcology","aliases":[],"category":"Konzerne","detail_map":"City of London","source_pages":"PDF-Seite 112","map_source":"London Sourcebook","placement_note":"Keine belastbare Einzelposition; Eintrag bleibt im Katalog","accuracy":"Nur Stadt oder Lore-Teilraum belegt","source_map":"london-content","source_panel":"City of London","description_preview":"Die British Industrial Arcology ist ein großer Konzernkomplex.","description_full":"Die British Industrial Arcology ist ein großer Konzernkomplex. Die Position ist auf den belegten Stadt- oder Teilraum angenähert; eine hausgenaue Lage und eine weitergehende eigene Fließtextbeschreibung sind aus dem zugeordneten Datenmaterial nicht sicher ableitbar.","description_source":"PDF-Seite 112","description_kind":"Ortsprofil","description_has_more":true,"detail_plans":[],"alternate_locations":[],"sources":[{"bookId":"sr1-london-sourcebook","title":"London Sourcebook","edition":"SR1","citation":"PDF-Seite 112","purpose":"description"}],"map_sources":[],"editions":["SR1"],"edition_descriptions":{"SR1":{"kind":"Ortsprofil","preview":"Die British Industrial Arcology ist ein großer Konzernkomplex.","full":"Die British Industrial Arcology ist ein großer Konzernkomplex. Die Position ist auf den belegten Stadt- oder Teilraum angenähert; eine hausgenaue Lage und eine weitergehende eigene Fließtextbeschreibung sind aus dem zugeordneten Datenmaterial nicht sicher ableitbar.","hasMore":true,"hasExcerpt":true,"sources":[{"bookId":"sr1-london-sourcebook","title":"London Sourcebook","edition":"SR1","citation":"PDF-Seite 112","purpose":"description"}]}}}},{"type":"Feature","geometry":{"type":"Point","coordinates":[-0.0922,51.5155]},"properties":{"id":1,"global_id":"london:place:1-city-of-london","name":"City of London","aliases":[],"category":"Bezirke","detail_map":"City of London","source_pages":"PDF-Seite 79","map_source":"London Sourcebook","placement_note":"Geografischer Bezugspunkt des Lore-Distrikts City of London","accuracy":"Lore-Bezirkszentrum; Grenzpolygon noch nicht georeferenziert","source_map":"london-content","source_panel":"City of London","description_preview":"Die City bildet das Finanz- und Konzernzentrum des Plexes.","description_full":"Die City bildet das Finanz- und Konzernzentrum des Plexes. Die Position ist auf den belegten Stadt- oder Teilraum angenähert; eine hausgenaue Lage und eine weitergehende eigene Fließtextbeschreibung sind aus dem zugeordneten Datenmaterial nicht sicher ableitbar.","description_source":"PDF-Seite 79","description_kind":"Ortsprofil","description_has_more":true,"detail_plans":[],"alternate_locations":[],"sources":[{"bookId":"sr1-london-sourcebook","title":"London Sourcebook","edition":"SR1","citation":"PDF-Seite 79","purpose":"description"}],"map_sources":[],"editions":["SR1"],"edition_descriptions":{"SR1":{"kind":"Ortsprofil","preview":"Die City bildet das Finanz- und Konzernzentrum des Plexes.","full":"Die City bildet das Finanz- und Konzernzentrum des Plexes. Die Position ist auf den belegten Stadt- oder Teilraum angenähert; eine hausgenaue Lage und eine weitergehende eigene Fließtextbeschreibung sind aus dem zugeordneten Datenmaterial nicht sicher ableitbar.","hasMore":true,"hasExcerpt":true,"sources":[{"bookId":"sr1-london-sourcebook","title":"London Sourcebook","edition":"SR1","citation":"PDF-Seite 79","purpose":"description"}]}}}},{"type":"Feature","geometry":{"type":"Point","coordinates":[-0.1228,51.5117]},"properties":{"id":12,"global_id":"london:place:12-covent-garden-market","name":"Covent Garden Market","aliases":[],"category":"Einkaufen","detail_map":"West End","source_pages":"PDF-Seite 113","map_source":"London Sourcebook","placement_note":"Erhaltener geographischer Bezugspunkt","accuracy":"Geographischer Bezugspunkt","source_map":"london-content","source_panel":"West End","description_preview":"Covent Garden Market ist ein zentraler Handels- und Vergnügungsort.","description_full":"Covent Garden Market ist ein zentraler Handels- und Vergnügungsort. Die Position folgt einem erhaltenen heutigen Bezugspunkt.","description_source":"PDF-Seite 113","description_kind":"Ortsprofil","description_has_more":true,"detail_plans":[],"alternate_locations":[],"sources":[{"bookId":"sr1-london-sourcebook","title":"London Sourcebook","edition":"SR1","citation":"PDF-Seite 113","purpose":"description"}],"map_sources":[],"editions":["SR1"],"edition_descriptions":{"SR1":{"kind":"Ortsprofil","preview":"Covent Garden Market ist ein zentraler Handels- und Vergnügungsort.","full":"Covent Garden Market ist ein zentraler Handels- und Vergnügungsort. Die Position folgt einem erhaltenen heutigen Bezugspunkt.","hasMore":true,"hasExcerpt":true,"sources":[{"bookId":"sr1-london-sourcebook","title":"London Sourcebook","edition":"SR1","citation":"PDF-Seite 113","purpose":"description"}]}}}},{"type":"Feature","geometry":{"type":"Point","coordinates":[-0.1337,51.5282]},"properties":{"id":13,"global_id":"london:place:13-euston-station","name":"Euston Station","aliases":[],"category":"Verkehr","detail_map":"The Underplex","source_pages":"PDF-Seite 65","map_source":"London Sourcebook","placement_note":"Erhaltener geographischer Bezugspunkt","accuracy":"Geographischer Bezugspunkt","source_map":"london-content","source_panel":"The Underplex","description_preview":"Euston Station ist ein wichtiger Verkehrszugang.","description_full":"Euston Station ist ein wichtiger Verkehrszugang. Die Position folgt einem erhaltenen heutigen Bezugspunkt.","description_source":"PDF-Seite 65","description_kind":"Ortsprofil","description_has_more":true,"detail_plans":[],"alternate_locations":[],"sources":[{"bookId":"sr1-london-sourcebook","title":"London Sourcebook","edition":"SR1","citation":"PDF-Seite 65","purpose":"description"}],"map_sources":[],"editions":["SR1"],"edition_descriptions":{"SR1":{"kind":"Ortsprofil","preview":"Euston Station ist ein wichtiger Verkehrszugang.","full":"Euston Station ist ein wichtiger Verkehrszugang. Die Position folgt einem erhaltenen heutigen Bezugspunkt.","hasMore":true,"hasExcerpt":true,"sources":[{"bookId":"sr1-london-sourcebook","title":"London Sourcebook","edition":"SR1","citation":"PDF-Seite 65","purpose":"description"}]}}}},{"type":"Feature","geometry":null,"properties":{"id":14,"global_id":"london:place:14-glenwood-primary-school","name":"Glenwood Primary School","aliases":[],"category":"Bildung und Kultur","detail_map":"London","source_pages":"Schauplatz Glenwood Primary School","map_source":"SRMC - London Falling","placement_note":"Keine belastbare Einzelposition; Eintrag bleibt im Katalog","accuracy":"Nur Stadt oder Lore-Teilraum belegt","source_map":"london-content","source_panel":"London","description_preview":"Die Glenwood Primary School ist ein Missionsschauplatz.","description_full":"Die Glenwood Primary School ist ein Missionsschauplatz. Die Position ist auf den belegten Stadt- oder Teilraum angenähert; eine hausgenaue Lage und eine weitergehende eigene Fließtextbeschreibung sind aus dem zugeordneten Datenmaterial nicht sicher ableitbar.","description_source":"Schauplatz Glenwood Primary School","description_kind":"Ortsprofil","description_has_more":true,"detail_plans":[],"alternate_locations":[],"sources":[{"bookId":"sr5-srmc-london-falling","title":"SRMC - London Falling","edition":"SR5","citation":"Schauplatz Glenwood Primary School","purpose":"description"}],"map_sources":[],"editions":["SR5"],"edition_descriptions":{"SR5":{"kind":"Ortsprofil","preview":"Die Glenwood Primary School ist ein Missionsschauplatz.","full":"Die Glenwood Primary School ist ein Missionsschauplatz. Die Position ist auf den belegten Stadt- oder Teilraum angenähert; eine hausgenaue Lage und eine weitergehende eigene Fließtextbeschreibung sind aus dem zugeordneten Datenmaterial nicht sicher ableitbar.","hasMore":true,"hasExcerpt":true,"sources":[{"bookId":"sr5-srmc-london-falling","title":"SRMC - London Falling","edition":"SR5","citation":"Schauplatz Glenwood Primary School","purpose":"description"}]}}}},{"type":"Feature","geometry":{"type":"Point","coordinates":[-0.178,51.556]},"properties":{"id":7,"global_id":"london:place:7-hampstead","name":"Hampstead","aliases":[],"category":"Bezirke","detail_map":"Hampstead","source_pages":"Kapitel Hampstead","map_source":"Mission London","placement_note":"Geografischer Bezugspunkt des Lore-Distrikts Hampstead","accuracy":"Lore-Bezirkszentrum; Grenzpolygon noch nicht georeferenziert","source_map":"london-content","source_panel":"Hampstead","description_preview":"Hampstead und die Heath bilden einen nördlichen Grün- und Wohnraum.","description_full":"Hampstead und die Heath bilden einen nördlichen Grün- und Wohnraum. Die Position ist auf den belegten Stadt- oder Teilraum angenähert; eine hausgenaue Lage und eine weitergehende eigene Fließtextbeschreibung sind aus dem zugeordneten Datenmaterial nicht sicher ableitbar.","description_source":"Kapitel Hampstead","description_kind":"Ortsprofil","description_has_more":true,"detail_plans":[],"alternate_locations":[],"sources":[{"bookId":"sr5-mission-london","title":"Mission London","edition":"SR5","citation":"Kapitel Hampstead","purpose":"description"}],"map_sources":[],"editions":["SR5"],"edition_descriptions":{"SR5":{"kind":"Ortsprofil","preview":"Hampstead und die Heath bilden einen nördlichen Grün- und Wohnraum.","full":"Hampstead und die Heath bilden einen nördlichen Grün- und Wohnraum. Die Position ist auf den belegten Stadt- oder Teilraum angenähert; eine hausgenaue Lage und eine weitergehende eigene Fließtextbeschreibung sind aus dem zugeordneten Datenmaterial nicht sicher ableitbar.","hasMore":true,"hasExcerpt":true,"sources":[{"bookId":"sr5-mission-london","title":"Mission London","edition":"SR5","citation":"Kapitel Hampstead","purpose":"description"}]}}}},{"type":"Feature","geometry":{"type":"Point","coordinates":[-0.1657,51.5608]},"properties":{"id":15,"global_id":"london:place:15-hampstead-heath","name":"Hampstead Heath","aliases":[],"category":"Freizeit und Natur","detail_map":"Hampstead","source_pages":"Schauplatz Hampstead Heath","map_source":"Mission London","placement_note":"Erhaltener geographischer Bezugspunkt","accuracy":"Geographischer Bezugspunkt","source_map":"london-content","source_panel":"Hampstead","description_preview":"Hampstead Heath ist Grünraum und Missionsschauplatz.","description_full":"Hampstead Heath ist Grünraum und Missionsschauplatz. Die Position folgt einem erhaltenen heutigen Bezugspunkt.","description_source":"Schauplatz Hampstead Heath","description_kind":"Ortsprofil","description_has_more":true,"detail_plans":[],"alternate_locations":[],"sources":[{"bookId":"sr5-mission-london","title":"Mission London","edition":"SR5","citation":"Schauplatz Hampstead Heath","purpose":"description"}],"map_sources":[],"editions":["SR5"],"edition_descriptions":{"SR5":{"kind":"Ortsprofil","preview":"Hampstead Heath ist Grünraum und Missionsschauplatz.","full":"Hampstead Heath ist Grünraum und Missionsschauplatz. Die Position folgt einem erhaltenen heutigen Bezugspunkt.","hasMore":true,"hasExcerpt":true,"sources":[{"bookId":"sr5-mission-london","title":"Mission London","edition":"SR5","citation":"Schauplatz Hampstead Heath","purpose":"description"}]}}}},{"type":"Feature","geometry":{"type":"Point","coordinates":[-0.112,51.493]},"properties":{"id":8,"global_id":"london:place:8-lambeth-containment-zone","name":"Lambeth Containment Zone","aliases":[],"category":"Bezirke","detail_map":"Lambeth Containment Zone","source_pages":"PDF-Seite 114","map_source":"London Sourcebook","placement_note":"Geografischer Bezugspunkt des Lore-Distrikts Lambeth Containment Zone","accuracy":"Lore-Bezirkszentrum; Grenzpolygon noch nicht georeferenziert","source_map":"london-content","source_panel":"Lambeth Containment Zone","description_preview":"Die Lambeth Containment Zone ist ein abgeriegelter innerstädtischer Sonderraum.","description_full":"Die Lambeth Containment Zone ist ein abgeriegelter innerstädtischer Sonderraum. Die Position ist auf den belegten Stadt- oder Teilraum angenähert; eine hausgenaue Lage und eine weitergehende eigene Fließtextbeschreibung sind aus dem zugeordneten Datenmaterial nicht sicher ableitbar.","description_source":"PDF-Seite 114","description_kind":"Ortsprofil","description_has_more":true,"detail_plans":[],"alternate_locations":[],"sources":[{"bookId":"sr1-london-sourcebook","title":"London Sourcebook","edition":"SR1","citation":"PDF-Seite 114","purpose":"description"}],"map_sources":[],"editions":["SR1"],"edition_descriptions":{"SR1":{"kind":"Ortsprofil","preview":"Die Lambeth Containment Zone ist ein abgeriegelter innerstädtischer Sonderraum.","full":"Die Lambeth Containment Zone ist ein abgeriegelter innerstädtischer Sonderraum. Die Position ist auf den belegten Stadt- oder Teilraum angenähert; eine hausgenaue Lage und eine weitergehende eigene Fließtextbeschreibung sind aus dem zugeordneten Datenmaterial nicht sicher ableitbar.","hasMore":true,"hasExcerpt":true,"sources":[{"bookId":"sr1-london-sourcebook","title":"London Sourcebook","edition":"SR1","citation":"PDF-Seite 114","purpose":"description"}]}}}},{"type":"Feature","geometry":null,"properties":{"id":16,"global_id":"london:place:16-oxford-street-underplex-access","name":"Oxford Street Underplex Access","aliases":[],"category":"Verkehr","detail_map":"The Underplex","source_pages":"PDF-Seite 41","map_source":"London Sourcebook","placement_note":"Keine belastbare Einzelposition; Eintrag bleibt im Katalog","accuracy":"Nur Stadt oder Lore-Teilraum belegt","source_map":"london-content","source_panel":"The Underplex","description_preview":"Der Zugang an der Oxford Street führt in den Underplex.","description_full":"Der Zugang an der Oxford Street führt in den Underplex. Die Position ist auf den belegten Stadt- oder Teilraum angenähert; eine hausgenaue Lage und eine weitergehende eigene Fließtextbeschreibung sind aus dem zugeordneten Datenmaterial nicht sicher ableitbar.","description_source":"PDF-Seite 41","description_kind":"Ortsprofil","description_has_more":true,"detail_plans":[],"alternate_locations":[],"sources":[{"bookId":"sr1-london-sourcebook","title":"London Sourcebook","edition":"SR1","citation":"PDF-Seite 41","purpose":"description"}],"map_sources":[],"editions":["SR1"],"edition_descriptions":{"SR1":{"kind":"Ortsprofil","preview":"Der Zugang an der Oxford Street führt in den Underplex.","full":"Der Zugang an der Oxford Street führt in den Underplex. Die Position ist auf den belegten Stadt- oder Teilraum angenähert; eine hausgenaue Lage und eine weitergehende eigene Fließtextbeschreibung sind aus dem zugeordneten Datenmaterial nicht sicher ableitbar.","hasMore":true,"hasExcerpt":true,"sources":[{"bookId":"sr1-london-sourcebook","title":"London Sourcebook","edition":"SR1","citation":"PDF-Seite 41","purpose":"description"}]}}}},{"type":"Feature","geometry":{"type":"Point","coordinates":[-0.132,51.513]},"properties":{"id":3,"global_id":"london:place:3-soho","name":"Soho","aliases":[],"category":"Bezirke","detail_map":"Soho","source_pages":"Kapitel Soho","map_source":"SRMC - London Falling","placement_note":"Geografischer Bezugspunkt des Lore-Distrikts Soho","accuracy":"Lore-Bezirkszentrum; Grenzpolygon noch nicht georeferenziert","source_map":"london-content","source_panel":"Soho","description_preview":"Soho ist ein dichtes Ausgeh- und Schattenviertel.","description_full":"Soho ist ein dichtes Ausgeh- und Schattenviertel. Die Position ist auf den belegten Stadt- oder Teilraum angenähert; eine hausgenaue Lage und eine weitergehende eigene Fließtextbeschreibung sind aus dem zugeordneten Datenmaterial nicht sicher ableitbar.","description_source":"Kapitel Soho","description_kind":"Ortsprofil","description_has_more":true,"detail_plans":[],"alternate_locations":[],"sources":[{"bookId":"sr5-srmc-london-falling","title":"SRMC - London Falling","edition":"SR5","citation":"Kapitel Soho","purpose":"description"}],"map_sources":[],"editions":["SR5"],"edition_descriptions":{"SR5":{"kind":"Ortsprofil","preview":"Soho ist ein dichtes Ausgeh- und Schattenviertel.","full":"Soho ist ein dichtes Ausgeh- und Schattenviertel. Die Position ist auf den belegten Stadt- oder Teilraum angenähert; eine hausgenaue Lage und eine weitergehende eigene Fließtextbeschreibung sind aus dem zugeordneten Datenmaterial nicht sicher ableitbar.","hasMore":true,"hasExcerpt":true,"sources":[{"bookId":"sr5-srmc-london-falling","title":"SRMC - London Falling","edition":"SR5","citation":"Kapitel Soho","purpose":"description"}]}}}},{"type":"Feature","geometry":null,"properties":{"id":17,"global_id":"london:place:17-temple-bar","name":"Temple Bar","aliases":[],"category":"Sichtseeing und Monumente","detail_map":"City of London","source_pages":"PDF-Seite 84","map_source":"London Sourcebook","placement_note":"Keine belastbare Einzelposition; Eintrag bleibt im Katalog","accuracy":"Nur Stadt oder Lore-Teilraum belegt","source_map":"london-content","source_panel":"City of London","description_preview":"Temple Bar ist ein benannter Ort im Machtzentrum der City.","description_full":"Temple Bar ist ein benannter Ort im Machtzentrum der City. Die Position ist auf den belegten Stadt- oder Teilraum angenähert; eine hausgenaue Lage und eine weitergehende eigene Fließtextbeschreibung sind aus dem zugeordneten Datenmaterial nicht sicher ableitbar.","description_source":"PDF-Seite 84","description_kind":"Ortsprofil","description_has_more":true,"detail_plans":[],"alternate_locations":[],"sources":[{"bookId":"sr1-london-sourcebook","title":"London Sourcebook","edition":"SR1","citation":"PDF-Seite 84","purpose":"description"}],"map_sources":[],"editions":["SR1"],"edition_descriptions":{"SR1":{"kind":"Ortsprofil","preview":"Temple Bar ist ein benannter Ort im Machtzentrum der City.","full":"Temple Bar ist ein benannter Ort im Machtzentrum der City. Die Position ist auf den belegten Stadt- oder Teilraum angenähert; eine hausgenaue Lage und eine weitergehende eigene Fließtextbeschreibung sind aus dem zugeordneten Datenmaterial nicht sicher ableitbar.","hasMore":true,"hasExcerpt":true,"sources":[{"bookId":"sr1-london-sourcebook","title":"London Sourcebook","edition":"SR1","citation":"PDF-Seite 84","purpose":"description"}]}}}},{"type":"Feature","geometry":{"type":"Point","coordinates":[-0.1269,51.5194]},"properties":{"id":11,"global_id":"london:place:11-the-british-museum","name":"The British Museum","aliases":[],"category":"Bildung und Kultur","detail_map":"West End","source_pages":"PDF-Seite 74","map_source":"London Sourcebook","placement_note":"Erhaltener geographischer Bezugspunkt","accuracy":"Geographischer Bezugspunkt","source_map":"london-content","source_panel":"West End","description_preview":"Das British Museum ist Wahrzeichen, Kulturort und wiederkehrender Missionsschauplatz.","description_full":"Das British Museum ist Wahrzeichen, Kulturort und wiederkehrender Missionsschauplatz. Die Position folgt einem erhaltenen heutigen Bezugspunkt.","description_source":"PDF-Seite 74","description_kind":"Ortsprofil","description_has_more":true,"detail_plans":[],"alternate_locations":[],"sources":[{"bookId":"sr1-london-sourcebook","title":"London Sourcebook","edition":"SR1","citation":"PDF-Seite 74","purpose":"description"}],"map_sources":[],"editions":["SR1"],"edition_descriptions":{"SR1":{"kind":"Ortsprofil","preview":"Das British Museum ist Wahrzeichen, Kulturort und wiederkehrender Missionsschauplatz.","full":"Das British Museum ist Wahrzeichen, Kulturort und wiederkehrender Missionsschauplatz. Die Position folgt einem erhaltenen heutigen Bezugspunkt.","hasMore":true,"hasExcerpt":true,"sources":[{"bookId":"sr1-london-sourcebook","title":"London Sourcebook","edition":"SR1","citation":"PDF-Seite 74","purpose":"description"}]}}}},{"type":"Feature","geometry":{"type":"Point","coordinates":[-0.141,51.514]},"properties":{"id":9,"global_id":"london:place:9-the-underplex","name":"The Underplex","aliases":[],"category":"Bezirke","detail_map":"The Underplex","source_pages":"Kapitel Underplex","map_source":"London Sourcebook","placement_note":"Geografischer Bezugspunkt des Lore-Distrikts The Underplex","accuracy":"Lore-Bezirkszentrum; Grenzpolygon noch nicht georeferenziert","source_map":"london-content","source_panel":"The Underplex","description_preview":"Der Underplex ist ein unterirdischer Handels-, Verkehrs- und Schattenraum.","description_full":"Der Underplex ist ein unterirdischer Handels-, Verkehrs- und Schattenraum. Die Position ist auf den belegten Stadt- oder Teilraum angenähert; eine hausgenaue Lage und eine weitergehende eigene Fließtextbeschreibung sind aus dem zugeordneten Datenmaterial nicht sicher ableitbar.","description_source":"Kapitel Underplex","description_kind":"Ortsprofil","description_has_more":true,"detail_plans":[],"alternate_locations":[],"sources":[{"bookId":"sr1-london-sourcebook","title":"London Sourcebook","edition":"SR1","citation":"Kapitel Underplex","purpose":"description"}],"map_sources":[],"editions":["SR1"],"edition_descriptions":{"SR1":{"kind":"Ortsprofil","preview":"Der Underplex ist ein unterirdischer Handels-, Verkehrs- und Schattenraum.","full":"Der Underplex ist ein unterirdischer Handels-, Verkehrs- und Schattenraum. Die Position ist auf den belegten Stadt- oder Teilraum angenähert; eine hausgenaue Lage und eine weitergehende eigene Fließtextbeschreibung sind aus dem zugeordneten Datenmaterial nicht sicher ableitbar.","hasMore":true,"hasExcerpt":true,"sources":[{"bookId":"sr1-london-sourcebook","title":"London Sourcebook","edition":"SR1","citation":"Kapitel Underplex","purpose":"description"}]}}}},{"type":"Feature","geometry":{"type":"Point","coordinates":[-0.057,51.508]},"properties":{"id":6,"global_id":"london:place:6-wapping-and-shadwell","name":"Wapping and Shadwell","aliases":[],"category":"Bezirke","detail_map":"Wapping and Shadwell","source_pages":"PDF-Seite 80","map_source":"London Sourcebook","placement_note":"Geografischer Bezugspunkt des Lore-Distrikts Wapping and Shadwell","accuracy":"Lore-Bezirkszentrum; Grenzpolygon noch nicht georeferenziert","source_map":"london-content","source_panel":"Wapping and Shadwell","description_preview":"Wapping und Shadwell bilden einen östlichen Hafen- und Wohnraum.","description_full":"Wapping und Shadwell bilden einen östlichen Hafen- und Wohnraum. Die Position ist auf den belegten Stadt- oder Teilraum angenähert; eine hausgenaue Lage und eine weitergehende eigene Fließtextbeschreibung sind aus dem zugeordneten Datenmaterial nicht sicher ableitbar.","description_source":"PDF-Seite 80","description_kind":"Ortsprofil","description_has_more":true,"detail_plans":[],"alternate_locations":[],"sources":[{"bookId":"sr1-london-sourcebook","title":"London Sourcebook","edition":"SR1","citation":"PDF-Seite 80","purpose":"description"}],"map_sources":[],"editions":["SR1"],"edition_descriptions":{"SR1":{"kind":"Ortsprofil","preview":"Wapping und Shadwell bilden einen östlichen Hafen- und Wohnraum.","full":"Wapping und Shadwell bilden einen östlichen Hafen- und Wohnraum. Die Position ist auf den belegten Stadt- oder Teilraum angenähert; eine hausgenaue Lage und eine weitergehende eigene Fließtextbeschreibung sind aus dem zugeordneten Datenmaterial nicht sicher ableitbar.","hasMore":true,"hasExcerpt":true,"sources":[{"bookId":"sr1-london-sourcebook","title":"London Sourcebook","edition":"SR1","citation":"PDF-Seite 80","purpose":"description"}]}}}},{"type":"Feature","geometry":{"type":"Point","coordinates":[-0.128,51.511]},"properties":{"id":2,"global_id":"london:place:2-west-end","name":"West End","aliases":[],"category":"Bezirke","detail_map":"West End","source_pages":"Kapitel West End","map_source":"Mission London","placement_note":"Geografischer Bezugspunkt des Lore-Distrikts West End","accuracy":"Lore-Bezirkszentrum; Grenzpolygon noch nicht georeferenziert","source_map":"london-content","source_panel":"West End","description_preview":"Das West End ist Vergnügungs-, Kultur- und Geschäftsraum.","description_full":"Das West End ist Vergnügungs-, Kultur- und Geschäftsraum. Die Position ist auf den belegten Stadt- oder Teilraum angenähert; eine hausgenaue Lage und eine weitergehende eigene Fließtextbeschreibung sind aus dem zugeordneten Datenmaterial nicht sicher ableitbar.","description_source":"Kapitel West End","description_kind":"Ortsprofil","description_has_more":true,"detail_plans":[],"alternate_locations":[],"sources":[{"bookId":"sr5-mission-london","title":"Mission London","edition":"SR5","citation":"Kapitel West End","purpose":"description"}],"map_sources":[],"editions":["SR5"],"edition_descriptions":{"SR5":{"kind":"Ortsprofil","preview":"Das West End ist Vergnügungs-, Kultur- und Geschäftsraum.","full":"Das West End ist Vergnügungs-, Kultur- und Geschäftsraum. Die Position ist auf den belegten Stadt- oder Teilraum angenähert; eine hausgenaue Lage und eine weitergehende eigene Fließtextbeschreibung sind aus dem zugeordneten Datenmaterial nicht sicher ableitbar.","hasMore":true,"hasExcerpt":true,"sources":[{"bookId":"sr5-mission-london","title":"Mission London","edition":"SR5","citation":"Kapitel West End","purpose":"description"}]}}}},{"type":"Feature","geometry":{"type":"Point","coordinates":[-0.1248,51.4995]},"properties":{"id":4,"global_id":"london:place:4-westminster","name":"Westminster","aliases":[],"category":"Bezirke","detail_map":"Westminster","source_pages":"Kapitel Westminster","map_source":"Mission London","placement_note":"Geografischer Bezugspunkt des Lore-Distrikts Westminster","accuracy":"Lore-Bezirkszentrum; Grenzpolygon noch nicht georeferenziert","source_map":"london-content","source_panel":"Westminster","description_preview":"Westminster bildet das politische Zentrum Londons.","description_full":"Westminster bildet das politische Zentrum Londons. Die Position ist auf den belegten Stadt- oder Teilraum angenähert; eine hausgenaue Lage und eine weitergehende eigene Fließtextbeschreibung sind aus dem zugeordneten Datenmaterial nicht sicher ableitbar.","description_source":"Kapitel Westminster","description_kind":"Ortsprofil","description_has_more":true,"detail_plans":[],"alternate_locations":[],"sources":[{"bookId":"sr5-mission-london","title":"Mission London","edition":"SR5","citation":"Kapitel Westminster","purpose":"description"}],"map_sources":[],"editions":["SR5"],"edition_descriptions":{"SR5":{"kind":"Ortsprofil","preview":"Westminster bildet das politische Zentrum Londons.","full":"Westminster bildet das politische Zentrum Londons. Die Position ist auf den belegten Stadt- oder Teilraum angenähert; eine hausgenaue Lage und eine weitergehende eigene Fließtextbeschreibung sind aus dem zugeordneten Datenmaterial nicht sicher ableitbar.","hasMore":true,"hasExcerpt":true,"sources":[{"bookId":"sr5-mission-london","title":"Mission London","edition":"SR5","citation":"Kapitel Westminster","purpose":"description"}]}}}},{"type":"Feature","geometry":{"type":"Point","coordinates":[-0.072,51.516]},"properties":{"id":5,"global_id":"london:place:5-whitechapel","name":"Whitechapel","aliases":[],"category":"Bezirke","detail_map":"Whitechapel","source_pages":"Kapitel Whitechapel","map_source":"London Sourcebook","placement_note":"Geografischer Bezugspunkt des Lore-Distrikts Whitechapel","accuracy":"Lore-Bezirkszentrum; Grenzpolygon noch nicht georeferenziert","source_map":"london-content","source_panel":"Whitechapel","description_preview":"Whitechapel ist ein östlicher Stadtteil mit eigener Unterwelt- und Straßenszene.","description_full":"Whitechapel ist ein östlicher Stadtteil mit eigener Unterwelt- und Straßenszene. Die Position ist auf den belegten Stadt- oder Teilraum angenähert; eine hausgenaue Lage und eine weitergehende eigene Fließtextbeschreibung sind aus dem zugeordneten Datenmaterial nicht sicher ableitbar.","description_source":"Kapitel Whitechapel","description_kind":"Ortsprofil","description_has_more":true,"detail_plans":[],"alternate_locations":[],"sources":[{"bookId":"sr1-london-sourcebook","title":"London Sourcebook","edition":"SR1","citation":"Kapitel Whitechapel","purpose":"description"}],"map_sources":[],"editions":["SR1"],"edition_descriptions":{"SR1":{"kind":"Ortsprofil","preview":"Whitechapel ist ein östlicher Stadtteil mit eigener Unterwelt- und Straßenszene.","full":"Whitechapel ist ein östlicher Stadtteil mit eigener Unterwelt- und Straßenszene. Die Position ist auf den belegten Stadt- oder Teilraum angenähert; eine hausgenaue Lage und eine weitergehende eigene Fließtextbeschreibung sind aus dem zugeordneten Datenmaterial nicht sicher ableitbar.","hasMore":true,"hasExcerpt":true,"sources":[{"bookId":"sr1-london-sourcebook","title":"London Sourcebook","edition":"SR1","citation":"Kapitel Whitechapel","purpose":"description"}]}}}},{"type":"Feature","geometry":null,"properties":{"id":18,"global_id":"london:place:18-zowies-bar-node","name":"Zowie’s Bar Node","aliases":[],"category":"Matrix und virtuelle Orte","detail_map":"The Underplex","source_pages":"Schauplatz Zowie’s Bar Node","map_source":"SRMC - London Falling","placement_note":"Keine belastbare Einzelposition; Eintrag bleibt im Katalog","accuracy":"Nur Stadt oder Lore-Teilraum belegt","source_map":"london-content","source_panel":"The Underplex","description_preview":"Zowie’s Bar Node ist ein virtueller oder vernetzter Treffpunkt.","description_full":"Zowie’s Bar Node ist ein virtueller oder vernetzter Treffpunkt. Die Position ist auf den belegten Stadt- oder Teilraum angenähert; eine hausgenaue Lage und eine weitergehende eigene Fließtextbeschreibung sind aus dem zugeordneten Datenmaterial nicht sicher ableitbar.","description_source":"Schauplatz Zowie’s Bar Node","description_kind":"Ortsprofil","description_has_more":true,"detail_plans":[],"alternate_locations":[],"sources":[{"bookId":"sr5-srmc-london-falling","title":"SRMC - London Falling","edition":"SR5","citation":"Schauplatz Zowie’s Bar Node","purpose":"description"}],"map_sources":[],"editions":["SR5"],"edition_descriptions":{"SR5":{"kind":"Ortsprofil","preview":"Zowie’s Bar Node ist ein virtueller oder vernetzter Treffpunkt.","full":"Zowie’s Bar Node ist ein virtueller oder vernetzter Treffpunkt. Die Position ist auf den belegten Stadt- oder Teilraum angenähert; eine hausgenaue Lage und eine weitergehende eigene Fließtextbeschreibung sind aus dem zugeordneten Datenmaterial nicht sicher ableitbar.","hasMore":true,"hasExcerpt":true,"sources":[{"bookId":"sr5-srmc-london-falling","title":"SRMC - London Falling","edition":"SR5","citation":"Schauplatz Zowie’s Bar Node","purpose":"description"}]}}}}]}
