{"type":"FeatureCollection","name":"London – geprüfte zusätzliche Quellenorte","features":[{"type":"Feature","geometry":null,"properties":{"id":22,"global_id":"london:source-place:flower-garden-shop","name":"Flower & Garden Shop","aliases":[],"category":"Sonstige Spots","detail_map":"London","source_pages":"PDF-Seite 41","map_source":"London Sourcebook","placement_note":"Keine belastbare Einzelposition; Eintrag bleibt im Katalog","accuracy":"Nur Stadt oder Lore-Teilraum belegt","source_map":"source-supplement","source_panel":"London","description_preview":"Flower & Garden Shop ist in London Sourcebook als benannter Schauplatz mit Bezug zu London belegt.","description_full":"Flower & Garden Shop ist in London Sourcebook als benannter Schauplatz mit Bezug zu London belegt. Das Dossier fasst den belegten Quellenstand redaktionell zusammen; eine nicht belegte Kartenposition wird nicht ergänzt.","description_source":"PDF-Seite 41","description_kind":"Ortsdossier","description_has_more":true,"detail_plans":[],"alternate_locations":[],"sources":[{"bookId":"sr1-london-sourcebook","title":"London Sourcebook","edition":"SR1","citation":"PDF-Seite 41","purpose":"description"}],"map_sources":[],"editions":["SR1"],"edition_descriptions":{"SR1":{"kind":"Ortsdossier","preview":"Flower & Garden Shop ist in London Sourcebook als benannter Schauplatz mit Bezug zu London belegt.","full":"Flower & Garden Shop ist in London Sourcebook als benannter Schauplatz mit Bezug zu London belegt. Das Dossier fasst den belegten Quellenstand redaktionell zusammen; eine nicht belegte Kartenposition wird nicht ergänzt.","hasMore":true,"hasExcerpt":true,"sources":[{"bookId":"sr1-london-sourcebook","title":"London Sourcebook","edition":"SR1","citation":"PDF-Seite 41","purpose":"description"}]}}}},{"type":"Feature","geometry":null,"properties":{"id":23,"global_id":"london:source-place:hausverbot-im-pub","name":"Hausverbot Im Pub","aliases":[],"category":"Bars, Clubs und Gastronomie","detail_map":"London","source_pages":"Textzeile 9446","map_source":"Mission London","placement_note":"Keine belastbare Einzelposition; Eintrag bleibt im Katalog","accuracy":"Nur Stadt oder Lore-Teilraum belegt","source_map":"source-supplement","source_panel":"London","description_preview":"Hausverbot Im Pub ist in Mission London als benannter Schauplatz mit Bezug zu London belegt.","description_full":"Hausverbot Im Pub ist in Mission London als benannter Schauplatz mit Bezug zu London belegt. Das Dossier fasst den belegten Quellenstand redaktionell zusammen; eine nicht belegte Kartenposition wird nicht ergänzt.","description_source":"Textzeile 9446","description_kind":"Ortsdossier","description_has_more":true,"detail_plans":[],"alternate_locations":[],"sources":[{"bookId":"sr5-mission-london","title":"Mission London","edition":"SR5","citation":"Textzeile 9446","purpose":"description"}],"map_sources":[],"editions":["SR5"],"edition_descriptions":{"SR5":{"kind":"Ortsdossier","preview":"Hausverbot Im Pub ist in Mission London als benannter Schauplatz mit Bezug zu London belegt.","full":"Hausverbot Im Pub ist in Mission London als benannter Schauplatz mit Bezug zu London belegt. Das Dossier fasst den belegten Quellenstand redaktionell zusammen; eine nicht belegte Kartenposition wird nicht ergänzt.","hasMore":true,"hasExcerpt":true,"sources":[{"bookId":"sr5-mission-london","title":"Mission London","edition":"SR5","citation":"Textzeile 9446","purpose":"description"}]}}}},{"type":"Feature","geometry":null,"properties":{"id":24,"global_id":"london:source-place:kentish-habitable-zone","name":"Kentish Habitable Zone","aliases":[],"category":"Bezirke und Lore-Gebiete","detail_map":"London","source_pages":"PDF-Seite 133","map_source":"London Sourcebook","placement_note":"Keine belastbare Einzelposition; Eintrag bleibt im Katalog","accuracy":"Nur Stadt oder Lore-Teilraum belegt","source_map":"source-supplement","source_panel":"London","description_preview":"Kentish Habitable Zone ist in London Sourcebook als benannter Schauplatz mit Bezug zu London belegt.","description_full":"Kentish Habitable Zone ist in London Sourcebook als benannter Schauplatz mit Bezug zu London belegt. Das Dossier fasst den belegten Quellenstand redaktionell zusammen; eine nicht belegte Kartenposition wird nicht ergänzt.","description_source":"PDF-Seite 133","description_kind":"Ortsdossier","description_has_more":true,"detail_plans":[],"alternate_locations":[],"sources":[{"bookId":"sr1-london-sourcebook","title":"London Sourcebook","edition":"SR1","citation":"PDF-Seite 133","purpose":"description"}],"map_sources":[],"editions":["SR1"],"edition_descriptions":{"SR1":{"kind":"Ortsdossier","preview":"Kentish Habitable Zone ist in London Sourcebook als benannter Schauplatz mit Bezug zu London belegt.","full":"Kentish Habitable Zone ist in London Sourcebook als benannter Schauplatz mit Bezug zu London belegt. Das Dossier fasst den belegten Quellenstand redaktionell zusammen; eine nicht belegte Kartenposition wird nicht ergänzt.","hasMore":true,"hasExcerpt":true,"sources":[{"bookId":"sr1-london-sourcebook","title":"London Sourcebook","edition":"SR1","citation":"PDF-Seite 133","purpose":"description"}]}}}},{"type":"Feature","geometry":null,"properties":{"id":25,"global_id":"london:source-place:nachts-im-museum","name":"Nachts Im Museum","aliases":[],"category":"Sonstige Spots","detail_map":"London","source_pages":"Textzeile 2428","map_source":"Mission London","placement_note":"Keine belastbare Einzelposition; Eintrag bleibt im Katalog","accuracy":"Nur Stadt oder Lore-Teilraum belegt","source_map":"source-supplement","source_panel":"London","description_preview":"Nachts Im Museum ist in Mission London als benannter Schauplatz mit Bezug zu London belegt.","description_full":"Nachts Im Museum ist in Mission London als benannter Schauplatz mit Bezug zu London belegt. Das Dossier fasst den belegten Quellenstand redaktionell zusammen; eine nicht belegte Kartenposition wird nicht ergänzt.","description_source":"Textzeile 2428","description_kind":"Ortsdossier","description_has_more":true,"detail_plans":[],"alternate_locations":[],"sources":[{"bookId":"sr5-mission-london","title":"Mission London","edition":"SR5","citation":"Textzeile 2428","purpose":"description"}],"map_sources":[],"editions":["SR5"],"edition_descriptions":{"SR5":{"kind":"Ortsdossier","preview":"Nachts Im Museum ist in Mission London als benannter Schauplatz mit Bezug zu London belegt.","full":"Nachts Im Museum ist in Mission London als benannter Schauplatz mit Bezug zu London belegt. Das Dossier fasst den belegten Quellenstand redaktionell zusammen; eine nicht belegte Kartenposition wird nicht ergänzt.","hasMore":true,"hasExcerpt":true,"sources":[{"bookId":"sr5-mission-london","title":"Mission London","edition":"SR5","citation":"Textzeile 2428","purpose":"description"}]}}}},{"type":"Feature","geometry":null,"properties":{"id":26,"global_id":"london:source-place:northern-toxic-zone","name":"Northern Toxic Zone","aliases":[],"category":"Bezirke und Lore-Gebiete","detail_map":"London","source_pages":"PDF-Seite 131","map_source":"London Sourcebook","placement_note":"Keine belastbare Einzelposition; Eintrag bleibt im Katalog","accuracy":"Nur Stadt oder Lore-Teilraum belegt","source_map":"source-supplement","source_panel":"London","description_preview":"Northern Toxic Zone ist in London Sourcebook als benannter Schauplatz mit Bezug zu London belegt.","description_full":"Northern Toxic Zone ist in London Sourcebook als benannter Schauplatz mit Bezug zu London belegt. Das Dossier fasst den belegten Quellenstand redaktionell zusammen; eine nicht belegte Kartenposition wird nicht ergänzt.","description_source":"PDF-Seite 131","description_kind":"Ortsdossier","description_has_more":true,"detail_plans":[],"alternate_locations":[],"sources":[{"bookId":"sr1-london-sourcebook","title":"London Sourcebook","edition":"SR1","citation":"PDF-Seite 131","purpose":"description"}],"map_sources":[],"editions":["SR1"],"edition_descriptions":{"SR1":{"kind":"Ortsdossier","preview":"Northern Toxic Zone ist in London Sourcebook als benannter Schauplatz mit Bezug zu London belegt.","full":"Northern Toxic Zone ist in London Sourcebook als benannter Schauplatz mit Bezug zu London belegt. Das Dossier fasst den belegten Quellenstand redaktionell zusammen; eine nicht belegte Kartenposition wird nicht ergänzt.","hasMore":true,"hasExcerpt":true,"sources":[{"bookId":"sr1-london-sourcebook","title":"London Sourcebook","edition":"SR1","citation":"PDF-Seite 131","purpose":"description"}]}}}},{"type":"Feature","geometry":null,"properties":{"id":27,"global_id":"london:source-place:scottish-fringe-toxic-zone","name":"Scottish Fringe Toxic Zone","aliases":[],"category":"Bezirke und Lore-Gebiete","detail_map":"London","source_pages":"PDF-Seite 132","map_source":"London Sourcebook","placement_note":"Keine belastbare Einzelposition; Eintrag bleibt im Katalog","accuracy":"Nur Stadt oder Lore-Teilraum belegt","source_map":"source-supplement","source_panel":"London","description_preview":"Scottish Fringe Toxic Zone ist in London Sourcebook als benannter Schauplatz mit Bezug zu London belegt.","description_full":"Scottish Fringe Toxic Zone ist in London Sourcebook als benannter Schauplatz mit Bezug zu London belegt. Das Dossier fasst den belegten Quellenstand redaktionell zusammen; eine nicht belegte Kartenposition wird nicht ergänzt.","description_source":"PDF-Seite 132","description_kind":"Ortsdossier","description_has_more":true,"detail_plans":[],"alternate_locations":[],"sources":[{"bookId":"sr1-london-sourcebook","title":"London Sourcebook","edition":"SR1","citation":"PDF-Seite 132","purpose":"description"}],"map_sources":[],"editions":["SR1"],"edition_descriptions":{"SR1":{"kind":"Ortsdossier","preview":"Scottish Fringe Toxic Zone ist in London Sourcebook als benannter Schauplatz mit Bezug zu London belegt.","full":"Scottish Fringe Toxic Zone ist in London Sourcebook als benannter Schauplatz mit Bezug zu London belegt. Das Dossier fasst den belegten Quellenstand redaktionell zusammen; eine nicht belegte Kartenposition wird nicht ergänzt.","hasMore":true,"hasExcerpt":true,"sources":[{"bookId":"sr1-london-sourcebook","title":"London Sourcebook","edition":"SR1","citation":"PDF-Seite 132","purpose":"description"}]}}}},{"type":"Feature","geometry":null,"properties":{"id":28,"global_id":"london:source-place:scottish-habitable-zone","name":"Scottish Habitable Zone","aliases":[],"category":"Bezirke und Lore-Gebiete","detail_map":"London","source_pages":"PDF-Seite 133","map_source":"London Sourcebook","placement_note":"Keine belastbare Einzelposition; Eintrag bleibt im Katalog","accuracy":"Nur Stadt oder Lore-Teilraum belegt","source_map":"source-supplement","source_panel":"London","description_preview":"Scottish Habitable Zone ist in London Sourcebook als benannter Schauplatz mit Bezug zu London belegt.","description_full":"Scottish Habitable Zone ist in London Sourcebook als benannter Schauplatz mit Bezug zu London belegt. Das Dossier fasst den belegten Quellenstand redaktionell zusammen; eine nicht belegte Kartenposition wird nicht ergänzt.","description_source":"PDF-Seite 133","description_kind":"Ortsdossier","description_has_more":true,"detail_plans":[],"alternate_locations":[],"sources":[{"bookId":"sr1-london-sourcebook","title":"London Sourcebook","edition":"SR1","citation":"PDF-Seite 133","purpose":"description"}],"map_sources":[],"editions":["SR1"],"edition_descriptions":{"SR1":{"kind":"Ortsdossier","preview":"Scottish Habitable Zone ist in London Sourcebook als benannter Schauplatz mit Bezug zu London belegt.","full":"Scottish Habitable Zone ist in London Sourcebook als benannter Schauplatz mit Bezug zu London belegt. Das Dossier fasst den belegten Quellenstand redaktionell zusammen; eine nicht belegte Kartenposition wird nicht ergänzt.","hasMore":true,"hasExcerpt":true,"sources":[{"bookId":"sr1-london-sourcebook","title":"London Sourcebook","edition":"SR1","citation":"PDF-Seite 133","purpose":"description"}]}}}},{"type":"Feature","geometry":null,"properties":{"id":29,"global_id":"london:source-place:scottish-nuke-zone","name":"Scottish Nuke Zone","aliases":[],"category":"Bezirke und Lore-Gebiete","detail_map":"London","source_pages":"PDF-Seite 132","map_source":"London Sourcebook","placement_note":"Keine belastbare Einzelposition; Eintrag bleibt im Katalog","accuracy":"Nur Stadt oder Lore-Teilraum belegt","source_map":"source-supplement","source_panel":"London","description_preview":"Scottish Nuke Zone ist in London Sourcebook als benannter Schauplatz mit Bezug zu London belegt.","description_full":"Scottish Nuke Zone ist in London Sourcebook als benannter Schauplatz mit Bezug zu London belegt. Das Dossier fasst den belegten Quellenstand redaktionell zusammen; eine nicht belegte Kartenposition wird nicht ergänzt.","description_source":"PDF-Seite 132","description_kind":"Ortsdossier","description_has_more":true,"detail_plans":[],"alternate_locations":[],"sources":[{"bookId":"sr1-london-sourcebook","title":"London Sourcebook","edition":"SR1","citation":"PDF-Seite 132","purpose":"description"}],"map_sources":[],"editions":["SR1"],"edition_descriptions":{"SR1":{"kind":"Ortsdossier","preview":"Scottish Nuke Zone ist in London Sourcebook als benannter Schauplatz mit Bezug zu London belegt.","full":"Scottish Nuke Zone ist in London Sourcebook als benannter Schauplatz mit Bezug zu London belegt. Das Dossier fasst den belegten Quellenstand redaktionell zusammen; eine nicht belegte Kartenposition wird nicht ergänzt.","hasMore":true,"hasExcerpt":true,"sources":[{"bookId":"sr1-london-sourcebook","title":"London Sourcebook","edition":"SR1","citation":"PDF-Seite 132","purpose":"description"}]}}}},{"type":"Feature","geometry":null,"properties":{"id":30,"global_id":"london:source-place:shamanic-church","name":"Shamanic-Church","aliases":[],"category":"Sonstige Spots","detail_map":"London","source_pages":"PDF-Seite 147","map_source":"London Sourcebook","placement_note":"Keine belastbare Einzelposition; Eintrag bleibt im Katalog","accuracy":"Nur Stadt oder Lore-Teilraum belegt","source_map":"source-supplement","source_panel":"London","description_preview":"Shamanic-Church ist in London Sourcebook als benannter Schauplatz mit Bezug zu London belegt.","description_full":"Shamanic-Church ist in London Sourcebook als benannter Schauplatz mit Bezug zu London belegt. Das Dossier fasst den belegten Quellenstand redaktionell zusammen; eine nicht belegte Kartenposition wird nicht ergänzt.","description_source":"PDF-Seite 147","description_kind":"Ortsdossier","description_has_more":true,"detail_plans":[],"alternate_locations":[],"sources":[{"bookId":"sr1-london-sourcebook","title":"London Sourcebook","edition":"SR1","citation":"PDF-Seite 147","purpose":"description"}],"map_sources":[],"editions":["SR1"],"edition_descriptions":{"SR1":{"kind":"Ortsdossier","preview":"Shamanic-Church ist in London Sourcebook als benannter Schauplatz mit Bezug zu London belegt.","full":"Shamanic-Church ist in London Sourcebook als benannter Schauplatz mit Bezug zu London belegt. Das Dossier fasst den belegten Quellenstand redaktionell zusammen; eine nicht belegte Kartenposition wird nicht ergänzt.","hasMore":true,"hasExcerpt":true,"sources":[{"bookId":"sr1-london-sourcebook","title":"London Sourcebook","edition":"SR1","citation":"PDF-Seite 147","purpose":"description"}]}}}},{"type":"Feature","geometry":null,"properties":{"id":31,"global_id":"london:source-place:welsh-habitable-zone","name":"Welsh Habitable Zone","aliases":[],"category":"Bezirke und Lore-Gebiete","detail_map":"London","source_pages":"PDF-Seite 133","map_source":"London Sourcebook","placement_note":"Keine belastbare Einzelposition; Eintrag bleibt im Katalog","accuracy":"Nur Stadt oder Lore-Teilraum belegt","source_map":"source-supplement","source_panel":"London","description_preview":"Welsh Habitable Zone ist in London Sourcebook als benannter Schauplatz mit Bezug zu London belegt.","description_full":"Welsh Habitable Zone ist in London Sourcebook als benannter Schauplatz mit Bezug zu London belegt. Das Dossier fasst den belegten Quellenstand redaktionell zusammen; eine nicht belegte Kartenposition wird nicht ergänzt.","description_source":"PDF-Seite 133","description_kind":"Ortsdossier","description_has_more":true,"detail_plans":[],"alternate_locations":[],"sources":[{"bookId":"sr1-london-sourcebook","title":"London Sourcebook","edition":"SR1","citation":"PDF-Seite 133","purpose":"description"}],"map_sources":[],"editions":["SR1"],"edition_descriptions":{"SR1":{"kind":"Ortsdossier","preview":"Welsh Habitable Zone ist in London Sourcebook als benannter Schauplatz mit Bezug zu London belegt.","full":"Welsh Habitable Zone ist in London Sourcebook als benannter Schauplatz mit Bezug zu London belegt. Das Dossier fasst den belegten Quellenstand redaktionell zusammen; eine nicht belegte Kartenposition wird nicht ergänzt.","hasMore":true,"hasExcerpt":true,"sources":[{"bookId":"sr1-london-sourcebook","title":"London Sourcebook","edition":"SR1","citation":"PDF-Seite 133","purpose":"description"}]}}}},{"type":"Feature","geometry":null,"properties":{"id":32,"global_id":"london:source-place:western-habitable-zone","name":"Western Habitable Zone","aliases":[],"category":"Bezirke und Lore-Gebiete","detail_map":"London","source_pages":"PDF-Seite 132","map_source":"London Sourcebook","placement_note":"Keine belastbare Einzelposition; Eintrag bleibt im Katalog","accuracy":"Nur Stadt oder Lore-Teilraum belegt","source_map":"source-supplement","source_panel":"London","description_preview":"Western Habitable Zone ist in London Sourcebook als benannter Schauplatz mit Bezug zu London belegt.","description_full":"Western Habitable Zone ist in London Sourcebook als benannter Schauplatz mit Bezug zu London belegt. Das Dossier fasst den belegten Quellenstand redaktionell zusammen; eine nicht belegte Kartenposition wird nicht ergänzt.","description_source":"PDF-Seite 132","description_kind":"Ortsdossier","description_has_more":true,"detail_plans":[],"alternate_locations":[],"sources":[{"bookId":"sr1-london-sourcebook","title":"London Sourcebook","edition":"SR1","citation":"PDF-Seite 132","purpose":"description"}],"map_sources":[],"editions":["SR1"],"edition_descriptions":{"SR1":{"kind":"Ortsdossier","preview":"Western Habitable Zone ist in London Sourcebook als benannter Schauplatz mit Bezug zu London belegt.","full":"Western Habitable Zone ist in London Sourcebook als benannter Schauplatz mit Bezug zu London belegt. Das Dossier fasst den belegten Quellenstand redaktionell zusammen; eine nicht belegte Kartenposition wird nicht ergänzt.","hasMore":true,"hasExcerpt":true,"sources":[{"bookId":"sr1-london-sourcebook","title":"London Sourcebook","edition":"SR1","citation":"PDF-Seite 132","purpose":"description"}]}}}},{"type":"Feature","geometry":null,"properties":{"id":33,"global_id":"london:source-place:yorkshire-fringe-zone","name":"Yorkshire Fringe Zone","aliases":[],"category":"Bezirke und Lore-Gebiete","detail_map":"London","source_pages":"PDF-Seite 131","map_source":"London Sourcebook","placement_note":"Keine belastbare Einzelposition; Eintrag bleibt im Katalog","accuracy":"Nur Stadt oder Lore-Teilraum belegt","source_map":"source-supplement","source_panel":"London","description_preview":"Yorkshire Fringe Zone ist in London Sourcebook als benannter Schauplatz mit Bezug zu London belegt.","description_full":"Yorkshire Fringe Zone ist in London Sourcebook als benannter Schauplatz mit Bezug zu London belegt. Das Dossier fasst den belegten Quellenstand redaktionell zusammen; eine nicht belegte Kartenposition wird nicht ergänzt.","description_source":"PDF-Seite 131","description_kind":"Ortsdossier","description_has_more":true,"detail_plans":[],"alternate_locations":[],"sources":[{"bookId":"sr1-london-sourcebook","title":"London Sourcebook","edition":"SR1","citation":"PDF-Seite 131","purpose":"description"}],"map_sources":[],"editions":["SR1"],"edition_descriptions":{"SR1":{"kind":"Ortsdossier","preview":"Yorkshire Fringe Zone ist in London Sourcebook als benannter Schauplatz mit Bezug zu London belegt.","full":"Yorkshire Fringe Zone ist in London Sourcebook als benannter Schauplatz mit Bezug zu London belegt. Das Dossier fasst den belegten Quellenstand redaktionell zusammen; eine nicht belegte Kartenposition wird nicht ergänzt.","hasMore":true,"hasExcerpt":true,"sources":[{"bookId":"sr1-london-sourcebook","title":"London Sourcebook","edition":"SR1","citation":"PDF-Seite 131","purpose":"description"}]}}}}]}
