{"type":"FeatureCollection","name":"Los Angeles Orte","features":[{"type":"Feature","geometry":null,"properties":{"id":9,"global_id":"los-angeles:place:9-amalgamated-studios","name":"Amalgamated Studios","aliases":[],"category":"Konzerne","detail_map":"Hollywood","source_pages":"Amalgamated Studios","map_source":"Corporate Enclaves","placement_note":"Keine belastbare Einzelposition; Eintrag bleibt im Katalog","accuracy":"Nur Stadt oder Lore-Teilraum belegt","source_map":"los-angeles-content","source_panel":"Hollywood","description_preview":"Amalgamated Studios ist ein wichtiger Medien- und Produktionsstandort.","description_full":"Amalgamated Studios ist ein wichtiger Medien- und Produktionsstandort. Die Position ist auf den belegten Stadt- oder Teilraum angenähert; eine hausgenaue Lage und eine weitergehende eigene Fließtextbeschreibung sind aus dem zugeordneten Datenmaterial nicht sicher ableitbar.","description_source":"Amalgamated Studios","description_kind":"Ortsprofil","description_has_more":true,"detail_plans":[],"alternate_locations":[],"sources":[{"bookId":"sr4-corporate-enclaves","title":"Corporate Enclaves","edition":"SR4","citation":"Amalgamated Studios","purpose":"description"}],"map_sources":[],"editions":["SR4"],"edition_descriptions":{"SR4":{"kind":"Ortsprofil","preview":"Amalgamated Studios ist ein wichtiger Medien- und Produktionsstandort.","full":"Amalgamated Studios ist ein wichtiger Medien- und Produktionsstandort. Die Position ist auf den belegten Stadt- oder Teilraum angenähert; eine hausgenaue Lage und eine weitergehende eigene Fließtextbeschreibung sind aus dem zugeordneten Datenmaterial nicht sicher ableitbar.","hasMore":true,"hasExcerpt":true,"sources":[{"bookId":"sr4-corporate-enclaves","title":"Corporate Enclaves","edition":"SR4","citation":"Amalgamated Studios","purpose":"description"}]}}}},{"type":"Feature","geometry":null,"properties":{"id":10,"global_id":"los-angeles:place:10-angelic-entertainment","name":"Angelic Entertainment","aliases":[],"category":"Konzerne","detail_map":"Hollywood","source_pages":"Angelic Entertainment","map_source":"Corporate Enclaves","placement_note":"Keine belastbare Einzelposition; Eintrag bleibt im Katalog","accuracy":"Nur Stadt oder Lore-Teilraum belegt","source_map":"los-angeles-content","source_panel":"Hollywood","description_preview":"Angelic Entertainment gehört zur Unterhaltungsindustrie des Plexes.","description_full":"Angelic Entertainment gehört zur Unterhaltungsindustrie des Plexes. Die Position ist auf den belegten Stadt- oder Teilraum angenähert; eine hausgenaue Lage und eine weitergehende eigene Fließtextbeschreibung sind aus dem zugeordneten Datenmaterial nicht sicher ableitbar.","description_source":"Angelic Entertainment","description_kind":"Ortsprofil","description_has_more":true,"detail_plans":[],"alternate_locations":[],"sources":[{"bookId":"sr4-corporate-enclaves","title":"Corporate Enclaves","edition":"SR4","citation":"Angelic Entertainment","purpose":"description"}],"map_sources":[],"editions":["SR4"],"edition_descriptions":{"SR4":{"kind":"Ortsprofil","preview":"Angelic Entertainment gehört zur Unterhaltungsindustrie des Plexes.","full":"Angelic Entertainment gehört zur Unterhaltungsindustrie des Plexes. Die Position ist auf den belegten Stadt- oder Teilraum angenähert; eine hausgenaue Lage und eine weitergehende eigene Fließtextbeschreibung sind aus dem zugeordneten Datenmaterial nicht sicher ableitbar.","hasMore":true,"hasExcerpt":true,"sources":[{"bookId":"sr4-corporate-enclaves","title":"Corporate Enclaves","edition":"SR4","citation":"Angelic Entertainment","purpose":"description"}]}}}},{"type":"Feature","geometry":{"type":"Point","coordinates":[-118.244,34.052]},"properties":{"id":1,"global_id":"los-angeles:place:1-downtown-los-angeles","name":"Downtown Los Angeles","aliases":[],"category":"Bezirke","detail_map":"Downtown Los Angeles","source_pages":"Kapitel Los Angeles","map_source":"Corporate Enclaves","placement_note":"Geografischer Bezugspunkt des Lore-Distrikts Downtown Los Angeles","accuracy":"Lore-Bezirkszentrum; Grenzpolygon noch nicht georeferenziert","source_map":"los-angeles-content","source_panel":"Downtown Los Angeles","description_preview":"Downtown ist ein zentraler Verwaltungs-, Medien- und Konzernraum.","description_full":"Downtown ist ein zentraler Verwaltungs-, Medien- und Konzernraum. Die Position ist auf den belegten Stadt- oder Teilraum angenähert; eine hausgenaue Lage und eine weitergehende eigene Fließtextbeschreibung sind aus dem zugeordneten Datenmaterial nicht sicher ableitbar.","description_source":"Kapitel Los Angeles","description_kind":"Ortsprofil","description_has_more":true,"detail_plans":[],"alternate_locations":[],"sources":[{"bookId":"sr4-corporate-enclaves","title":"Corporate Enclaves","edition":"SR4","citation":"Kapitel Los Angeles","purpose":"description"}],"map_sources":[],"editions":["SR4"],"edition_descriptions":{"SR4":{"kind":"Ortsprofil","preview":"Downtown ist ein zentraler Verwaltungs-, Medien- und Konzernraum.","full":"Downtown ist ein zentraler Verwaltungs-, Medien- und Konzernraum. Die Position ist auf den belegten Stadt- oder Teilraum angenähert; eine hausgenaue Lage und eine weitergehende eigene Fließtextbeschreibung sind aus dem zugeordneten Datenmaterial nicht sicher ableitbar.","hasMore":true,"hasExcerpt":true,"sources":[{"bookId":"sr4-corporate-enclaves","title":"Corporate Enclaves","edition":"SR4","citation":"Kapitel Los Angeles","purpose":"description"}]}}}},{"type":"Feature","geometry":{"type":"Point","coordinates":[-118.172,34.023]},"properties":{"id":4,"global_id":"los-angeles:place:4-east-los-angeles","name":"East Los Angeles","aliases":[],"category":"Bezirke","detail_map":"East Los Angeles","source_pages":"East Los Angeles","map_source":"Corporate Enclaves","placement_note":"Geografischer Bezugspunkt des Lore-Distrikts East Los Angeles","accuracy":"Lore-Bezirkszentrum; Grenzpolygon noch nicht georeferenziert","source_map":"los-angeles-content","source_panel":"East Los Angeles","description_preview":"East Los Angeles ist ein eigenständiger östlicher Wohn-, Gewerbe- und Straßenraum.","description_full":"East Los Angeles ist ein eigenständiger östlicher Wohn-, Gewerbe- und Straßenraum. Die Position ist auf den belegten Stadt- oder Teilraum angenähert; eine hausgenaue Lage und eine weitergehende eigene Fließtextbeschreibung sind aus dem zugeordneten Datenmaterial nicht sicher ableitbar.","description_source":"East Los Angeles","description_kind":"Ortsprofil","description_has_more":true,"detail_plans":[],"alternate_locations":[],"sources":[{"bookId":"sr4-corporate-enclaves","title":"Corporate Enclaves","edition":"SR4","citation":"East Los Angeles","purpose":"description"}],"map_sources":[],"editions":["SR4"],"edition_descriptions":{"SR4":{"kind":"Ortsprofil","preview":"East Los Angeles ist ein eigenständiger östlicher Wohn-, Gewerbe- und Straßenraum.","full":"East Los Angeles ist ein eigenständiger östlicher Wohn-, Gewerbe- und Straßenraum. Die Position ist auf den belegten Stadt- oder Teilraum angenähert; eine hausgenaue Lage und eine weitergehende eigene Fließtextbeschreibung sind aus dem zugeordneten Datenmaterial nicht sicher ableitbar.","hasMore":true,"hasExcerpt":true,"sources":[{"bookId":"sr4-corporate-enclaves","title":"Corporate Enclaves","edition":"SR4","citation":"East Los Angeles","purpose":"description"}]}}}},{"type":"Feature","geometry":{"type":"Point","coordinates":[-117.086,33.12]},"properties":{"id":6,"global_id":"los-angeles:place:6-escondido","name":"Escondido","aliases":[],"category":"Bezirke","detail_map":"Escondido","source_pages":"Escondido","map_source":"California Free State","placement_note":"Geografischer Bezugspunkt des Lore-Distrikts Escondido","accuracy":"Lore-Bezirkszentrum; Grenzpolygon noch nicht georeferenziert","source_map":"los-angeles-content","source_panel":"Escondido","description_preview":"Escondido ist ein südlicher Rand- und Siedlungsraum im erweiterten Los-Angeles-Quellenstand.","description_full":"Escondido ist ein südlicher Rand- und Siedlungsraum im erweiterten Los-Angeles-Quellenstand. Die Position ist auf den belegten Stadt- oder Teilraum angenähert; eine hausgenaue Lage und eine weitergehende eigene Fließtextbeschreibung sind aus dem zugeordneten Datenmaterial nicht sicher ableitbar.","description_source":"Escondido","description_kind":"Ortsprofil","description_has_more":true,"detail_plans":[],"alternate_locations":[],"sources":[{"bookId":"sr2-california-free-state","title":"California Free State","edition":"SR2","citation":"Escondido","purpose":"description"}],"map_sources":[],"editions":["SR2"],"edition_descriptions":{"SR2":{"kind":"Ortsprofil","preview":"Escondido ist ein südlicher Rand- und Siedlungsraum im erweiterten Los-Angeles-Quellenstand.","full":"Escondido ist ein südlicher Rand- und Siedlungsraum im erweiterten Los-Angeles-Quellenstand. Die Position ist auf den belegten Stadt- oder Teilraum angenähert; eine hausgenaue Lage und eine weitergehende eigene Fließtextbeschreibung sind aus dem zugeordneten Datenmaterial nicht sicher ableitbar.","hasMore":true,"hasExcerpt":true,"sources":[{"bookId":"sr2-california-free-state","title":"California Free State","edition":"SR2","citation":"Escondido","purpose":"description"}]}}}},{"type":"Feature","geometry":{"type":"Point","coordinates":[-118.329,34.092]},"properties":{"id":2,"global_id":"los-angeles:place:2-hollywood","name":"Hollywood","aliases":[],"category":"Bezirke","detail_map":"Hollywood","source_pages":"Kapitel Hollywood","map_source":"Corporate Enclaves","placement_note":"Geografischer Bezugspunkt des Lore-Distrikts Hollywood","accuracy":"Lore-Bezirkszentrum; Grenzpolygon noch nicht georeferenziert","source_map":"los-angeles-content","source_panel":"Hollywood","description_preview":"Hollywood ist Kern der Unterhaltungs- und SimSinn-Industrie.","description_full":"Hollywood ist Kern der Unterhaltungs- und SimSinn-Industrie. Die Position ist auf den belegten Stadt- oder Teilraum angenähert; eine hausgenaue Lage und eine weitergehende eigene Fließtextbeschreibung sind aus dem zugeordneten Datenmaterial nicht sicher ableitbar.","description_source":"Kapitel Hollywood","description_kind":"Ortsprofil","description_has_more":true,"detail_plans":[],"alternate_locations":[],"sources":[{"bookId":"sr4-corporate-enclaves","title":"Corporate Enclaves","edition":"SR4","citation":"Kapitel Hollywood","purpose":"description"}],"map_sources":[],"editions":["SR4"],"edition_descriptions":{"SR4":{"kind":"Ortsprofil","preview":"Hollywood ist Kern der Unterhaltungs- und SimSinn-Industrie.","full":"Hollywood ist Kern der Unterhaltungs- und SimSinn-Industrie. Die Position ist auf den belegten Stadt- oder Teilraum angenähert; eine hausgenaue Lage und eine weitergehende eigene Fließtextbeschreibung sind aus dem zugeordneten Datenmaterial nicht sicher ableitbar.","hasMore":true,"hasExcerpt":true,"sources":[{"bookId":"sr4-corporate-enclaves","title":"Corporate Enclaves","edition":"SR4","citation":"Kapitel Hollywood","purpose":"description"}]}}}},{"type":"Feature","geometry":null,"properties":{"id":11,"global_id":"los-angeles:place:11-link-club-los-angeles","name":"Link Club Los Angeles","aliases":[],"category":"Bars und Clubs","detail_map":"Los Angeles","source_pages":"Link Club","map_source":"Gestohlene Seelen","placement_note":"Keine belastbare Einzelposition; Eintrag bleibt im Katalog","accuracy":"Nur Stadt oder Lore-Teilraum belegt","source_map":"los-angeles-content","source_panel":"Los Angeles","description_preview":"Der Los-Angeles-Ableger gehört zur international vernetzten Link-Club-Kette.","description_full":"Der Los-Angeles-Ableger gehört zur international vernetzten Link-Club-Kette. Die Position ist auf den belegten Stadt- oder Teilraum angenähert; eine hausgenaue Lage und eine weitergehende eigene Fließtextbeschreibung sind aus dem zugeordneten Datenmaterial nicht sicher ableitbar.","description_source":"Link Club","description_kind":"Ortsprofil","description_has_more":true,"detail_plans":[],"alternate_locations":[],"sources":[{"bookId":"sr5-gestohlene-seelen","title":"Gestohlene Seelen","edition":"SR5","citation":"Link Club","purpose":"description"}],"map_sources":[],"editions":["SR5"],"edition_descriptions":{"SR5":{"kind":"Ortsprofil","preview":"Der Los-Angeles-Ableger gehört zur international vernetzten Link-Club-Kette.","full":"Der Los-Angeles-Ableger gehört zur international vernetzten Link-Club-Kette. Die Position ist auf den belegten Stadt- oder Teilraum angenähert; eine hausgenaue Lage und eine weitergehende eigene Fließtextbeschreibung sind aus dem zugeordneten Datenmaterial nicht sicher ableitbar.","hasMore":true,"hasExcerpt":true,"sources":[{"bookId":"sr5-gestohlene-seelen","title":"Gestohlene Seelen","edition":"SR5","citation":"Link Club","purpose":"description"}]}}}},{"type":"Feature","geometry":{"type":"Point","coordinates":[-118.194,33.77]},"properties":{"id":5,"global_id":"los-angeles:place:5-long-beach-and-south-bay","name":"Long Beach and South Bay","aliases":[],"category":"Bezirke","detail_map":"Long Beach and South Bay","source_pages":"Long Beach and South Bay","map_source":"Corporate Enclaves","placement_note":"Geografischer Bezugspunkt des Lore-Distrikts Long Beach and South Bay","accuracy":"Lore-Bezirkszentrum; Grenzpolygon noch nicht georeferenziert","source_map":"los-angeles-content","source_panel":"Long Beach and South Bay","description_preview":"Long Beach und South Bay bilden den südlichen Hafen-, Industrie- und Küstenraum.","description_full":"Long Beach und South Bay bilden den südlichen Hafen-, Industrie- und Küstenraum. Die Position ist auf den belegten Stadt- oder Teilraum angenähert; eine hausgenaue Lage und eine weitergehende eigene Fließtextbeschreibung sind aus dem zugeordneten Datenmaterial nicht sicher ableitbar.","description_source":"Long Beach and South Bay","description_kind":"Ortsprofil","description_has_more":true,"detail_plans":[],"alternate_locations":[],"sources":[{"bookId":"sr4-corporate-enclaves","title":"Corporate Enclaves","edition":"SR4","citation":"Long Beach and South Bay","purpose":"description"}],"map_sources":[],"editions":["SR4"],"edition_descriptions":{"SR4":{"kind":"Ortsprofil","preview":"Long Beach und South Bay bilden den südlichen Hafen-, Industrie- und Küstenraum.","full":"Long Beach und South Bay bilden den südlichen Hafen-, Industrie- und Küstenraum. Die Position ist auf den belegten Stadt- oder Teilraum angenähert; eine hausgenaue Lage und eine weitergehende eigene Fließtextbeschreibung sind aus dem zugeordneten Datenmaterial nicht sicher ableitbar.","hasMore":true,"hasExcerpt":true,"sources":[{"bookId":"sr4-corporate-enclaves","title":"Corporate Enclaves","edition":"SR4","citation":"Long Beach and South Bay","purpose":"description"}]}}}},{"type":"Feature","geometry":{"type":"Point","coordinates":[-117.555,33.368]},"properties":{"id":3,"global_id":"los-angeles:place:3-san-onofre-radiation-zone","name":"San Onofre Radiation Zone","aliases":[],"category":"Bezirke","detail_map":"San Onofre Radiation Zone","source_pages":"Kapitel Los Angeles","map_source":"Corporate Enclaves","placement_note":"Geografischer Bezugspunkt des Lore-Distrikts San Onofre Radiation Zone","accuracy":"Lore-Bezirkszentrum; Grenzpolygon noch nicht georeferenziert","source_map":"los-angeles-content","source_panel":"San Onofre Radiation Zone","description_preview":"San Onofre ist ein verstrahlter Sonder- und Gefahrenraum südlich des Plexes.","description_full":"San Onofre ist ein verstrahlter Sonder- und Gefahrenraum südlich des Plexes. Die Position ist auf den belegten Stadt- oder Teilraum angenähert; eine hausgenaue Lage und eine weitergehende eigene Fließtextbeschreibung sind aus dem zugeordneten Datenmaterial nicht sicher ableitbar.","description_source":"Kapitel Los Angeles","description_kind":"Ortsprofil","description_has_more":true,"detail_plans":[],"alternate_locations":[],"sources":[{"bookId":"sr4-corporate-enclaves","title":"Corporate Enclaves","edition":"SR4","citation":"Kapitel Los Angeles","purpose":"description"}],"map_sources":[],"editions":["SR4"],"edition_descriptions":{"SR4":{"kind":"Ortsprofil","preview":"San Onofre ist ein verstrahlter Sonder- und Gefahrenraum südlich des Plexes.","full":"San Onofre ist ein verstrahlter Sonder- und Gefahrenraum südlich des Plexes. Die Position ist auf den belegten Stadt- oder Teilraum angenähert; eine hausgenaue Lage und eine weitergehende eigene Fließtextbeschreibung sind aus dem zugeordneten Datenmaterial nicht sicher ableitbar.","hasMore":true,"hasExcerpt":true,"sources":[{"bookId":"sr4-corporate-enclaves","title":"Corporate Enclaves","edition":"SR4","citation":"Kapitel Los Angeles","purpose":"description"}]}}}},{"type":"Feature","geometry":null,"properties":{"id":8,"global_id":"los-angeles:place:8-the-millennium-los-angeles","name":"The Millennium Los Angeles","aliases":[],"category":"Hotels","detail_map":"Los Angeles","source_pages":"The Millennium, Los Angeles","map_source":"Schattenläufer (Auflage 1)","placement_note":"Keine belastbare Einzelposition; Eintrag bleibt im Katalog","accuracy":"Nur Stadt oder Lore-Teilraum belegt","source_map":"los-angeles-content","source_panel":"Los Angeles","description_preview":"The Millennium ist ein im Quellenarchiv belegter Los-Angeles-Schauplatz.","description_full":"The Millennium ist ein im Quellenarchiv belegter Los-Angeles-Schauplatz. Die Position ist auf den belegten Stadt- oder Teilraum angenähert; eine hausgenaue Lage und eine weitergehende eigene Fließtextbeschreibung sind aus dem zugeordneten Datenmaterial nicht sicher ableitbar.","description_source":"The Millennium, Los Angeles","description_kind":"Ortsprofil","description_has_more":true,"detail_plans":[],"alternate_locations":[],"sources":[{"bookId":"sr5-schattenlaufer-auflage-1","title":"Schattenläufer (Auflage 1)","edition":"SR5","citation":"The Millennium, Los Angeles","purpose":"description"}],"map_sources":[],"editions":["SR5"],"edition_descriptions":{"SR5":{"kind":"Ortsprofil","preview":"The Millennium ist ein im Quellenarchiv belegter Los-Angeles-Schauplatz.","full":"The Millennium ist ein im Quellenarchiv belegter Los-Angeles-Schauplatz. Die Position ist auf den belegten Stadt- oder Teilraum angenähert; eine hausgenaue Lage und eine weitergehende eigene Fließtextbeschreibung sind aus dem zugeordneten Datenmaterial nicht sicher ableitbar.","hasMore":true,"hasExcerpt":true,"sources":[{"bookId":"sr5-schattenlaufer-auflage-1","title":"Schattenläufer (Auflage 1)","edition":"SR5","citation":"The Millennium, Los Angeles","purpose":"description"}]}}}},{"type":"Feature","geometry":{"type":"Point","coordinates":[-118.4452,34.0689]},"properties":{"id":7,"global_id":"los-angeles:place:7-ucla","name":"UCLA","aliases":[],"category":"Bildung und Kultur","detail_map":"Los Angeles","source_pages":"University of California – Los Angeles","map_source":"Corporate Enclaves","placement_note":"Erhaltener geographischer Bezugspunkt","accuracy":"Geographischer Bezugspunkt","source_map":"los-angeles-content","source_panel":"Los Angeles","description_preview":"Die UCLA ist ein bedeutender Bildungs-, Forschungs- und Konzernkontaktpunkt.","description_full":"Die UCLA ist ein bedeutender Bildungs-, Forschungs- und Konzernkontaktpunkt. Die Position folgt einem erhaltenen heutigen Bezugspunkt.","description_source":"University of California – Los Angeles","description_kind":"Ortsprofil","description_has_more":true,"detail_plans":[],"alternate_locations":[],"sources":[{"bookId":"sr4-corporate-enclaves","title":"Corporate Enclaves","edition":"SR4","citation":"University of California – Los Angeles","purpose":"description"}],"map_sources":[],"editions":["SR4"],"edition_descriptions":{"SR4":{"kind":"Ortsprofil","preview":"Die UCLA ist ein bedeutender Bildungs-, Forschungs- und Konzernkontaktpunkt.","full":"Die UCLA ist ein bedeutender Bildungs-, Forschungs- und Konzernkontaktpunkt. Die Position folgt einem erhaltenen heutigen Bezugspunkt.","hasMore":true,"hasExcerpt":true,"sources":[{"bookId":"sr4-corporate-enclaves","title":"Corporate Enclaves","edition":"SR4","citation":"University of California – Los Angeles","purpose":"description"}]}}}}]}
