{"type":"FeatureCollection","name":"Detroit Orte","features":[{"type":"Feature","geometry":null,"properties":{"id":5,"global_id":"detroit:place:5-ares-macrotechnology-detroit","name":"Ares Macrotechnology Detroit","aliases":[],"category":"Konzerne","detail_map":"Detroit","source_pages":"Kapitel Detroit/Ares","map_source":"Target UCAS","placement_note":"Keine belastbare Einzelposition; Eintrag bleibt im Katalog","accuracy":"Nur Stadt oder Lore-Teilraum belegt","source_map":"detroit-content","source_panel":"Detroit","description_preview":"Detroit ist der historische Hauptmacht- und Industriestandort von Ares Macrotechnology.","description_full":"Detroit ist der historische Hauptmacht- und Industriestandort von Ares Macrotechnology. Die Position ist auf den belegten Stadt- oder Teilraum angenähert; eine hausgenaue Lage und eine weitergehende eigene Fließtextbeschreibung sind aus dem zugeordneten Datenmaterial nicht sicher ableitbar.","description_source":"Kapitel Detroit/Ares","description_kind":"Ortsprofil","description_has_more":true,"detail_plans":[],"alternate_locations":[],"sources":[{"bookId":"sr2-target-ucas","title":"Target UCAS","edition":"SR2","citation":"Kapitel Detroit/Ares","purpose":"description"}],"map_sources":[],"editions":["SR2"],"edition_descriptions":{"SR2":{"kind":"Ortsprofil","preview":"Detroit ist der historische Hauptmacht- und Industriestandort von Ares Macrotechnology.","full":"Detroit ist der historische Hauptmacht- und Industriestandort von Ares Macrotechnology. Die Position ist auf den belegten Stadt- oder Teilraum angenähert; eine hausgenaue Lage und eine weitergehende eigene Fließtextbeschreibung sind aus dem zugeordneten Datenmaterial nicht sicher ableitbar.","hasMore":true,"hasExcerpt":true,"sources":[{"bookId":"sr2-target-ucas","title":"Target UCAS","edition":"SR2","citation":"Kapitel Detroit/Ares","purpose":"description"}]}}}},{"type":"Feature","geometry":{"type":"Point","coordinates":[-82.986,42.34]},"properties":{"id":2,"global_id":"detroit:place:2-belle-isle","name":"Belle Isle","aliases":[],"category":"Bezirke","detail_map":"Belle Isle","source_pages":"Belle Isle","map_source":"Cutting Black","placement_note":"Geografischer Bezugspunkt des Lore-Distrikts Belle Isle","accuracy":"Lore-Bezirkszentrum; Grenzpolygon noch nicht georeferenziert","source_map":"detroit-content","source_panel":"Belle Isle","description_preview":"Belle Isle ist ein Insel- und Parkraum im Detroit River mit eigener strategischer Bedeutung.","description_full":"Belle Isle ist ein Insel- und Parkraum im Detroit River mit eigener strategischer Bedeutung. Die Position ist auf den belegten Stadt- oder Teilraum angenähert; eine hausgenaue Lage und eine weitergehende eigene Fließtextbeschreibung sind aus dem zugeordneten Datenmaterial nicht sicher ableitbar.","description_source":"Belle Isle","description_kind":"Ortsprofil","description_has_more":true,"detail_plans":[],"alternate_locations":[],"sources":[{"bookId":"sr6-cutting-black","title":"Cutting Black","edition":"SR6","citation":"Belle Isle","purpose":"description"}],"map_sources":[],"editions":["SR6"],"edition_descriptions":{"SR6":{"kind":"Ortsprofil","preview":"Belle Isle ist ein Insel- und Parkraum im Detroit River mit eigener strategischer Bedeutung.","full":"Belle Isle ist ein Insel- und Parkraum im Detroit River mit eigener strategischer Bedeutung. Die Position ist auf den belegten Stadt- oder Teilraum angenähert; eine hausgenaue Lage und eine weitergehende eigene Fließtextbeschreibung sind aus dem zugeordneten Datenmaterial nicht sicher ableitbar.","hasMore":true,"hasExcerpt":true,"sources":[{"bookId":"sr6-cutting-black","title":"Cutting Black","edition":"SR6","citation":"Belle Isle","purpose":"description"}]}}}},{"type":"Feature","geometry":{"type":"Point","coordinates":[-83.176,42.322]},"properties":{"id":3,"global_id":"detroit:place:3-dearborn","name":"Dearborn","aliases":[],"category":"Bezirke","detail_map":"Dearborn","source_pages":"Dearborn","map_source":"Cutting Black","placement_note":"Geografischer Bezugspunkt des Lore-Distrikts Dearborn","accuracy":"Lore-Bezirkszentrum; Grenzpolygon noch nicht georeferenziert","source_map":"detroit-content","source_panel":"Dearborn","description_preview":"Dearborn ist ein westlicher Industrie- und Siedlungsschwerpunkt des Detroit-Plexes.","description_full":"Dearborn ist ein westlicher Industrie- und Siedlungsschwerpunkt des Detroit-Plexes. Die Position ist auf den belegten Stadt- oder Teilraum angenähert; eine hausgenaue Lage und eine weitergehende eigene Fließtextbeschreibung sind aus dem zugeordneten Datenmaterial nicht sicher ableitbar.","description_source":"Dearborn","description_kind":"Ortsprofil","description_has_more":true,"detail_plans":[],"alternate_locations":[],"sources":[{"bookId":"sr6-cutting-black","title":"Cutting Black","edition":"SR6","citation":"Dearborn","purpose":"description"}],"map_sources":[],"editions":["SR6"],"edition_descriptions":{"SR6":{"kind":"Ortsprofil","preview":"Dearborn ist ein westlicher Industrie- und Siedlungsschwerpunkt des Detroit-Plexes.","full":"Dearborn ist ein westlicher Industrie- und Siedlungsschwerpunkt des Detroit-Plexes. Die Position ist auf den belegten Stadt- oder Teilraum angenähert; eine hausgenaue Lage und eine weitergehende eigene Fließtextbeschreibung sind aus dem zugeordneten Datenmaterial nicht sicher ableitbar.","hasMore":true,"hasExcerpt":true,"sources":[{"bookId":"sr6-cutting-black","title":"Cutting Black","edition":"SR6","citation":"Dearborn","purpose":"description"}]}}}},{"type":"Feature","geometry":{"type":"Point","coordinates":[-83.046,42.331]},"properties":{"id":1,"global_id":"detroit:place:1-detroit-core","name":"Detroit Core","aliases":[],"category":"Bezirke","detail_map":"Detroit Core","source_pages":"Kapitel Detroit","map_source":"Cutting Black","placement_note":"Geografischer Bezugspunkt des Lore-Distrikts Detroit Core","accuracy":"Lore-Bezirkszentrum; Grenzpolygon noch nicht georeferenziert","source_map":"detroit-content","source_panel":"Detroit Core","description_preview":"Der Stadtkern bündelt Verwaltung, Industrie und die wichtigsten Ares-Einrichtungen.","description_full":"Der Stadtkern bündelt Verwaltung, Industrie und die wichtigsten Ares-Einrichtungen. Die Position ist auf den belegten Stadt- oder Teilraum angenähert; eine hausgenaue Lage und eine weitergehende eigene Fließtextbeschreibung sind aus dem zugeordneten Datenmaterial nicht sicher ableitbar.","description_source":"Kapitel Detroit","description_kind":"Ortsprofil","description_has_more":true,"detail_plans":[],"alternate_locations":[],"sources":[{"bookId":"sr6-cutting-black","title":"Cutting Black","edition":"SR6","citation":"Kapitel Detroit","purpose":"description"}],"map_sources":[],"editions":["SR6"],"edition_descriptions":{"SR6":{"kind":"Ortsprofil","preview":"Der Stadtkern bündelt Verwaltung, Industrie und die wichtigsten Ares-Einrichtungen.","full":"Der Stadtkern bündelt Verwaltung, Industrie und die wichtigsten Ares-Einrichtungen. Die Position ist auf den belegten Stadt- oder Teilraum angenähert; eine hausgenaue Lage und eine weitergehende eigene Fließtextbeschreibung sind aus dem zugeordneten Datenmaterial nicht sicher ableitbar.","hasMore":true,"hasExcerpt":true,"sources":[{"bookId":"sr6-cutting-black","title":"Cutting Black","edition":"SR6","citation":"Kapitel Detroit","purpose":"description"}]}}}},{"type":"Feature","geometry":{"type":"Point","coordinates":[-83.036,42.314]},"properties":{"id":4,"global_id":"detroit:place:4-windsor","name":"Windsor","aliases":[],"category":"Bezirke","detail_map":"Windsor","source_pages":"Windsor","map_source":"Cutting Black","placement_note":"Geografischer Bezugspunkt des Lore-Distrikts Windsor","accuracy":"Lore-Bezirkszentrum; Grenzpolygon noch nicht georeferenziert","source_map":"detroit-content","source_panel":"Windsor","description_preview":"Windsor liegt auf der kanadischen Flussseite und ist eng mit Detroits Verkehrs- und Grenzlage verbunden.","description_full":"Windsor liegt auf der kanadischen Flussseite und ist eng mit Detroits Verkehrs- und Grenzlage verbunden. Die Position ist auf den belegten Stadt- oder Teilraum angenähert; eine hausgenaue Lage und eine weitergehende eigene Fließtextbeschreibung sind aus dem zugeordneten Datenmaterial nicht sicher ableitbar.","description_source":"Windsor","description_kind":"Ortsprofil","description_has_more":true,"detail_plans":[],"alternate_locations":[],"sources":[{"bookId":"sr6-cutting-black","title":"Cutting Black","edition":"SR6","citation":"Windsor","purpose":"description"}],"map_sources":[],"editions":["SR6"],"edition_descriptions":{"SR6":{"kind":"Ortsprofil","preview":"Windsor liegt auf der kanadischen Flussseite und ist eng mit Detroits Verkehrs- und Grenzlage verbunden.","full":"Windsor liegt auf der kanadischen Flussseite und ist eng mit Detroits Verkehrs- und Grenzlage verbunden. Die Position ist auf den belegten Stadt- oder Teilraum angenähert; eine hausgenaue Lage und eine weitergehende eigene Fließtextbeschreibung sind aus dem zugeordneten Datenmaterial nicht sicher ableitbar.","hasMore":true,"hasExcerpt":true,"sources":[{"bookId":"sr6-cutting-black","title":"Cutting Black","edition":"SR6","citation":"Windsor","purpose":"description"}]}}}}]}
