{"type":"FeatureCollection","name":"Detroit – geprüfte zusätzliche Quellenorte","features":[{"type":"Feature","geometry":null,"properties":{"id":6,"global_id":"detroit:source-place:the-rat-n-tat-bar","name":"The Rat-N-Tat Bar","aliases":[],"category":"Bars, Clubs und Gastronomie","detail_map":"Detroit","source_pages":"Textzeile 2766","map_source":"Boardroom Backstabs 2 - Sacrificial Limb","placement_note":"Keine belastbare Einzelposition; Eintrag bleibt im Katalog","accuracy":"Nur Stadt oder Lore-Teilraum belegt","source_map":"source-supplement","source_panel":"Detroit","description_preview":"The Rat-N-Tat Bar ist in Boardroom Backstabs 2 - Sacrificial Limb als benannter Schauplatz mit Bezug zu Detroit belegt.","description_full":"The Rat-N-Tat Bar ist in Boardroom Backstabs 2 - Sacrificial Limb als benannter Schauplatz mit Bezug zu Detroit belegt. Das Dossier fasst den belegten Quellenstand redaktionell zusammen; eine nicht belegte Kartenposition wird nicht ergänzt.","description_source":"Textzeile 2766","description_kind":"Ortsdossier","description_has_more":true,"detail_plans":[],"alternate_locations":[],"sources":[{"bookId":"sr4-boardroom-backstabs-2-sacrificial-limb","title":"Boardroom Backstabs 2 - Sacrificial Limb","edition":"SR4","citation":"Textzeile 2766","purpose":"description"}],"map_sources":[],"editions":["SR4"],"edition_descriptions":{"SR4":{"kind":"Ortsdossier","preview":"The Rat-N-Tat Bar ist in Boardroom Backstabs 2 - Sacrificial Limb als benannter Schauplatz mit Bezug zu Detroit belegt.","full":"The Rat-N-Tat Bar ist in Boardroom Backstabs 2 - Sacrificial Limb als benannter Schauplatz mit Bezug zu Detroit belegt. Das Dossier fasst den belegten Quellenstand redaktionell zusammen; eine nicht belegte Kartenposition wird nicht ergänzt.","hasMore":true,"hasExcerpt":true,"sources":[{"bookId":"sr4-boardroom-backstabs-2-sacrificial-limb","title":"Boardroom Backstabs 2 - Sacrificial Limb","edition":"SR4","citation":"Textzeile 2766","purpose":"description"}]}}}}]}
