{"type":"FeatureCollection","name":"Nuevo Santiago Orte","features":[{"type":"Feature","geometry":{"type":"Point","coordinates":[-70.6693,-33.4489]},"properties":{"id":1,"global_id":"santiago:place:1-nuevo-santiago-lore-raum","name":"Nuevo Santiago Lore-Raum","aliases":[],"category":"Bezirke","detail_map":"Nuevo Santiago Lore-Raum","source_pages":"Stadt- oder Regionalkapitel","map_source":"Shadows of Latin America v1.2","placement_note":"Geografischer Bezugspunkt des Lore-Distrikts Nuevo Santiago Lore-Raum","accuracy":"Lore-Bezirkszentrum; Grenzpolygon noch nicht georeferenziert","source_map":"santiago-content","source_panel":"Nuevo Santiago Lore-Raum","description_preview":"Nuevo Santiago ist Chiles politischer und wirtschaftlicher Kernsprawl, geprägt von Umweltbelastung und regionalen Machtkämpfen.","description_full":"Nuevo Santiago ist Chiles politischer und wirtschaftlicher Kernsprawl, geprägt von Umweltbelastung und regionalen Machtkämpfen. Die Position ist auf den belegten Stadt- oder Teilraum angenähert; eine hausgenaue Lage und eine weitergehende eigene Fließtextbeschreibung sind aus dem zugeordneten Datenmaterial nicht sicher ableitbar.","description_source":"Stadt- oder Regionalkapitel","description_kind":"Ortsprofil","description_has_more":true,"detail_plans":[],"alternate_locations":[],"sources":[{"bookId":"sr3-shadows-of-latin-america-v1-2","title":"Shadows of Latin America v1.2","edition":"SR3","citation":"Stadt- oder Regionalkapitel","purpose":"description"}],"map_sources":[],"editions":["SR3"],"edition_descriptions":{"SR3":{"kind":"Ortsprofil","preview":"Nuevo Santiago ist Chiles politischer und wirtschaftlicher Kernsprawl, geprägt von Umweltbelastung und regionalen Machtkämpfen.","full":"Nuevo Santiago ist Chiles politischer und wirtschaftlicher Kernsprawl, geprägt von Umweltbelastung und regionalen Machtkämpfen. Die Position ist auf den belegten Stadt- oder Teilraum angenähert; eine hausgenaue Lage und eine weitergehende eigene Fließtextbeschreibung sind aus dem zugeordneten Datenmaterial nicht sicher ableitbar.","hasMore":true,"hasExcerpt":true,"sources":[{"bookId":"sr3-shadows-of-latin-america-v1-2","title":"Shadows of Latin America v1.2","edition":"SR3","citation":"Stadt- oder Regionalkapitel","purpose":"description"}]}}}}]}
