{"type":"FeatureCollection","name":"Wien Orte","features":[{"type":"Feature","geometry":null,"properties":{"id":3,"global_id":"wien:place:3-brimstone-memorial-battery","name":"Brimstone Memorial Battery","aliases":[],"category":"Sichtseeing und Monumente","detail_map":"Wiener Umland","source_pages":"Brimstone","map_source":"Euro War Antiques","placement_note":"Keine belastbare Einzelposition; Eintrag bleibt im Katalog","accuracy":"Nur Stadt oder Lore-Teilraum belegt","source_map":"wien-content","source_panel":"Wiener Umland","description_preview":"Eine frühere Flugkörperbatterie nahe Wien wurde nach Ende ihrer Einsatzzeit Teil eines Gedenkparks.","description_full":"Eine frühere Flugkörperbatterie nahe Wien wurde nach Ende ihrer Einsatzzeit Teil eines Gedenkparks. Die Position ist auf den belegten Stadt- oder Teilraum angenähert; eine hausgenaue Lage und eine weitergehende eigene Fließtextbeschreibung sind aus dem zugeordneten Datenmaterial nicht sicher ableitbar.","description_source":"Brimstone","description_kind":"Ortsprofil","description_has_more":true,"detail_plans":[],"alternate_locations":[],"sources":[{"bookId":"sr4-euro-war-antiques","title":"Euro War Antiques","edition":"SR4","citation":"Brimstone","purpose":"description"}],"map_sources":[],"editions":["SR4"],"edition_descriptions":{"SR4":{"kind":"Ortsprofil","preview":"Eine frühere Flugkörperbatterie nahe Wien wurde nach Ende ihrer Einsatzzeit Teil eines Gedenkparks.","full":"Eine frühere Flugkörperbatterie nahe Wien wurde nach Ende ihrer Einsatzzeit Teil eines Gedenkparks. Die Position ist auf den belegten Stadt- oder Teilraum angenähert; eine hausgenaue Lage und eine weitergehende eigene Fließtextbeschreibung sind aus dem zugeordneten Datenmaterial nicht sicher ableitbar.","hasMore":true,"hasExcerpt":true,"sources":[{"bookId":"sr4-euro-war-antiques","title":"Euro War Antiques","edition":"SR4","citation":"Brimstone","purpose":"description"}]}}}},{"type":"Feature","geometry":null,"properties":{"id":2,"global_id":"wien:place:2-dr-singer-schule","name":"Dr.-Singer-Schule","aliases":[],"category":"Bildung und Kultur","detail_map":"Wien","source_pages":"Dr.-Singer-Schule","map_source":"Datapuls Österreich","placement_note":"Keine belastbare Einzelposition; Eintrag bleibt im Katalog","accuracy":"Nur Stadt oder Lore-Teilraum belegt","source_map":"wien-content","source_panel":"Wien","description_preview":"Die Dr.-Singer-Schule ist eine im österreichischen Quellenstand belegte Institution.","description_full":"Die Dr.-Singer-Schule ist eine im österreichischen Quellenstand belegte Institution. Die Position ist auf den belegten Stadt- oder Teilraum angenähert; eine hausgenaue Lage und eine weitergehende eigene Fließtextbeschreibung sind aus dem zugeordneten Datenmaterial nicht sicher ableitbar.","description_source":"Dr.-Singer-Schule","description_kind":"Ortsprofil","description_has_more":true,"detail_plans":[],"alternate_locations":[],"sources":[{"bookId":"sr5-datapuls-osterreich","title":"Datapuls Österreich","edition":"SR5","citation":"Dr.-Singer-Schule","purpose":"description"}],"map_sources":[],"editions":["SR5"],"edition_descriptions":{"SR5":{"kind":"Ortsprofil","preview":"Die Dr.-Singer-Schule ist eine im österreichischen Quellenstand belegte Institution.","full":"Die Dr.-Singer-Schule ist eine im österreichischen Quellenstand belegte Institution. Die Position ist auf den belegten Stadt- oder Teilraum angenähert; eine hausgenaue Lage und eine weitergehende eigene Fließtextbeschreibung sind aus dem zugeordneten Datenmaterial nicht sicher ableitbar.","hasMore":true,"hasExcerpt":true,"sources":[{"bookId":"sr5-datapuls-osterreich","title":"Datapuls Österreich","edition":"SR5","citation":"Dr.-Singer-Schule","purpose":"description"}]}}}},{"type":"Feature","geometry":{"type":"Point","coordinates":[16.374,48.208]},"properties":{"id":1,"global_id":"wien:place:1-wiener-sprawl","name":"Wiener Sprawl","aliases":[],"category":"Bezirke","detail_map":"Wiener Sprawl","source_pages":"Der Wiener Sprawl","map_source":"Datapuls Österreich","placement_note":"Geografischer Bezugspunkt des Lore-Distrikts Wiener Sprawl","accuracy":"Lore-Bezirkszentrum; Grenzpolygon noch nicht georeferenziert","source_map":"wien-content","source_panel":"Wiener Sprawl","description_preview":"Der Wiener Sprawl verbindet historische Kernstadt, dichte Außenbezirke und stark unterschiedliche Sicherheitsräume.","description_full":"Der Wiener Sprawl verbindet historische Kernstadt, dichte Außenbezirke und stark unterschiedliche Sicherheitsräume. Die Position ist auf den belegten Stadt- oder Teilraum angenähert; eine hausgenaue Lage und eine weitergehende eigene Fließtextbeschreibung sind aus dem zugeordneten Datenmaterial nicht sicher ableitbar.","description_source":"Der Wiener Sprawl","description_kind":"Ortsprofil","description_has_more":true,"detail_plans":[],"alternate_locations":[],"sources":[{"bookId":"sr5-datapuls-osterreich","title":"Datapuls Österreich","edition":"SR5","citation":"Der Wiener Sprawl","purpose":"description"}],"map_sources":[],"editions":["SR5"],"edition_descriptions":{"SR5":{"kind":"Ortsprofil","preview":"Der Wiener Sprawl verbindet historische Kernstadt, dichte Außenbezirke und stark unterschiedliche Sicherheitsräume.","full":"Der Wiener Sprawl verbindet historische Kernstadt, dichte Außenbezirke und stark unterschiedliche Sicherheitsräume. Die Position ist auf den belegten Stadt- oder Teilraum angenähert; eine hausgenaue Lage und eine weitergehende eigene Fließtextbeschreibung sind aus dem zugeordneten Datenmaterial nicht sicher ableitbar.","hasMore":true,"hasExcerpt":true,"sources":[{"bookId":"sr5-datapuls-osterreich","title":"Datapuls Österreich","edition":"SR5","citation":"Der Wiener Sprawl","purpose":"description"}]}}}}]}
