{"type":"FeatureCollection","name":"Leipzig-Halle Orte","features":[{"type":"Feature","geometry":null,"properties":{"id":4,"global_id":"leipzig-halle:place:4-aggravex-center","name":"Aggravex Center","aliases":[],"category":"Konzerne","detail_map":"Leipzig-Halle","source_pages":"Aggravex Center","map_source":"Auf dunklen Pfaden","placement_note":"Keine belastbare Einzelposition; Eintrag bleibt im Katalog","accuracy":"Nur Stadt oder Lore-Teilraum belegt","source_map":"leipzig-halle-content","source_panel":"Leipzig-Halle","description_preview":"Das Aggravex Center ist ein im Quellenmaterial benannter Schauplatz.","description_full":"Das Aggravex Center ist ein im Quellenmaterial benannter Schauplatz. Die Position ist auf den belegten Stadt- oder Teilraum angenähert; eine hausgenaue Lage und eine weitergehende eigene Fließtextbeschreibung sind aus dem zugeordneten Datenmaterial nicht sicher ableitbar.","description_source":"Aggravex Center","description_kind":"Ortsprofil","description_has_more":true,"detail_plans":[],"alternate_locations":[],"sources":[{"bookId":"sr5-auf-dunklen-pfaden","title":"Auf dunklen Pfaden","edition":"SR5","citation":"Aggravex Center","purpose":"description"}],"map_sources":[],"editions":["SR5"],"edition_descriptions":{"SR5":{"kind":"Ortsprofil","preview":"Das Aggravex Center ist ein im Quellenmaterial benannter Schauplatz.","full":"Das Aggravex Center ist ein im Quellenmaterial benannter Schauplatz. Die Position ist auf den belegten Stadt- oder Teilraum angenähert; eine hausgenaue Lage und eine weitergehende eigene Fließtextbeschreibung sind aus dem zugeordneten Datenmaterial nicht sicher ableitbar.","hasMore":true,"hasExcerpt":true,"sources":[{"bookId":"sr5-auf-dunklen-pfaden","title":"Auf dunklen Pfaden","edition":"SR5","citation":"Aggravex Center","purpose":"description"}]}}}},{"type":"Feature","geometry":null,"properties":{"id":5,"global_id":"leipzig-halle:place:5-airobic","name":"AIRobic","aliases":[],"category":"Freizeit und Natur","detail_map":"Leipzig-Halle","source_pages":"AIRobic","map_source":"Auf dunklen Pfaden","placement_note":"Keine belastbare Einzelposition; Eintrag bleibt im Katalog","accuracy":"Nur Stadt oder Lore-Teilraum belegt","source_map":"leipzig-halle-content","source_panel":"Leipzig-Halle","description_preview":"AIRobic ist ein lokaler Treff- oder Veranstaltungsort.","description_full":"AIRobic ist ein lokaler Treff- oder Veranstaltungsort. Die Position ist auf den belegten Stadt- oder Teilraum angenähert; eine hausgenaue Lage und eine weitergehende eigene Fließtextbeschreibung sind aus dem zugeordneten Datenmaterial nicht sicher ableitbar.","description_source":"AIRobic","description_kind":"Ortsprofil","description_has_more":true,"detail_plans":[],"alternate_locations":[],"sources":[{"bookId":"sr5-auf-dunklen-pfaden","title":"Auf dunklen Pfaden","edition":"SR5","citation":"AIRobic","purpose":"description"}],"map_sources":[],"editions":["SR5"],"edition_descriptions":{"SR5":{"kind":"Ortsprofil","preview":"AIRobic ist ein lokaler Treff- oder Veranstaltungsort.","full":"AIRobic ist ein lokaler Treff- oder Veranstaltungsort. Die Position ist auf den belegten Stadt- oder Teilraum angenähert; eine hausgenaue Lage und eine weitergehende eigene Fließtextbeschreibung sind aus dem zugeordneten Datenmaterial nicht sicher ableitbar.","hasMore":true,"hasExcerpt":true,"sources":[{"bookId":"sr5-auf-dunklen-pfaden","title":"Auf dunklen Pfaden","edition":"SR5","citation":"AIRobic","purpose":"description"}]}}}},{"type":"Feature","geometry":null,"properties":{"id":6,"global_id":"leipzig-halle:place:6-club-fight","name":"Club Fight","aliases":[],"category":"Bars und Clubs","detail_map":"Leipzig-Halle","source_pages":"Club Fight","map_source":"Auf dunklen Pfaden","placement_note":"Keine belastbare Einzelposition; Eintrag bleibt im Katalog","accuracy":"Nur Stadt oder Lore-Teilraum belegt","source_map":"leipzig-halle-content","source_panel":"Leipzig-Halle","description_preview":"Club Fight ist ein Schauplatz der lokalen Musik- und Clubszene.","description_full":"Club Fight ist ein Schauplatz der lokalen Musik- und Clubszene. Die Position ist auf den belegten Stadt- oder Teilraum angenähert; eine hausgenaue Lage und eine weitergehende eigene Fließtextbeschreibung sind aus dem zugeordneten Datenmaterial nicht sicher ableitbar.","description_source":"Club Fight","description_kind":"Ortsprofil","description_has_more":true,"detail_plans":[],"alternate_locations":[],"sources":[{"bookId":"sr5-auf-dunklen-pfaden","title":"Auf dunklen Pfaden","edition":"SR5","citation":"Club Fight","purpose":"description"}],"map_sources":[],"editions":["SR5"],"edition_descriptions":{"SR5":{"kind":"Ortsprofil","preview":"Club Fight ist ein Schauplatz der lokalen Musik- und Clubszene.","full":"Club Fight ist ein Schauplatz der lokalen Musik- und Clubszene. Die Position ist auf den belegten Stadt- oder Teilraum angenähert; eine hausgenaue Lage und eine weitergehende eigene Fließtextbeschreibung sind aus dem zugeordneten Datenmaterial nicht sicher ableitbar.","hasMore":true,"hasExcerpt":true,"sources":[{"bookId":"sr5-auf-dunklen-pfaden","title":"Auf dunklen Pfaden","edition":"SR5","citation":"Club Fight","purpose":"description"}]}}}},{"type":"Feature","geometry":{"type":"Point","coordinates":[11.9688,51.4969]},"properties":{"id":2,"global_id":"leipzig-halle:place:2-halle","name":"Halle","aliases":[],"category":"Bezirke","detail_map":"Halle","source_pages":"Kapitel Halle","map_source":"Deutschland in den Schatten II","placement_note":"Geografischer Bezugspunkt des Lore-Distrikts Halle","accuracy":"Lore-Bezirkszentrum; Grenzpolygon noch nicht georeferenziert","source_map":"leipzig-halle-content","source_panel":"Halle","description_preview":"Halle ist der westliche Industrie-, Chemie- und Siedlungsschwerpunkt.","description_full":"Halle ist der westliche Industrie-, Chemie- und Siedlungsschwerpunkt. Die Position ist auf den belegten Stadt- oder Teilraum angenähert; eine hausgenaue Lage und eine weitergehende eigene Fließtextbeschreibung sind aus dem zugeordneten Datenmaterial nicht sicher ableitbar.","description_source":"Kapitel Halle","description_kind":"Ortsprofil","description_has_more":true,"detail_plans":[],"alternate_locations":[],"sources":[{"bookId":"sr3-deutschland-in-den-schatten-ii","title":"Deutschland in den Schatten II","edition":"SR3","citation":"Kapitel Halle","purpose":"description"}],"map_sources":[],"editions":["SR3"],"edition_descriptions":{"SR3":{"kind":"Ortsprofil","preview":"Halle ist der westliche Industrie-, Chemie- und Siedlungsschwerpunkt.","full":"Halle ist der westliche Industrie-, Chemie- und Siedlungsschwerpunkt. Die Position ist auf den belegten Stadt- oder Teilraum angenähert; eine hausgenaue Lage und eine weitergehende eigene Fließtextbeschreibung sind aus dem zugeordneten Datenmaterial nicht sicher ableitbar.","hasMore":true,"hasExcerpt":true,"sources":[{"bookId":"sr3-deutschland-in-den-schatten-ii","title":"Deutschland in den Schatten II","edition":"SR3","citation":"Kapitel Halle","purpose":"description"}]}}}},{"type":"Feature","geometry":null,"properties":{"id":7,"global_id":"leipzig-halle:place:7-jogoya","name":"Jogoya","aliases":[],"category":"Sonstige Spots","detail_map":"Leipzig-Halle","source_pages":"Jogoya","map_source":"Auf dunklen Pfaden","placement_note":"Keine belastbare Einzelposition; Eintrag bleibt im Katalog","accuracy":"Nur Stadt oder Lore-Teilraum belegt","source_map":"leipzig-halle-content","source_panel":"Leipzig-Halle","description_preview":"Jogoya ist ein im Stadtumfeld belegter Ort.","description_full":"Jogoya ist ein im Stadtumfeld belegter Ort. Die Position ist auf den belegten Stadt- oder Teilraum angenähert; eine hausgenaue Lage und eine weitergehende eigene Fließtextbeschreibung sind aus dem zugeordneten Datenmaterial nicht sicher ableitbar.","description_source":"Jogoya","description_kind":"Ortsprofil","description_has_more":true,"detail_plans":[],"alternate_locations":[],"sources":[{"bookId":"sr5-auf-dunklen-pfaden","title":"Auf dunklen Pfaden","edition":"SR5","citation":"Jogoya","purpose":"description"}],"map_sources":[],"editions":["SR5"],"edition_descriptions":{"SR5":{"kind":"Ortsprofil","preview":"Jogoya ist ein im Stadtumfeld belegter Ort.","full":"Jogoya ist ein im Stadtumfeld belegter Ort. Die Position ist auf den belegten Stadt- oder Teilraum angenähert; eine hausgenaue Lage und eine weitergehende eigene Fließtextbeschreibung sind aus dem zugeordneten Datenmaterial nicht sicher ableitbar.","hasMore":true,"hasExcerpt":true,"sources":[{"bookId":"sr5-auf-dunklen-pfaden","title":"Auf dunklen Pfaden","edition":"SR5","citation":"Jogoya","purpose":"description"}]}}}},{"type":"Feature","geometry":{"type":"Point","coordinates":[12.3731,51.3397]},"properties":{"id":1,"global_id":"leipzig-halle:place:1-leipzig","name":"Leipzig","aliases":[],"category":"Bezirke","detail_map":"Leipzig","source_pages":"Kapitel Leipzig","map_source":"Deutschland in den Schatten II","placement_note":"Geografischer Bezugspunkt des Lore-Distrikts Leipzig","accuracy":"Lore-Bezirkszentrum; Grenzpolygon noch nicht georeferenziert","source_map":"leipzig-halle-content","source_panel":"Leipzig","description_preview":"Leipzig bildet den östlichen Kultur-, Handels- und Dienstleistungskern.","description_full":"Leipzig bildet den östlichen Kultur-, Handels- und Dienstleistungskern. Die Position ist auf den belegten Stadt- oder Teilraum angenähert; eine hausgenaue Lage und eine weitergehende eigene Fließtextbeschreibung sind aus dem zugeordneten Datenmaterial nicht sicher ableitbar.","description_source":"Kapitel Leipzig","description_kind":"Ortsprofil","description_has_more":true,"detail_plans":[],"alternate_locations":[],"sources":[{"bookId":"sr3-deutschland-in-den-schatten-ii","title":"Deutschland in den Schatten II","edition":"SR3","citation":"Kapitel Leipzig","purpose":"description"}],"map_sources":[],"editions":["SR3"],"edition_descriptions":{"SR3":{"kind":"Ortsprofil","preview":"Leipzig bildet den östlichen Kultur-, Handels- und Dienstleistungskern.","full":"Leipzig bildet den östlichen Kultur-, Handels- und Dienstleistungskern. Die Position ist auf den belegten Stadt- oder Teilraum angenähert; eine hausgenaue Lage und eine weitergehende eigene Fließtextbeschreibung sind aus dem zugeordneten Datenmaterial nicht sicher ableitbar.","hasMore":true,"hasExcerpt":true,"sources":[{"bookId":"sr3-deutschland-in-den-schatten-ii","title":"Deutschland in den Schatten II","edition":"SR3","citation":"Kapitel Leipzig","purpose":"description"}]}}}},{"type":"Feature","geometry":{"type":"Point","coordinates":[12.18,51.43]},"properties":{"id":3,"global_id":"leipzig-halle:place:3-leipzig-halle-industrieband","name":"Leipzig-Halle Industrieband","aliases":[],"category":"Bezirke","detail_map":"Leipzig-Halle Industrieband","source_pages":"Kapitel Leipzig-Halle","map_source":"Reiseführer in die deutschen Schatten","placement_note":"Geografischer Bezugspunkt des Lore-Distrikts Leipzig-Halle Industrieband","accuracy":"Lore-Bezirkszentrum; Grenzpolygon noch nicht georeferenziert","source_map":"leipzig-halle-content","source_panel":"Leipzig-Halle Industrieband","description_preview":"Das Industrie- und Logistikband verbindet die beiden alten Städte.","description_full":"Das Industrie- und Logistikband verbindet die beiden alten Städte. Die Position ist auf den belegten Stadt- oder Teilraum angenähert; eine hausgenaue Lage und eine weitergehende eigene Fließtextbeschreibung sind aus dem zugeordneten Datenmaterial nicht sicher ableitbar.","description_source":"Kapitel Leipzig-Halle","description_kind":"Ortsprofil","description_has_more":true,"detail_plans":[],"alternate_locations":[],"sources":[{"bookId":"sr4-reisefuhrer-in-die-deutschen-schatten","title":"Reiseführer in die deutschen Schatten","edition":"SR4","citation":"Kapitel Leipzig-Halle","purpose":"description"}],"map_sources":[],"editions":["SR4"],"edition_descriptions":{"SR4":{"kind":"Ortsprofil","preview":"Das Industrie- und Logistikband verbindet die beiden alten Städte.","full":"Das Industrie- und Logistikband verbindet die beiden alten Städte. Die Position ist auf den belegten Stadt- oder Teilraum angenähert; eine hausgenaue Lage und eine weitergehende eigene Fließtextbeschreibung sind aus dem zugeordneten Datenmaterial nicht sicher ableitbar.","hasMore":true,"hasExcerpt":true,"sources":[{"bookId":"sr4-reisefuhrer-in-die-deutschen-schatten","title":"Reiseführer in die deutschen Schatten","edition":"SR4","citation":"Kapitel Leipzig-Halle","purpose":"description"}]}}}},{"type":"Feature","geometry":null,"properties":{"id":10,"global_id":"leipzig-halle:place:10-magische-bibliotheken-leipzig-halle","name":"Magische Bibliotheken Leipzig-Halle","aliases":[],"category":"Bildung und Kultur","detail_map":"Leipzig-Halle","source_pages":"Magische Bibliotheken","map_source":"Reiseführer in die deutschen Schatten","placement_note":"Keine belastbare Einzelposition; Eintrag bleibt im Katalog","accuracy":"Nur Stadt oder Lore-Teilraum belegt","source_map":"leipzig-halle-content","source_panel":"Leipzig-Halle","description_preview":"Die Hochschulen des Plexes verfügen über zugängliche magische Bibliotheksbestände.","description_full":"Die Hochschulen des Plexes verfügen über zugängliche magische Bibliotheksbestände. Die Position ist auf den belegten Stadt- oder Teilraum angenähert; eine hausgenaue Lage und eine weitergehende eigene Fließtextbeschreibung sind aus dem zugeordneten Datenmaterial nicht sicher ableitbar.","description_source":"Magische Bibliotheken","description_kind":"Ortsprofil","description_has_more":true,"detail_plans":[],"alternate_locations":[],"sources":[{"bookId":"sr4-reisefuhrer-in-die-deutschen-schatten","title":"Reiseführer in die deutschen Schatten","edition":"SR4","citation":"Magische Bibliotheken","purpose":"description"}],"map_sources":[],"editions":["SR4"],"edition_descriptions":{"SR4":{"kind":"Ortsprofil","preview":"Die Hochschulen des Plexes verfügen über zugängliche magische Bibliotheksbestände.","full":"Die Hochschulen des Plexes verfügen über zugängliche magische Bibliotheksbestände. Die Position ist auf den belegten Stadt- oder Teilraum angenähert; eine hausgenaue Lage und eine weitergehende eigene Fließtextbeschreibung sind aus dem zugeordneten Datenmaterial nicht sicher ableitbar.","hasMore":true,"hasExcerpt":true,"sources":[{"bookId":"sr4-reisefuhrer-in-die-deutschen-schatten","title":"Reiseführer in die deutschen Schatten","edition":"SR4","citation":"Magische Bibliotheken","purpose":"description"}]}}}},{"type":"Feature","geometry":null,"properties":{"id":8,"global_id":"leipzig-halle:place:8-the-factory","name":"The Factory","aliases":[],"category":"Industrie","detail_map":"Leipzig-Halle","source_pages":"The Factory","map_source":"Auf dunklen Pfaden","placement_note":"Keine belastbare Einzelposition; Eintrag bleibt im Katalog","accuracy":"Nur Stadt oder Lore-Teilraum belegt","source_map":"leipzig-halle-content","source_panel":"Leipzig-Halle","description_preview":"The Factory ist ein Industrie- und Missionsschauplatz.","description_full":"The Factory ist ein Industrie- und Missionsschauplatz. Die Position ist auf den belegten Stadt- oder Teilraum angenähert; eine hausgenaue Lage und eine weitergehende eigene Fließtextbeschreibung sind aus dem zugeordneten Datenmaterial nicht sicher ableitbar.","description_source":"The Factory","description_kind":"Ortsprofil","description_has_more":true,"detail_plans":[],"alternate_locations":[],"sources":[{"bookId":"sr5-auf-dunklen-pfaden","title":"Auf dunklen Pfaden","edition":"SR5","citation":"The Factory","purpose":"description"}],"map_sources":[],"editions":["SR5"],"edition_descriptions":{"SR5":{"kind":"Ortsprofil","preview":"The Factory ist ein Industrie- und Missionsschauplatz.","full":"The Factory ist ein Industrie- und Missionsschauplatz. Die Position ist auf den belegten Stadt- oder Teilraum angenähert; eine hausgenaue Lage und eine weitergehende eigene Fließtextbeschreibung sind aus dem zugeordneten Datenmaterial nicht sicher ableitbar.","hasMore":true,"hasExcerpt":true,"sources":[{"bookId":"sr5-auf-dunklen-pfaden","title":"Auf dunklen Pfaden","edition":"SR5","citation":"The Factory","purpose":"description"}]}}}},{"type":"Feature","geometry":null,"properties":{"id":9,"global_id":"leipzig-halle:place:9-the-filthy-dragon","name":"The Filthy Dragon","aliases":[],"category":"Bars und Kneipen","detail_map":"Leipzig-Halle","source_pages":"The Filthy Dragon","map_source":"Auf dunklen Pfaden","placement_note":"Keine belastbare Einzelposition; Eintrag bleibt im Katalog","accuracy":"Nur Stadt oder Lore-Teilraum belegt","source_map":"leipzig-halle-content","source_panel":"Leipzig-Halle","description_preview":"The Filthy Dragon ist ein lokaler Szenetreff.","description_full":"The Filthy Dragon ist ein lokaler Szenetreff. Die Position ist auf den belegten Stadt- oder Teilraum angenähert; eine hausgenaue Lage und eine weitergehende eigene Fließtextbeschreibung sind aus dem zugeordneten Datenmaterial nicht sicher ableitbar.","description_source":"The Filthy Dragon","description_kind":"Ortsprofil","description_has_more":true,"detail_plans":[],"alternate_locations":[],"sources":[{"bookId":"sr5-auf-dunklen-pfaden","title":"Auf dunklen Pfaden","edition":"SR5","citation":"The Filthy Dragon","purpose":"description"}],"map_sources":[],"editions":["SR5"],"edition_descriptions":{"SR5":{"kind":"Ortsprofil","preview":"The Filthy Dragon ist ein lokaler Szenetreff.","full":"The Filthy Dragon ist ein lokaler Szenetreff. Die Position ist auf den belegten Stadt- oder Teilraum angenähert; eine hausgenaue Lage und eine weitergehende eigene Fließtextbeschreibung sind aus dem zugeordneten Datenmaterial nicht sicher ableitbar.","hasMore":true,"hasExcerpt":true,"sources":[{"bookId":"sr5-auf-dunklen-pfaden","title":"Auf dunklen Pfaden","edition":"SR5","citation":"The Filthy Dragon","purpose":"description"}]}}}}]}
