{"type":"FeatureCollection","name":"Lima Orte","features":[{"type":"Feature","geometry":{"type":"Point","coordinates":[-77.0428,-12.0464]},"properties":{"id":1,"global_id":"lima:place:1-lima-lore-raum","name":"Lima Lore-Raum","aliases":[],"category":"Bezirke","detail_map":"Lima Lore-Raum","source_pages":"Stadt- oder Regionalkapitel","map_source":"Shadows of Latin America v1.2","placement_note":"Geografischer Bezugspunkt des Lore-Distrikts Lima Lore-Raum","accuracy":"Lore-Bezirkszentrum; Grenzpolygon noch nicht georeferenziert","source_map":"lima-content","source_panel":"Lima Lore-Raum","description_preview":"Lima ist Perus Küsten-, Regierungs- und Konzernzentrum mit starken sozialen und politischen Gegensätzen.","description_full":"Lima ist Perus Küsten-, Regierungs- und Konzernzentrum mit starken sozialen und politischen Gegensätzen. Die Position ist auf den belegten Stadt- oder Teilraum angenähert; eine hausgenaue Lage und eine weitergehende eigene Fließtextbeschreibung sind aus dem zugeordneten Datenmaterial nicht sicher ableitbar.","description_source":"Stadt- oder Regionalkapitel","description_kind":"Ortsprofil","description_has_more":true,"detail_plans":[],"alternate_locations":[],"sources":[{"bookId":"sr3-shadows-of-latin-america-v1-2","title":"Shadows of Latin America v1.2","edition":"SR3","citation":"Stadt- oder Regionalkapitel","purpose":"description"}],"map_sources":[],"editions":["SR3"],"edition_descriptions":{"SR3":{"kind":"Ortsprofil","preview":"Lima ist Perus Küsten-, Regierungs- und Konzernzentrum mit starken sozialen und politischen Gegensätzen.","full":"Lima ist Perus Küsten-, Regierungs- und Konzernzentrum mit starken sozialen und politischen Gegensätzen. Die Position ist auf den belegten Stadt- oder Teilraum angenähert; eine hausgenaue Lage und eine weitergehende eigene Fließtextbeschreibung sind aus dem zugeordneten Datenmaterial nicht sicher ableitbar.","hasMore":true,"hasExcerpt":true,"sources":[{"bookId":"sr3-shadows-of-latin-america-v1-2","title":"Shadows of Latin America v1.2","edition":"SR3","citation":"Stadt- oder Regionalkapitel","purpose":"description"}]}}}},{"type":"Feature","geometry":null,"properties":{"id":2,"global_id":"lima:place:2-the-bar-lima","name":"The Bar Lima","aliases":[],"category":"Bars und Kneipen","detail_map":"Lima","source_pages":"Die Bar (Lima, Peru)","map_source":"Lifestyle 2080","placement_note":"Keine belastbare Einzelposition; Eintrag bleibt im Katalog","accuracy":"Nur Stadt oder Lore-Teilraum belegt","source_map":"lima-content","source_panel":"Lima","description_preview":"The Bar ist ein ausdrücklich benannter lokaler Szenetreff.","description_full":"The Bar ist ein ausdrücklich benannter lokaler Szenetreff. Die Position ist auf den belegten Stadt- oder Teilraum angenähert; eine hausgenaue Lage und eine weitergehende eigene Fließtextbeschreibung sind aus dem zugeordneten Datenmaterial nicht sicher ableitbar.","description_source":"Die Bar (Lima, Peru)","description_kind":"Ortsprofil","description_has_more":true,"detail_plans":[],"alternate_locations":[],"sources":[{"bookId":"sr5-lifestyle-2080","title":"Lifestyle 2080","edition":"SR5","citation":"Die Bar (Lima, Peru)","purpose":"description"}],"map_sources":[],"editions":["SR5"],"edition_descriptions":{"SR5":{"kind":"Ortsprofil","preview":"The Bar ist ein ausdrücklich benannter lokaler Szenetreff.","full":"The Bar ist ein ausdrücklich benannter lokaler Szenetreff. Die Position ist auf den belegten Stadt- oder Teilraum angenähert; eine hausgenaue Lage und eine weitergehende eigene Fließtextbeschreibung sind aus dem zugeordneten Datenmaterial nicht sicher ableitbar.","hasMore":true,"hasExcerpt":true,"sources":[{"bookId":"sr5-lifestyle-2080","title":"Lifestyle 2080","edition":"SR5","citation":"Die Bar (Lima, Peru)","purpose":"description"}]}}}}]}
