{"type":"FeatureCollection","name":"MDC Manhattan","features":[{"type":"Feature","geometry":{"type":"MultiPolygon","coordinates":[[[[-74.025672,40.684236],[-74.026441,40.684952],[-74.02657,40.685905],[-74.020205,40.692034],[-74.019733,40.693114],[-74.016748,40.693343],[-74.015404,40.693066],[-74.015389,40.693298],[-74.015175,40.693257],[-74.015309,40.693047],[-74.015124,40.693258],[-74.014931,40.693156],[-74.015156,40.693016],[-74.014221,40.692823],[-74.013436,40.692115],[-74.012503,40.692304],[-74.012297,40.692568],[-74.011812,40.692479],[-74.011903,40.692091],[-74.012461,40.692213],[-74.013333,40.69202],[-74.012609,40.691364],[-74.012034,40.691503],[-74.012598,40.691334],[-74.012528,40.691146],[-74.011826,40.691065],[-74.012195,40.691029],[-74.01221,40.690792],[-74.011972,40.690771],[-74.011981,40.690606],[-74.012231,40.690461],[-74.012307,40.68928],[-74.013169,40.688155],[-74.014881,40.687255],[-74.016047,40.687338],[-74.01705,40.686876],[-74.016647,40.686416],[-74.015144,40.686437],[-74.016674,40.686305],[-74.01753,40.685363],[-74.016781,40.686349],[-74.017121,40.686843],[-74.020544,40.685272],[-74.020207,40.684834],[-74.019398,40.685087],[-74.020953,40.684384],[-74.020278,40.684809],[-74.020613,40.68524],[-74.022594,40.68436],[-74.022133,40.683768],[-74.023056,40.682917],[-74.023195,40.683],[-74.022368,40.68378],[-74.022759,40.684284],[-74.024215,40.683944],[-74.025672,40.684236]]],[[[-74.046803,40.689953],[-74.047477,40.689611],[-74.04773,40.689915],[-74.047431,40.689804],[-74.046892,40.690059],[-74.0472,40.690425],[-74.04717,40.690991],[-74.046147,40.691123],[-74.043878,40.690188],[-74.043506,40.689687],[-74.042704,40.690155],[-74.042554,40.689963],[-74.043468,40.689637],[-74.043641,40.688767],[-74.044385,40.688516],[-74.046275,40.689327],[-74.046803,40.689953]]],[[[-74.040801,40.700269],[-74.040313,40.700626],[-74.040536,40.700782],[-74.040288,40.700644],[-74.03995,40.700891],[-74.037711,40.699344],[-74.038098,40.69904],[-74.03823,40.698369],[-74.039,40.69837],[-74.03934,40.698116],[-74.041243,40.699537],[-74.041748,40.699148],[-74.039912,40.697702],[-74.041661,40.696453],[-74.043674,40.69802],[-74.042704,40.698801],[-74.042965,40.698999],[-74.041099,40.700493],[-74.040801,40.700269]]],[[[-74.001407,40.706179],[-74.000583,40.705434],[-74.001437,40.704872],[-74.002061,40.705417],[-74.00257,40.705524],[-74.002685,40.705449],[-74.00197,40.704731],[-74.002431,40.704678],[-74.003323,40.705629],[-74.003632,40.70543],[-74.002972,40.704766],[-74.003644,40.705422],[-74.004383,40.705113],[-74.004267,40.705012],[-74.00459,40.704788],[-74.003496,40.703797],[-74.00372,40.703654],[-74.004806,40.704642],[-74.005188,40.704421],[-74.004926,40.704212],[-74.005212,40.704406],[-74.00535,40.70431],[-74.004157,40.703232],[-74.004273,40.703016],[-74.005663,40.704104],[-74.006596,40.703686],[-74.005304,40.70256],[-74.005494,40.702431],[-74.005535,40.702646],[-74.005675,40.702584],[-74.006785,40.703568],[-74.009309,40.701955],[-74.0087,40.70114],[-74.007755,40.701548],[-74.007591,40.701328],[-74.008536,40.70092],[-74.008349,40.700669],[-74.00862,40.700552],[-74.009601,40.701865],[-74.011167,40.701477],[-74.011096,40.701275],[-74.01129,40.70125],[-74.010815,40.7002],[-74.01115,40.700898],[-74.011358,40.700852],[-74.011334,40.700568],[-74.011503,40.700815],[-74.011729,40.70077],[-74.011631,40.700458],[-74.011854,40.700739],[-74.012087,40.700681],[-74.011962,40.700038],[-74.012392,40.700621],[-74.012594,40.700571],[-74.012614,40.700108],[-74.012909,40.700524],[-74.013107,40.700507],[-74.013113,40.699774],[-74.013273,40.700497],[-74.013486,40.700478],[-74.013533,40.700108],[-74.013675,40.700126],[-74.013558,40.70094],[-74.015127,40.70139],[-74.014008,40.701043],[-74.014221,40.700111],[-74.014152,40.700578],[-74.014289,40.700644],[-74.014671,40.70021],[-74.014324,40.700661],[-74.014643,40.700817],[-74.015098,40.700334],[-74.014674,40.700835],[-74.015021,40.700993],[-74.015142,40.700843],[-74.017145,40.702705],[-74.017648,40.703495],[-74.01757,40.704184],[-74.017795,40.704235],[-74.017818,40.703938],[-74.017955,40.703976],[-74.017844,40.704242],[-74.018448,40.704162],[-74.018668,40.704435],[-74.017481,40.704667],[-74.018113,40.704554],[-74.018887,40.704729],[-74.019343,40.706094],[-74.019123,40.706976],[-74.018631,40.70714],[-74.018849,40.70697],[-74.018535,40.706918],[-74.01819,40.707822],[-74.018855,40.708048],[-74.01777,40.712835],[-74.0178,40.712345],[-74.016625,40.712157],[-74.016618,40.712756],[-74.01632,40.713408],[-74.017544,40.713611],[-74.017725,40.71307],[-74.016694,40.718649],[-74.013213,40.718316],[-74.013036,40.719086],[-74.012914,40.719708],[-74.013447,40.719782],[-74.013399,40.720032],[-74.01639,40.720379],[-74.016315,40.720739],[-74.012966,40.720329],[-74.012869,40.720834],[-74.015695,40.72122],[-74.015626,40.721551],[-74.013138,40.721251],[-74.01308,40.721546],[-74.012539,40.721503],[-74.011653,40.725872],[-74.015204,40.726362],[-74.015124,40.726794],[-74.011542,40.726447],[-74.011383,40.728229],[-74.010799,40.728196],[-74.014391,40.728463],[-74.014038,40.730694],[-74.011162,40.730451],[-74.010941,40.73302],[-74.014002,40.733068],[-74.014,40.733332],[-74.010903,40.733298],[-74.010833,40.734007],[-74.012018,40.734064],[-74.012001,40.734338],[-74.010814,40.734283],[-74.010477,40.738064],[-74.011087,40.738093],[-74.011139,40.73839],[-74.010454,40.738365],[-74.010393,40.739174],[-74.01158,40.739265],[-74.011527,40.739874],[-74.011613,40.739708],[-74.012369,40.739752],[-74.01231,40.740195],[-74.011577,40.74016],[-74.011515,40.739973],[-74.011461,40.740584],[-74.012659,40.740748],[-74.009631,40.740645],[-74.009411,40.741154],[-74.012162,40.741492],[-74.012117,40.741759],[-74.009519,40.74149],[-74.009092,40.742886],[-74.00962,40.742951],[-74.009568,40.743258],[-74.012137,40.743532],[-74.012021,40.74394],[-74.009512,40.743676],[-74.009438,40.743971],[-74.0089,40.743918],[-74.00873,40.744882],[-74.009612,40.744998],[-74.009558,40.745289],[-74.009917,40.745327],[-74.009998,40.744955],[-74.009872,40.744917],[-74.010168,40.744942],[-74.009974,40.745323],[-74.010469,40.745387],[-74.01055,40.745013],[-74.010419,40.744977],[-74.010764,40.745005],[-74.010586,40.74502],[-74.010545,40.745392],[-74.011104,40.745448],[-74.011172,40.745078],[-74.011045,40.745046],[-74.011388,40.745073],[-74.01123,40.745076],[-74.011154,40.745446],[-74.01174,40.74552],[-74.011671,40.745114],[-74.011836,40.745126],[-74.011679,40.745979],[-74.009464,40.74575],[-74.009366,40.746337],[-74.011528,40.746575],[-74.011525,40.746973],[-74.009243,40.746763],[-74.009137,40.74736],[-74.011407,40.747631],[-74.011304,40.748015],[-74.009058,40.747786],[-74.008946,40.748412],[-74.011216,40.748678],[-74.011109,40.74905],[-74.009948,40.748932],[-74.00956,40.749935],[-74.010757,40.750411],[-74.009253,40.749985],[-74.009119,40.750332],[-74.010674,40.751072],[-74.010591,40.751323],[-74.009001,40.750648],[-74.008533,40.751884],[-74.010217,40.752548],[-74.010125,40.752669],[-74.008479,40.752019],[-74.008426,40.752158],[-74.009971,40.752934],[-74.008792,40.752352],[-74.008688,40.752494],[-74.008354,40.752351],[-74.00762,40.754281],[-74.007745,40.754337],[-74.007472,40.754477],[-74.007272,40.754986],[-74.007145,40.754932],[-74.005419,40.757323],[-74.005212,40.757232],[-74.004804,40.75781],[-74.005279,40.758029],[-74.005031,40.758357],[-74.00701,40.759204],[-74.006476,40.759894],[-74.004505,40.759085],[-74.004206,40.759502],[-74.003907,40.759376],[-74.003807,40.759511],[-74.004247,40.759699],[-74.004149,40.759836],[-74.004319,40.759911],[-74.003669,40.759706],[-74.003573,40.759847],[-74.003929,40.760003],[-74.003133,40.761078],[-74.002787,40.760929],[-74.002335,40.761544],[-74.004556,40.762524],[-74.0044,40.762671],[-74.002201,40.761728],[-74.001533,40.762645],[-74.003757,40.763582],[-74.003612,40.763777],[-74.001386,40.76285],[-74.000973,40.76342],[-74.00315,40.764333],[-74.002948,40.764617],[-74.003156,40.764731],[-73.999927,40.763407],[-73.999151,40.764205],[-73.999314,40.764272],[-73.99952,40.763974],[-74.002457,40.765214],[-74.002057,40.765877],[-73.998885,40.764569],[-73.998576,40.764999],[-73.998689,40.765209],[-73.998282,40.765568],[-74.001573,40.766977],[-74.001315,40.767251],[-73.998067,40.765872],[-73.997378,40.766823],[-74.00065,40.768245],[-74.000386,40.768504],[-73.997156,40.767129],[-73.996457,40.768099],[-73.999736,40.769506],[-73.999473,40.769764],[-73.997072,40.768733],[-73.99715,40.768847],[-73.996571,40.769425],[-73.999027,40.770463],[-73.998762,40.770825],[-73.996313,40.769799],[-73.99588,40.770401],[-73.996017,40.770455],[-73.995425,40.771032],[-73.996002,40.771307],[-73.9959,40.77145],[-73.995306,40.771196],[-73.994935,40.771468],[-73.994977,40.771659],[-73.997112,40.772553],[-73.996909,40.772833],[-73.994774,40.77193],[-73.994445,40.772377],[-73.996449,40.773057],[-73.996143,40.773248],[-73.996677,40.77351],[-73.99393206702887,40.77233829323971],[-73.994159,40.772493],[-73.993831,40.772932],[-73.994137,40.772902],[-73.994377,40.77304],[-73.994294,40.773156],[-73.995023,40.773481],[-73.99505,40.773297],[-73.996241,40.77379],[-73.996095,40.774086],[-73.993936,40.77318],[-73.992623,40.774974],[-73.992267,40.775116],[-73.992059,40.775498],[-73.992386,40.775557],[-73.990927,40.777567],[-73.990396,40.777585],[-73.988869,40.779693],[-73.991551,40.779575],[-73.99142,40.779755],[-73.988886,40.779879],[-73.988919,40.780226],[-73.988076,40.781651],[-73.985466,40.785361],[-73.986173,40.786068],[-73.987119,40.78521],[-73.986128,40.786239],[-73.985429,40.785414],[-73.985081,40.785922],[-73.985766,40.786196],[-73.985683,40.78631],[-73.985017,40.786014],[-73.984655,40.786535],[-73.98595,40.786487],[-73.984619,40.786586],[-73.971037,40.805918],[-73.968463,40.809319],[-73.964325,40.815513],[-73.959999,40.820383],[-73.959815,40.820298],[-73.959131,40.821169],[-73.959426,40.821252],[-73.959147,40.821571],[-73.959033,40.821514],[-73.959235,40.821278],[-73.95909,40.821206],[-73.958819,40.821519],[-73.958942,40.821569],[-73.958745,40.821806],[-73.959,40.82241],[-73.95923,40.822287],[-73.95991,40.822571],[-73.959603,40.822995],[-73.958926,40.822712],[-73.95905,40.822541],[-73.958527,40.821844],[-73.957939,40.822774],[-73.959556,40.823694],[-73.957259,40.827117],[-73.956949,40.827001],[-73.956318,40.827944],[-73.955039,40.827413],[-73.954697,40.827918],[-73.954542,40.827861],[-73.951316,40.832451],[-73.95022,40.834305],[-73.949546,40.836604],[-73.949283,40.836741],[-73.94954,40.83688],[-73.948561,40.839565],[-73.947383,40.841941],[-73.946124,40.843892],[-73.946172,40.845393],[-73.946517,40.845995],[-73.946351,40.84624],[-73.946824,40.847134],[-73.946636,40.848912],[-73.946998,40.850398],[-73.946502,40.850976],[-73.946275,40.850841],[-73.946117,40.851173],[-73.945653,40.851211],[-73.944667,40.851921],[-73.944325,40.851823],[-73.94348,40.852282],[-73.94187,40.853868],[-73.940293,40.856642],[-73.934017,40.865036],[-73.932663,40.867237],[-73.932902,40.867293],[-73.93284,40.867415],[-73.932598,40.867311],[-73.932425,40.867568],[-73.932268,40.868562],[-73.932492,40.868678],[-73.932651,40.868465],[-73.932524,40.868722],[-73.93225,40.86864],[-73.932314,40.868924],[-73.932568,40.869044],[-73.932189,40.869367],[-73.932469,40.869476],[-73.932354,40.869755],[-73.932359,40.869507],[-73.932133,40.869416],[-73.932206,40.870096],[-73.931914,40.871129],[-73.929013,40.875739],[-73.926482,40.877618],[-73.926297,40.877565],[-73.926458,40.877258],[-73.926193,40.877064],[-73.92457,40.877429],[-73.923295,40.877264],[-73.922398,40.87678],[-73.922614,40.874407],[-73.922177,40.873675],[-73.921255,40.873082],[-73.920556,40.872999],[-73.919793,40.873607],[-73.920627,40.874235],[-73.920803,40.874194],[-73.9207,40.874392],[-73.921182,40.875138],[-73.920876,40.875464],[-73.918862,40.874643],[-73.919193,40.874195],[-73.919295,40.87365],[-73.9185,40.873192],[-73.918612,40.873473],[-73.917929,40.873979],[-73.917577,40.874549],[-73.917871,40.873905],[-73.916448,40.874495],[-73.915685,40.874528],[-73.912502,40.873728],[-73.911175,40.872985],[-73.910649,40.872296],[-73.910426,40.871485],[-73.910925,40.869437],[-73.911474,40.869455],[-73.911076,40.869043],[-73.911848,40.867673],[-73.913919,40.864746],[-73.914924,40.86458],[-73.914411,40.864174],[-73.915086,40.864448],[-73.915899,40.864308],[-73.915871,40.864129],[-73.915196,40.863945],[-73.915176,40.86368],[-73.915477,40.863346],[-73.915387,40.863084],[-73.917295,40.861679],[-73.919502,40.858791],[-73.920479,40.859104],[-73.921271,40.860188],[-73.92159,40.860073],[-73.921866,40.859181],[-73.921256,40.858847],[-73.920938,40.858121],[-73.920624,40.858017],[-73.920351,40.858195],[-73.920565,40.857883],[-73.920773,40.857941],[-73.920706,40.857701],[-73.921014,40.857839],[-73.920755,40.857557],[-73.92152,40.857349],[-73.921559,40.857089],[-73.922377,40.856584],[-73.922345,40.855682],[-73.921698,40.856672],[-73.921519,40.856601],[-73.924441,40.85284],[-73.929719,40.845232],[-73.930895,40.842538],[-73.934915,40.835231],[-73.935157,40.832682],[-73.934568,40.828149],[-73.933972,40.81973],[-73.93383,40.81972],[-73.933829,40.815585],[-73.934015,40.814484],[-73.933857,40.814481],[-73.933865,40.814153],[-73.934339,40.809562],[-73.934121,40.808656],[-73.933561,40.807601],[-73.930309,40.803786],[-73.929208,40.801148],[-73.929035,40.801081],[-73.928902,40.799855],[-73.929036,40.796763],[-73.929279,40.795853],[-73.929833,40.794949],[-73.933485,40.792774],[-73.935831,40.791095],[-73.937081,40.789366],[-73.936141,40.788949],[-73.936219,40.7888],[-73.93715,40.789168],[-73.938116,40.787185],[-73.939826,40.785257],[-73.94324,40.783328],[-73.943592,40.782748],[-73.943871,40.781273],[-73.943214,40.779318],[-73.943004,40.779639],[-73.942716,40.779544],[-73.942536,40.779091],[-73.942893,40.778614],[-73.942438,40.777315],[-73.942074,40.776918],[-73.942003,40.776185],[-73.94293,40.774676],[-73.948664,40.768858],[-73.95007,40.767025],[-73.954418,40.762184],[-73.958788,40.758213],[-73.960656,40.755923],[-73.962231,40.754522],[-73.967919,40.747961],[-73.968943,40.746518],[-73.970788,40.744406],[-73.970941,40.744471],[-73.971125,40.74419],[-73.970703,40.74399],[-73.971173,40.744108],[-73.971358,40.743838],[-73.971085,40.743664],[-73.971889,40.742725],[-73.971741,40.742664],[-73.97196,40.742338],[-73.97229,40.740721],[-73.972217,40.740308],[-73.972657,40.739223],[-73.97249,40.735803],[-73.972869,40.735771],[-73.974414,40.736414],[-73.97446,40.736294],[-73.974027,40.736126],[-73.974466,40.736278],[-73.974504,40.736065],[-73.974141,40.735956],[-73.974505,40.736042],[-73.974508,40.735797],[-73.974245,40.735781],[-73.974465,40.735668],[-73.973057,40.735177],[-73.972807,40.735524],[-73.97293,40.735608],[-73.972763,40.735505],[-73.972945,40.735065],[-73.973299,40.735242],[-73.973296,40.735041],[-73.973545,40.734944],[-73.974437,40.735316],[-73.973959,40.733421],[-73.973676,40.733206],[-73.973872,40.733095],[-73.973413,40.731282],[-73.971963,40.73],[-73.97148,40.72925],[-73.971629,40.726761],[-73.973576,40.718589],[-73.974893,40.715152],[-73.976712,40.711536],[-73.977997,40.710561],[-73.981277,40.710217],[-73.981237,40.709823],[-73.98839,40.709127],[-73.988737,40.709971],[-73.997283,40.708732],[-74.001187,40.70686],[-74.000983,40.706417],[-74.001407,40.706179]],[[-73.982955,40.747744],[-73.979711,40.746385],[-73.971682,40.743041],[-73.982955,40.747744]],[[-73.983381,40.741375],[-73.985232,40.738833],[-73.979711,40.746385],[-73.983381,40.741375]],[[-73.971629,40.726761],[-73.991725,40.735245],[-73.99596443426958,40.73701118780306],[-73.971629,40.726761]],[[-73.987933,40.749853],[-73.993464,40.75219],[-74.004927,40.757023],[-73.987933,40.749853]],[[-73.993464,40.75219],[-73.984726,40.764167],[-73.98327494024956,40.76619340211842],[-73.993464,40.75219]],[[-73.994211,40.741013],[-73.991356,40.744763],[-73.987973,40.749467],[-73.994211,40.741013]],[[-73.99673768188758,40.725472739837535],[-73.992854,40.730083],[-73.99146,40.731738],[-73.99673768188758,40.725472739837535]],[[-73.99793419252977,40.71272701307218],[-73.992623,40.713168],[-73.99012,40.713382],[-73.99793419252977,40.71272701307218]],[[-74.008302,40.723977],[-74.01106,40.725744],[-74.00355768247972,40.72055191214996],[-74.008302,40.723977]],[[-74.00535924083442,40.7121507031296],[-74.00534662603374,40.71214577013333],[-74.005358,40.712151],[-74.00535924083442,40.7121507031296]],[[-74.0033373137702,40.711236436218705],[-74.00333682918397,40.71123606225841],[-74.002363,40.711591],[-74.0033373137702,40.711236436218705]],[[-74.0136532005111,40.71364454217601],[-74.008614,40.711372],[-74.0136532005111,40.71364454217602],[-74.0136532005111,40.71364454217601]],[[-74.002856,40.728347],[-73.997635,40.725786],[-73.99717748508958,40.725626278276806],[-74.002856,40.728347]],[[-73.982268,40.768299],[-73.982385,40.768097],[-73.98214313176086,40.76830042097569],[-73.982268,40.768299]],[[-73.981439,40.768763],[-73.981565,40.768307],[-73.98144840562337,40.76815163448126],[-73.981439,40.768763]],[[-73.97334622777183,40.764424432392936],[-73.98125838738368,40.76789842945343],[-73.98115,40.767754],[-73.97334622777183,40.764424432392936]],[[-73.97301271140701,40.76428213386701],[-73.95463361233124,40.789453303574824],[-73.97301271167689,40.76428213398216],[-73.97301271140701,40.76428213386701]]],[[[-73.94028,40.770671],[-73.941118,40.769414],[-73.942855,40.768303],[-73.949432,40.760549],[-73.951915,40.758225],[-73.952903,40.756739],[-73.957915,40.75211],[-73.95904,40.751392],[-73.961174,40.749498],[-73.961583,40.749414],[-73.961111,40.7506],[-73.960011,40.751832],[-73.959016,40.753595],[-73.958458,40.753949],[-73.953391,40.759797],[-73.953125,40.760053],[-73.952978,40.759962],[-73.952086,40.760862],[-73.950937,40.76257],[-73.949972,40.763646],[-73.949086,40.764264],[-73.945704,40.768328],[-73.945481,40.768625],[-73.945563,40.768802],[-73.945245,40.768773],[-73.9449,40.769484],[-73.942127,40.772035],[-73.940887,40.772373],[-73.940275,40.772947],[-73.940012,40.772842],[-73.940282,40.772301],[-73.94028,40.770671]]],[[[-73.913784,40.793836],[-73.915141,40.792012],[-73.916306,40.791117],[-73.916171,40.791014],[-73.916865,40.790362],[-73.917106,40.790469],[-73.918563,40.789695],[-73.918509,40.789425],[-73.922188,40.785509],[-73.922852,40.783556],[-73.924481,40.78232],[-73.925718,40.782177],[-73.927324,40.781091],[-73.928101,40.78092],[-73.931054,40.782397],[-73.935023,40.783006],[-73.935813,40.78371],[-73.936071,40.784217],[-73.935713,40.78568],[-73.932407,40.789719],[-73.932243,40.789693],[-73.930842,40.790991],[-73.929724,40.791366],[-73.928073,40.790823],[-73.926104,40.790732],[-73.92616,40.791716],[-73.926569,40.791859],[-73.925588,40.791822],[-73.926739,40.791929],[-73.926368,40.791662],[-73.926488,40.791022],[-73.927869,40.790955],[-73.927136,40.791929],[-73.927801,40.791997],[-73.928267,40.792329],[-73.928323,40.793102],[-73.927353,40.794462],[-73.926936,40.795497],[-73.92689,40.796252],[-73.927118,40.797204],[-73.927185,40.79735],[-73.927707,40.797299],[-73.927203,40.797387],[-73.927476,40.798123],[-73.926696,40.800147],[-73.927248,40.800393],[-73.927115,40.800564],[-73.927169,40.800406],[-73.926666,40.800183],[-73.926554,40.800315],[-73.926743,40.800403],[-73.926538,40.800334],[-73.926685,40.800455],[-73.926552,40.800605],[-73.926869,40.800784],[-73.927046,40.800652],[-73.926886,40.800841],[-73.92651,40.800657],[-73.925776,40.801731],[-73.925275,40.801999],[-73.922634,40.801869],[-73.921911,40.801503],[-73.920315,40.799375],[-73.91663,40.797858],[-73.915455,40.797063],[-73.913804,40.794512],[-73.913784,40.793836]]],[[[-73.911489,40.879019],[-73.910332,40.879038],[-73.909498,40.878777],[-73.907037,40.876895],[-73.906651,40.875753],[-73.907743,40.872846],[-73.908464,40.872621],[-73.908932,40.872157],[-73.909748,40.873218],[-73.910921,40.874146],[-73.915786,40.875717],[-73.914874,40.876642],[-73.912058,40.878119],[-73.911489,40.879019]]]]},"properties":{"name":"Manhattan Development Consortium","basis":"Gesamter kartierter Manhattan-Komplex als MDC-Jurisdiktion","boundary_role":"lore-city","lore_source":"The Rotten Apple: Manhattan, S. 8-12 und 20-23 (SR4)","source":"Code for Germany / Click That Hood","source_url":"https://github.com/codeforgermany/click_that_hood","boundary_review_status":"confirmed","boundary_review_label":"MDC-Gesamtjurisdiktion laut Quellenband bestätigt"}}]}
