{"type":"FeatureCollection","name":"Manhattan – geprüfte zusätzliche Quellenorte","features":[{"type":"Feature","geometry":null,"properties":{"id":172,"global_id":"manhattan:source-place:columbia-university-cheli","name":"Columbia University Cheli","aliases":[],"category":"Sonstige Spots","detail_map":"Manhattan","source_pages":"Textzeile 5862","map_source":"Flüsternetze","placement_note":"Keine belastbare Einzelposition; Eintrag bleibt im Katalog","accuracy":"Nur Stadt oder Lore-Teilraum belegt","source_map":"source-supplement","source_panel":"Manhattan","description_preview":"Columbia University Cheli ist in Flüsternetze als benannter Schauplatz mit Bezug zu Manhattan belegt.","description_full":"Columbia University Cheli ist in Flüsternetze als benannter Schauplatz mit Bezug zu Manhattan belegt. Das Dossier fasst den belegten Quellenstand redaktionell zusammen; eine nicht belegte Kartenposition wird nicht ergänzt.","description_source":"Textzeile 5862","description_kind":"Ortsdossier","description_has_more":true,"detail_plans":[],"alternate_locations":[],"sources":[{"bookId":"sr6-flusternetze","title":"Flüsternetze","edition":"SR6","citation":"Textzeile 5862","purpose":"description"},{"bookId":"sr6-flusternetze-46144p","title":"Flüsternetze [46144P]","edition":"SR6","citation":"Textzeile 5862","purpose":"description"}],"map_sources":[],"editions":["SR6"],"edition_descriptions":{"SR6":{"kind":"Ortsdossier","preview":"Columbia University Cheli ist in Flüsternetze als benannter Schauplatz mit Bezug zu Manhattan belegt.","full":"Columbia University Cheli ist in Flüsternetze als benannter Schauplatz mit Bezug zu Manhattan belegt. Das Dossier fasst den belegten Quellenstand redaktionell zusammen; eine nicht belegte Kartenposition wird nicht ergänzt.","hasMore":true,"hasExcerpt":true,"sources":[{"bookId":"sr6-flusternetze","title":"Flüsternetze","edition":"SR6","citation":"Textzeile 5862","purpose":"description"},{"bookId":"sr6-flusternetze-46144p","title":"Flüsternetze [46144P]","edition":"SR6","citation":"Textzeile 5862","purpose":"description"}]}}}},{"type":"Feature","geometry":null,"properties":{"id":173,"global_id":"manhattan:source-place:der-prometheus-turm","name":"Der Prometheus-Turm","aliases":[],"category":"Konzerne und markante Bauwerke","detail_map":"Manhattan","source_pages":"Textzeile 13165","map_source":"Gestohlene Seelen","placement_note":"Keine belastbare Einzelposition; Eintrag bleibt im Katalog","accuracy":"Nur Stadt oder Lore-Teilraum belegt","source_map":"source-supplement","source_panel":"Manhattan","description_preview":"Der Prometheus-Turm ist in Gestohlene Seelen als benannter Schauplatz mit Bezug zu Manhattan belegt.","description_full":"Der Prometheus-Turm ist in Gestohlene Seelen als benannter Schauplatz mit Bezug zu Manhattan belegt. Das Dossier fasst den belegten Quellenstand redaktionell zusammen; eine nicht belegte Kartenposition wird nicht ergänzt.","description_source":"Textzeile 13165","description_kind":"Ortsdossier","description_has_more":true,"detail_plans":[],"alternate_locations":[],"sources":[{"bookId":"sr5-gestohlene-seelen","title":"Gestohlene Seelen","edition":"SR5","citation":"Textzeile 13165","purpose":"description"},{"bookId":"sr5-abenteuerband-krieg-um-manhattan","title":"Abenteuerband - Krieg um Manhattan","edition":"SR5","citation":"Textzeile 4335","purpose":"description"}],"map_sources":[],"editions":["SR5"],"edition_descriptions":{"SR5":{"kind":"Ortsdossier","preview":"Der Prometheus-Turm ist in Gestohlene Seelen als benannter Schauplatz mit Bezug zu Manhattan belegt.","full":"Der Prometheus-Turm ist in Gestohlene Seelen als benannter Schauplatz mit Bezug zu Manhattan belegt. Das Dossier fasst den belegten Quellenstand redaktionell zusammen; eine nicht belegte Kartenposition wird nicht ergänzt.","hasMore":true,"hasExcerpt":true,"sources":[{"bookId":"sr5-gestohlene-seelen","title":"Gestohlene Seelen","edition":"SR5","citation":"Textzeile 13165","purpose":"description"},{"bookId":"sr5-abenteuerband-krieg-um-manhattan","title":"Abenteuerband - Krieg um Manhattan","edition":"SR5","citation":"Textzeile 4335","purpose":"description"}]}}}},{"type":"Feature","geometry":null,"properties":{"id":174,"global_id":"manhattan:source-place:grand-central-arcology","name":"Grand Central Arcology","aliases":[],"category":"Konzerne und markante Bauwerke","detail_map":"Manhattan","source_pages":"Textzeile 2489","map_source":"Flüsternetze","placement_note":"Keine belastbare Einzelposition; Eintrag bleibt im Katalog","accuracy":"Nur Stadt oder Lore-Teilraum belegt","source_map":"source-supplement","source_panel":"Manhattan","description_preview":"Grand Central Arcology ist in Flüsternetze als benannter Schauplatz mit Bezug zu Manhattan belegt.","description_full":"Grand Central Arcology ist in Flüsternetze als benannter Schauplatz mit Bezug zu Manhattan belegt. Das Dossier fasst den belegten Quellenstand redaktionell zusammen; eine nicht belegte Kartenposition wird nicht ergänzt.","description_source":"Textzeile 2489","description_kind":"Ortsdossier","description_has_more":true,"detail_plans":[],"alternate_locations":[],"sources":[{"bookId":"sr6-flusternetze","title":"Flüsternetze","edition":"SR6","citation":"Textzeile 2489","purpose":"description"},{"bookId":"sr6-flusternetze-46144p","title":"Flüsternetze [46144P]","edition":"SR6","citation":"Textzeile 2489","purpose":"description"}],"map_sources":[],"editions":["SR6"],"edition_descriptions":{"SR6":{"kind":"Ortsdossier","preview":"Grand Central Arcology ist in Flüsternetze als benannter Schauplatz mit Bezug zu Manhattan belegt.","full":"Grand Central Arcology ist in Flüsternetze als benannter Schauplatz mit Bezug zu Manhattan belegt. Das Dossier fasst den belegten Quellenstand redaktionell zusammen; eine nicht belegte Kartenposition wird nicht ergänzt.","hasMore":true,"hasExcerpt":true,"sources":[{"bookId":"sr6-flusternetze","title":"Flüsternetze","edition":"SR6","citation":"Textzeile 2489","purpose":"description"},{"bookId":"sr6-flusternetze-46144p","title":"Flüsternetze [46144P]","edition":"SR6","citation":"Textzeile 2489","purpose":"description"}]}}}},{"type":"Feature","geometry":null,"properties":{"id":175,"global_id":"manhattan:source-place:louis-vuitton-store","name":"Louis Vuitton Store","aliases":[],"category":"Sonstige Spots","detail_map":"Manhattan","source_pages":"Textzeile 9462","map_source":"Data Trails","placement_note":"Keine belastbare Einzelposition; Eintrag bleibt im Katalog","accuracy":"Nur Stadt oder Lore-Teilraum belegt","source_map":"source-supplement","source_panel":"Manhattan","description_preview":"Louis Vuitton Store ist in Data Trails als benannter Schauplatz mit Bezug zu Manhattan belegt.","description_full":"Louis Vuitton Store ist in Data Trails als benannter Schauplatz mit Bezug zu Manhattan belegt. Das Dossier fasst den belegten Quellenstand redaktionell zusammen; eine nicht belegte Kartenposition wird nicht ergänzt.","description_source":"Textzeile 9462","description_kind":"Ortsdossier","description_has_more":true,"detail_plans":[],"alternate_locations":[],"sources":[{"bookId":"sr5-data-trails","title":"Data Trails","edition":"SR5","citation":"Textzeile 9462","purpose":"description"},{"bookId":"sr5-datenpfade","title":"Datenpfade","edition":"SR5","citation":"Textzeile 10129","purpose":"description"}],"map_sources":[],"editions":["SR5"],"edition_descriptions":{"SR5":{"kind":"Ortsdossier","preview":"Louis Vuitton Store ist in Data Trails als benannter Schauplatz mit Bezug zu Manhattan belegt.","full":"Louis Vuitton Store ist in Data Trails als benannter Schauplatz mit Bezug zu Manhattan belegt. Das Dossier fasst den belegten Quellenstand redaktionell zusammen; eine nicht belegte Kartenposition wird nicht ergänzt.","hasMore":true,"hasExcerpt":true,"sources":[{"bookId":"sr5-data-trails","title":"Data Trails","edition":"SR5","citation":"Textzeile 9462","purpose":"description"},{"bookId":"sr5-datenpfade","title":"Datenpfade","edition":"SR5","citation":"Textzeile 10129","purpose":"description"}]}}}},{"type":"Feature","geometry":null,"properties":{"id":176,"global_id":"manhattan:source-place:manhattan-bridge","name":"Manhattan Bridge","aliases":[],"category":"Verkehr und Infrastruktur","detail_map":"Manhattan","source_pages":"Textzeile 5780","map_source":"Abenteuerband - Krieg um Manhattan","placement_note":"Keine belastbare Einzelposition; Eintrag bleibt im Katalog","accuracy":"Nur Stadt oder Lore-Teilraum belegt","source_map":"source-supplement","source_panel":"Manhattan","description_preview":"Manhattan Bridge ist in Abenteuerband - Krieg um Manhattan als benannter Schauplatz mit Bezug zu Manhattan belegt.","description_full":"Manhattan Bridge ist in Abenteuerband - Krieg um Manhattan als benannter Schauplatz mit Bezug zu Manhattan belegt. Das Dossier fasst den belegten Quellenstand redaktionell zusammen; eine nicht belegte Kartenposition wird nicht ergänzt.","description_source":"Textzeile 5780","description_kind":"Ortsdossier","description_has_more":true,"detail_plans":[],"alternate_locations":[],"sources":[{"bookId":"sr5-abenteuerband-krieg-um-manhattan","title":"Abenteuerband - Krieg um Manhattan","edition":"SR5","citation":"Textzeile 5780","purpose":"description"},{"bookId":"sr5-gestohlene-seelen","title":"Gestohlene Seelen","edition":"SR5","citation":"Textzeile 11738","purpose":"description"}],"map_sources":[],"editions":["SR5"],"edition_descriptions":{"SR5":{"kind":"Ortsdossier","preview":"Manhattan Bridge ist in Abenteuerband - Krieg um Manhattan als benannter Schauplatz mit Bezug zu Manhattan belegt.","full":"Manhattan Bridge ist in Abenteuerband - Krieg um Manhattan als benannter Schauplatz mit Bezug zu Manhattan belegt. Das Dossier fasst den belegten Quellenstand redaktionell zusammen; eine nicht belegte Kartenposition wird nicht ergänzt.","hasMore":true,"hasExcerpt":true,"sources":[{"bookId":"sr5-abenteuerband-krieg-um-manhattan","title":"Abenteuerband - Krieg um Manhattan","edition":"SR5","citation":"Textzeile 5780","purpose":"description"},{"bookId":"sr5-gestohlene-seelen","title":"Gestohlene Seelen","edition":"SR5","citation":"Textzeile 11738","purpose":"description"}]}}}},{"type":"Feature","geometry":null,"properties":{"id":177,"global_id":"manhattan:source-place:mitsuhama-arcology","name":"Mitsuhama Arcology","aliases":[],"category":"Konzerne und markante Bauwerke","detail_map":"Manhattan","source_pages":"Textzeile 14210","map_source":"Stolen Souls","placement_note":"Keine belastbare Einzelposition; Eintrag bleibt im Katalog","accuracy":"Nur Stadt oder Lore-Teilraum belegt","source_map":"source-supplement","source_panel":"Manhattan","description_preview":"Mitsuhama Arcology ist in Stolen Souls als benannter Schauplatz mit Bezug zu Manhattan belegt.","description_full":"Mitsuhama Arcology ist in Stolen Souls als benannter Schauplatz mit Bezug zu Manhattan belegt. Das Dossier fasst den belegten Quellenstand redaktionell zusammen; eine nicht belegte Kartenposition wird nicht ergänzt.","description_source":"Textzeile 14210","description_kind":"Ortsdossier","description_has_more":true,"detail_plans":[],"alternate_locations":[],"sources":[{"bookId":"sr5-stolen-souls","title":"Stolen Souls","edition":"SR5","citation":"Textzeile 14210","purpose":"description"}],"map_sources":[],"editions":["SR5"],"edition_descriptions":{"SR5":{"kind":"Ortsdossier","preview":"Mitsuhama Arcology ist in Stolen Souls als benannter Schauplatz mit Bezug zu Manhattan belegt.","full":"Mitsuhama Arcology ist in Stolen Souls als benannter Schauplatz mit Bezug zu Manhattan belegt. Das Dossier fasst den belegten Quellenstand redaktionell zusammen; eine nicht belegte Kartenposition wird nicht ergänzt.","hasMore":true,"hasExcerpt":true,"sources":[{"bookId":"sr5-stolen-souls","title":"Stolen Souls","edition":"SR5","citation":"Textzeile 14210","purpose":"description"}]}}}},{"type":"Feature","geometry":null,"properties":{"id":178,"global_id":"manhattan:source-place:prometheus-tower","name":"Prometheus Tower","aliases":[],"category":"Konzerne und markante Bauwerke","detail_map":"Manhattan","source_pages":"Textzeile 4930","map_source":"Boardroom Backstabs 3 - Battle of Manhattan","placement_note":"Keine belastbare Einzelposition; Eintrag bleibt im Katalog","accuracy":"Nur Stadt oder Lore-Teilraum belegt","source_map":"source-supplement","source_panel":"Manhattan","description_preview":"Prometheus Tower ist in Boardroom Backstabs 3 - Battle of Manhattan als benannter Schauplatz mit Bezug zu Manhattan belegt.","description_full":"Prometheus Tower ist in Boardroom Backstabs 3 - Battle of Manhattan als benannter Schauplatz mit Bezug zu Manhattan belegt. Das Dossier fasst den belegten Quellenstand redaktionell zusammen; eine nicht belegte Kartenposition wird nicht ergänzt.","description_source":"Textzeile 4930","description_kind":"Ortsdossier","description_has_more":true,"detail_plans":[],"alternate_locations":[],"sources":[{"bookId":"sr5-boardroom-backstabs-3-battle-of-manhattan","title":"Boardroom Backstabs 3 - Battle of Manhattan","edition":"SR5","citation":"Textzeile 4930","purpose":"description"}],"map_sources":[],"editions":["SR5"],"edition_descriptions":{"SR5":{"kind":"Ortsdossier","preview":"Prometheus Tower ist in Boardroom Backstabs 3 - Battle of Manhattan als benannter Schauplatz mit Bezug zu Manhattan belegt.","full":"Prometheus Tower ist in Boardroom Backstabs 3 - Battle of Manhattan als benannter Schauplatz mit Bezug zu Manhattan belegt. Das Dossier fasst den belegten Quellenstand redaktionell zusammen; eine nicht belegte Kartenposition wird nicht ergänzt.","hasMore":true,"hasExcerpt":true,"sources":[{"bookId":"sr5-boardroom-backstabs-3-battle-of-manhattan","title":"Boardroom Backstabs 3 - Battle of Manhattan","edition":"SR5","citation":"Textzeile 4930","purpose":"description"}]}}}},{"type":"Feature","geometry":null,"properties":{"id":179,"global_id":"manhattan:source-place:randalls-island-facility","name":"Randall’s Island Facility","aliases":[],"category":"Sonstige Spots","detail_map":"Manhattan","source_pages":"Textzeile 2315","map_source":"SRM03-05 - In and Out","placement_note":"Keine belastbare Einzelposition; Eintrag bleibt im Katalog","accuracy":"Nur Stadt oder Lore-Teilraum belegt","source_map":"source-supplement","source_panel":"Manhattan","description_preview":"Randall’s Island Facility ist in SRM03-05 - In and Out als benannter Schauplatz mit Bezug zu Manhattan belegt.","description_full":"Randall’s Island Facility ist in SRM03-05 - In and Out als benannter Schauplatz mit Bezug zu Manhattan belegt. Das Dossier fasst den belegten Quellenstand redaktionell zusammen; eine nicht belegte Kartenposition wird nicht ergänzt.","description_source":"Textzeile 2315","description_kind":"Ortsdossier","description_has_more":true,"detail_plans":[],"alternate_locations":[],"sources":[{"bookId":"sr4-srm03-05-in-and-out","title":"SRM03-05 - In and Out","edition":"SR4","citation":"Textzeile 2315","purpose":"description"}],"map_sources":[],"editions":["SR4"],"edition_descriptions":{"SR4":{"kind":"Ortsdossier","preview":"Randall’s Island Facility ist in SRM03-05 - In and Out als benannter Schauplatz mit Bezug zu Manhattan belegt.","full":"Randall’s Island Facility ist in SRM03-05 - In and Out als benannter Schauplatz mit Bezug zu Manhattan belegt. Das Dossier fasst den belegten Quellenstand redaktionell zusammen; eine nicht belegte Kartenposition wird nicht ergänzt.","hasMore":true,"hasExcerpt":true,"sources":[{"bookId":"sr4-srm03-05-in-and-out","title":"SRM03-05 - In and Out","edition":"SR4","citation":"Textzeile 2315","purpose":"description"}]}}}},{"type":"Feature","geometry":null,"properties":{"id":180,"global_id":"manhattan:source-place:shiawases-manhattan-arkologie","name":"Shiawases Manhattan-Arkologie","aliases":[],"category":"Konzerne und markante Bauwerke","detail_map":"Manhattan","source_pages":"Textzeile 13451","map_source":"Gestohlene Seelen","placement_note":"Keine belastbare Einzelposition; Eintrag bleibt im Katalog","accuracy":"Nur Stadt oder Lore-Teilraum belegt","source_map":"source-supplement","source_panel":"Manhattan","description_preview":"Shiawases Manhattan-Arkologie ist in Gestohlene Seelen als benannter Schauplatz mit Bezug zu Manhattan belegt.","description_full":"Shiawases Manhattan-Arkologie ist in Gestohlene Seelen als benannter Schauplatz mit Bezug zu Manhattan belegt. Das Dossier fasst den belegten Quellenstand redaktionell zusammen; eine nicht belegte Kartenposition wird nicht ergänzt.","description_source":"Textzeile 13451","description_kind":"Ortsdossier","description_has_more":true,"detail_plans":[],"alternate_locations":[],"sources":[{"bookId":"sr5-gestohlene-seelen","title":"Gestohlene Seelen","edition":"SR5","citation":"Textzeile 13451","purpose":"description"}],"map_sources":[],"editions":["SR5"],"edition_descriptions":{"SR5":{"kind":"Ortsdossier","preview":"Shiawases Manhattan-Arkologie ist in Gestohlene Seelen als benannter Schauplatz mit Bezug zu Manhattan belegt.","full":"Shiawases Manhattan-Arkologie ist in Gestohlene Seelen als benannter Schauplatz mit Bezug zu Manhattan belegt. Das Dossier fasst den belegten Quellenstand redaktionell zusammen; eine nicht belegte Kartenposition wird nicht ergänzt.","hasMore":true,"hasExcerpt":true,"sources":[{"bookId":"sr5-gestohlene-seelen","title":"Gestohlene Seelen","edition":"SR5","citation":"Textzeile 13451","purpose":"description"}]}}}},{"type":"Feature","geometry":null,"properties":{"id":181,"global_id":"manhattan:source-place:st-agathas-school-for-girls","name":"St Agatha’s School For Girls","aliases":[],"category":"Sonstige Spots","detail_map":"Manhattan","source_pages":"Textzeile 1387","map_source":"Boardroom Backstabs 3 - Battle of Manhattan","placement_note":"Keine belastbare Einzelposition; Eintrag bleibt im Katalog","accuracy":"Nur Stadt oder Lore-Teilraum belegt","source_map":"source-supplement","source_panel":"Manhattan","description_preview":"St Agatha’s School For Girls ist in Boardroom Backstabs 3 - Battle of Manhattan als benannter Schauplatz mit Bezug zu Manhattan belegt.","description_full":"St Agatha’s School For Girls ist in Boardroom Backstabs 3 - Battle of Manhattan als benannter Schauplatz mit Bezug zu Manhattan belegt. Das Dossier fasst den belegten Quellenstand redaktionell zusammen; eine nicht belegte Kartenposition wird nicht ergänzt.","description_source":"Textzeile 1387","description_kind":"Ortsdossier","description_has_more":true,"detail_plans":[],"alternate_locations":[],"sources":[{"bookId":"sr5-boardroom-backstabs-3-battle-of-manhattan","title":"Boardroom Backstabs 3 - Battle of Manhattan","edition":"SR5","citation":"Textzeile 1387","purpose":"description"}],"map_sources":[],"editions":["SR5"],"edition_descriptions":{"SR5":{"kind":"Ortsdossier","preview":"St Agatha’s School For Girls ist in Boardroom Backstabs 3 - Battle of Manhattan als benannter Schauplatz mit Bezug zu Manhattan belegt.","full":"St Agatha’s School For Girls ist in Boardroom Backstabs 3 - Battle of Manhattan als benannter Schauplatz mit Bezug zu Manhattan belegt. Das Dossier fasst den belegten Quellenstand redaktionell zusammen; eine nicht belegte Kartenposition wird nicht ergänzt.","hasMore":true,"hasExcerpt":true,"sources":[{"bookId":"sr5-boardroom-backstabs-3-battle-of-manhattan","title":"Boardroom Backstabs 3 - Battle of Manhattan","edition":"SR5","citation":"Textzeile 1387","purpose":"description"}]}}}},{"type":"Feature","geometry":null,"properties":{"id":182,"global_id":"manhattan:source-place:the-gravity-bar","name":"The Gravity Bar","aliases":[],"category":"Bars, Clubs und Gastronomie","detail_map":"Manhattan","source_pages":"Textzeile 5322","map_source":"Seattle 2072","placement_note":"Keine belastbare Einzelposition; Eintrag bleibt im Katalog","accuracy":"Nur Stadt oder Lore-Teilraum belegt","source_map":"source-supplement","source_panel":"Manhattan","description_preview":"The Gravity Bar ist in Seattle 2072 als benannter Schauplatz mit Bezug zu Manhattan belegt.","description_full":"The Gravity Bar ist in Seattle 2072 als benannter Schauplatz mit Bezug zu Manhattan belegt. Das Dossier fasst den belegten Quellenstand redaktionell zusammen; eine nicht belegte Kartenposition wird nicht ergänzt.","description_source":"Textzeile 5322","description_kind":"Ortsdossier","description_has_more":true,"detail_plans":[],"alternate_locations":[],"sources":[{"bookId":"sr4-seattle-2072","title":"Seattle 2072","edition":"SR4","citation":"Textzeile 5322","purpose":"description"},{"bookId":"sr4-seattle-2072","title":"Seattle 2072","edition":"SR4","citation":"Textzeile 20698","purpose":"description"},{"bookId":"sr4-srm04-01-hiding-in-the-dark-buried-underground-1","title":"SRM04-01 - Hiding in the Dark (Buried Underground 1)","edition":"SR4","citation":"Textzeile 1293","purpose":"description"}],"map_sources":[],"editions":["SR4"],"edition_descriptions":{"SR4":{"kind":"Ortsdossier","preview":"The Gravity Bar ist in Seattle 2072 als benannter Schauplatz mit Bezug zu Manhattan belegt.","full":"The Gravity Bar ist in Seattle 2072 als benannter Schauplatz mit Bezug zu Manhattan belegt. Das Dossier fasst den belegten Quellenstand redaktionell zusammen; eine nicht belegte Kartenposition wird nicht ergänzt.","hasMore":true,"hasExcerpt":true,"sources":[{"bookId":"sr4-seattle-2072","title":"Seattle 2072","edition":"SR4","citation":"Textzeile 5322","purpose":"description"},{"bookId":"sr4-seattle-2072","title":"Seattle 2072","edition":"SR4","citation":"Textzeile 20698","purpose":"description"},{"bookId":"sr4-srm04-01-hiding-in-the-dark-buried-underground-1","title":"SRM04-01 - Hiding in the Dark (Buried Underground 1)","edition":"SR4","citation":"Textzeile 1293","purpose":"description"}]}}}},{"type":"Feature","geometry":null,"properties":{"id":183,"global_id":"manhattan:source-place:the-modern-restaurant","name":"The Modern (Restaurant)","aliases":[],"category":"Bars, Clubs und Gastronomie","detail_map":"Manhattan","source_pages":"Textzeile 1623","map_source":"SRM03-01 - Ready, Set, Gogh!","placement_note":"Keine belastbare Einzelposition; Eintrag bleibt im Katalog","accuracy":"Nur Stadt oder Lore-Teilraum belegt","source_map":"source-supplement","source_panel":"Manhattan","description_preview":"The Modern (Restaurant) ist in SRM03-01 - Ready, Set, Gogh! als benannter Schauplatz mit Bezug zu Manhattan belegt.","description_full":"The Modern (Restaurant) ist in SRM03-01 - Ready, Set, Gogh! als benannter Schauplatz mit Bezug zu Manhattan belegt. Das Dossier fasst den belegten Quellenstand redaktionell zusammen; eine nicht belegte Kartenposition wird nicht ergänzt.","description_source":"Textzeile 1623","description_kind":"Ortsdossier","description_has_more":true,"detail_plans":[],"alternate_locations":[],"sources":[{"bookId":"sr4-srm03-01-ready-set-gogh","title":"SRM03-01 - Ready, Set, Gogh!","edition":"SR4","citation":"Textzeile 1623","purpose":"description"}],"map_sources":[],"editions":["SR4"],"edition_descriptions":{"SR4":{"kind":"Ortsdossier","preview":"The Modern (Restaurant) ist in SRM03-01 - Ready, Set, Gogh! als benannter Schauplatz mit Bezug zu Manhattan belegt.","full":"The Modern (Restaurant) ist in SRM03-01 - Ready, Set, Gogh! als benannter Schauplatz mit Bezug zu Manhattan belegt. Das Dossier fasst den belegten Quellenstand redaktionell zusammen; eine nicht belegte Kartenposition wird nicht ergänzt.","hasMore":true,"hasExcerpt":true,"sources":[{"bookId":"sr4-srm03-01-ready-set-gogh","title":"SRM03-01 - Ready, Set, Gogh!","edition":"SR4","citation":"Textzeile 1623","purpose":"description"}]}}}},{"type":"Feature","geometry":null,"properties":{"id":184,"global_id":"manhattan:source-place:transit-host-der-grand-central-station","name":"Transit-Host der Grand Central Station","aliases":[],"category":"Verkehr und Infrastruktur","detail_map":"Manhattan","source_pages":"Textzeile 8194","map_source":"Flüsternetze","placement_note":"Keine belastbare Einzelposition; Eintrag bleibt im Katalog","accuracy":"Nur Stadt oder Lore-Teilraum belegt","source_map":"source-supplement","source_panel":"Manhattan","description_preview":"Transit-Host der Grand Central Station ist in Flüsternetze als benannter Schauplatz mit Bezug zu Manhattan belegt.","description_full":"Transit-Host der Grand Central Station ist in Flüsternetze als benannter Schauplatz mit Bezug zu Manhattan belegt. Das Dossier fasst den belegten Quellenstand redaktionell zusammen; eine nicht belegte Kartenposition wird nicht ergänzt.","description_source":"Textzeile 8194","description_kind":"Ortsdossier","description_has_more":true,"detail_plans":[],"alternate_locations":[],"sources":[{"bookId":"sr6-flusternetze","title":"Flüsternetze","edition":"SR6","citation":"Textzeile 8194","purpose":"description"},{"bookId":"sr6-flusternetze-46144p","title":"Flüsternetze [46144P]","edition":"SR6","citation":"Textzeile 8194","purpose":"description"}],"map_sources":[],"editions":["SR6"],"edition_descriptions":{"SR6":{"kind":"Ortsdossier","preview":"Transit-Host der Grand Central Station ist in Flüsternetze als benannter Schauplatz mit Bezug zu Manhattan belegt.","full":"Transit-Host der Grand Central Station ist in Flüsternetze als benannter Schauplatz mit Bezug zu Manhattan belegt. Das Dossier fasst den belegten Quellenstand redaktionell zusammen; eine nicht belegte Kartenposition wird nicht ergänzt.","hasMore":true,"hasExcerpt":true,"sources":[{"bookId":"sr6-flusternetze","title":"Flüsternetze","edition":"SR6","citation":"Textzeile 8194","purpose":"description"},{"bookId":"sr6-flusternetze-46144p","title":"Flüsternetze [46144P]","edition":"SR6","citation":"Textzeile 8194","purpose":"description"}]}}}},{"type":"Feature","geometry":null,"properties":{"id":185,"global_id":"manhattan:source-place:wesley-street","name":"Wesley Street","aliases":[],"category":"Sonstige Spots","detail_map":"Manhattan","source_pages":"Textzeile 23","map_source":"SRM03-07 - Knight at the Opera","placement_note":"Keine belastbare Einzelposition; Eintrag bleibt im Katalog","accuracy":"Nur Stadt oder Lore-Teilraum belegt","source_map":"source-supplement","source_panel":"Manhattan","description_preview":"Wesley Street ist in SRM03-07 - Knight at the Opera als benannter Schauplatz mit Bezug zu Manhattan belegt.","description_full":"Wesley Street ist in SRM03-07 - Knight at the Opera als benannter Schauplatz mit Bezug zu Manhattan belegt. Das Dossier fasst den belegten Quellenstand redaktionell zusammen; eine nicht belegte Kartenposition wird nicht ergänzt.","description_source":"Textzeile 23","description_kind":"Ortsdossier","description_has_more":true,"detail_plans":[],"alternate_locations":[],"sources":[{"bookId":"sr4-srm03-07-knight-at-the-opera","title":"SRM03-07 - Knight at the Opera","edition":"SR4","citation":"Textzeile 23","purpose":"description"},{"bookId":"sr4-srm03-09-something-completely-different","title":"SRM03-09 - Something Completely Different","edition":"SR4","citation":"Textzeile 8","purpose":"description"}],"map_sources":[],"editions":["SR4"],"edition_descriptions":{"SR4":{"kind":"Ortsdossier","preview":"Wesley Street ist in SRM03-07 - Knight at the Opera als benannter Schauplatz mit Bezug zu Manhattan belegt.","full":"Wesley Street ist in SRM03-07 - Knight at the Opera als benannter Schauplatz mit Bezug zu Manhattan belegt. Das Dossier fasst den belegten Quellenstand redaktionell zusammen; eine nicht belegte Kartenposition wird nicht ergänzt.","hasMore":true,"hasExcerpt":true,"sources":[{"bookId":"sr4-srm03-07-knight-at-the-opera","title":"SRM03-07 - Knight at the Opera","edition":"SR4","citation":"Textzeile 23","purpose":"description"},{"bookId":"sr4-srm03-09-something-completely-different","title":"SRM03-09 - Something Completely Different","edition":"SR4","citation":"Textzeile 8","purpose":"description"}]}}}}]}
