{"type":"FeatureCollection","name":"Front Range Free Zone","features":[{"type":"Feature","geometry":{"type":"Polygon","coordinates":[[[-105.44066637210217,39.92214596955944],[-105.34691666286324,40.10964538803729],[-105.04987420371444,40.15061676171299],[-104.67597549074252,40.08998453798781],[-104.40970940895814,39.90564648136785],[-104.3894811011123,39.379710477375724],[-104.45021861773898,38.73184363335745],[-104.77941385084553,38.63925747404623],[-105.20666616738765,38.71046619346992],[-105.38031726075957,39.01690929942035],[-105.44066637210217,39.92214596955944]]]},"properties":{"name":"Front Range Free Zone · äußere DMZ-Kante","basis":"SR6-Ausdehnung von Boulder bis Colorado Springs; äußere Kante aus dem Front-Range-Korridor und der beschriebenen etwa einen Kilometer breiten umlaufenden DMZ","boundary_role":"lore-city","lore_source":"The Third Parallel, S. 12-13 (SR6)","source":"U.S. Census Bureau TIGERweb","source_url":"https://tigerweb.geo.census.gov/arcgis/rest/services/TIGERweb/Places_CouSub_ConCity_SubMCD/MapServer/4/query","boundary_review_status":"source-aligned","boundary_review_label":"Mit Boulder–Colorado-Springs-Korridor, publizierter Flächengröße und ungefähr ein Kilometer breiter äußerer DMZ abgeglichen"}}]}
