{"type":"FeatureCollection","name":"Denver heutige Stadtteile","features":[{"type":"Feature","geometry":{"type":"Polygon","coordinates":[[[-104.992384,39.696661],[-105.025059,39.696747],[-105.025093,39.711175],[-105.000143,39.711203],[-104.997294,39.704952],[-104.994831,39.702479],[-104.993088,39.70038],[-104.992392,39.699222],[-104.992255,39.698295],[-104.992384,39.696661]]]},"properties":{"name":"Athmar Park","basis":"Heutiger Denver-Stadtteil als getrennte geografische Referenz","boundary_role":"reference-neighborhood","source":"Code for Germany / Click That Hood","source_url":"https://github.com/codeforgermany/click_that_hood"}},{"type":"Feature","geometry":{"type":"Polygon","coordinates":[[[-105.000472,39.746725],[-105.000254,39.743583],[-104.998567,39.740194],[-105.004126,39.740149],[-105.017385,39.740516],[-105.015751,39.744523],[-105.015444,39.74875],[-105.015139,39.749843],[-105.012528,39.751402],[-105.008578,39.754731],[-105.008186,39.754792],[-105.007771,39.753446],[-105.001468,39.748552],[-105.000472,39.746725]]]},"properties":{"name":"Auraria","basis":"Heutiger Denver-Stadtteil als getrennte geografische Referenz","boundary_role":"reference-neighborhood","source":"Code for Germany / Click That Hood","source_url":"https://github.com/codeforgermany/click_that_hood"}},{"type":"Feature","geometry":{"type":"Polygon","coordinates":[[[-104.987435,39.725638],[-104.987623,39.707536],[-104.987431,39.696634],[-104.992384,39.696661],[-104.992255,39.698295],[-104.992392,39.699222],[-104.993088,39.70038],[-104.994831,39.702479],[-104.99692,39.704407],[-104.997355,39.705051],[-105.001771,39.714739],[-105.002464,39.715713],[-105.003369,39.716501],[-105.006676,39.718579],[-105.009633,39.721504],[-105.0127,39.722439],[-105.01527,39.723985],[-105.015836,39.724659],[-105.015769,39.725503],[-105.00805,39.725864],[-104.987435,39.725638]]]},"properties":{"name":"Baker","basis":"Heutiger Denver-Stadtteil als getrennte geografische Referenz","boundary_role":"reference-neighborhood","source":"Code for Germany / Click That Hood","source_url":"https://github.com/codeforgermany/click_that_hood"}},{"type":"Feature","geometry":{"type":"Polygon","coordinates":[[[-105.025136,39.725543],[-105.025093,39.711175],[-105.039698,39.711251],[-105.039718,39.722953],[-105.03945,39.72295],[-105.039454,39.725708],[-105.025136,39.725543]]]},"properties":{"name":"Barnum","basis":"Heutiger Denver-Stadtteil als getrennte geografische Referenz","boundary_role":"reference-neighborhood","source":"Code for Germany / Click That Hood","source_url":"https://github.com/codeforgermany/click_that_hood"}},{"type":"Feature","geometry":{"type":"Polygon","coordinates":[[[-105.039454,39.725708],[-105.03945,39.72295],[-105.039718,39.722953],[-105.039698,39.711251],[-105.053264,39.711344],[-105.053254,39.725801],[-105.039454,39.725708]]]},"properties":{"name":"Barnum West","basis":"Heutiger Denver-Stadtteil als getrennte geografische Referenz","boundary_role":"reference-neighborhood","source":"Code for Germany / Click That Hood","source_url":"https://github.com/codeforgermany/click_that_hood"}},{"type":"Feature","geometry":{"type":"Polygon","coordinates":[[[-105.053233,39.667785],[-105.053219,39.653184],[-105.057057,39.653167],[-105.05706,39.652848],[-105.05806,39.652847],[-105.058041,39.651459],[-105.058217,39.651459],[-105.058224,39.651251],[-105.061981,39.651231],[-105.06198,39.65149],[-105.062585,39.651495],[-105.062599,39.650283],[-105.063884,39.650291],[-105.063896,39.649626],[-105.070816,39.649616],[-105.070821,39.650009],[-105.069906,39.650001],[-105.069117,39.651306],[-105.06804,39.652199],[-105.06804,39.652495],[-105.067514,39.652498],[-105.067519,39.653246],[-105.067254,39.653246],[-105.067268,39.656878],[-105.070156,39.656874],[-105.070058,39.659087],[-105.071971,39.659604],[-105.071973,39.660023],[-105.076672,39.659333],[-105.076674,39.659908],[-105.078265,39.660702],[-105.079216,39.661992],[-105.081378,39.661989],[-105.081399,39.670154],[-105.079266,39.669758],[-105.079266,39.669345],[-105.076706,39.669082],[-105.07671,39.669419],[-105.076023,39.669317],[-105.075909,39.669993],[-105.075288,39.670043],[-105.074935,39.670469],[-105.072712,39.669794],[-105.072526,39.669408],[-105.072,39.669343],[-105.071991,39.667779],[-105.053233,39.667785]],[[-105.062563,39.651855],[-105.062557,39.652891],[-105.063553,39.652895],[-105.06356,39.651859],[-105.062563,39.651855]],[[-105.06397,39.653252],[-105.063983,39.653778],[-105.064911,39.653776],[-105.064909,39.65325],[-105.06397,39.653252]]]},"properties":{"name":"Bear Valley","basis":"Heutiger Denver-Stadtteil als getrennte geografische Referenz","boundary_role":"reference-neighborhood","source":"Code for Germany / Click That Hood","source_url":"https://github.com/codeforgermany/click_that_hood"}},{"type":"Feature","geometry":{"type":"Polygon","coordinates":[[[-104.940705,39.711564],[-104.940697,39.697729],[-104.940028,39.697732],[-104.940026,39.697927],[-104.938563,39.697933],[-104.938564,39.69666],[-104.959321,39.696583],[-104.959309,39.715657],[-104.956613,39.715869],[-104.953697,39.715377],[-104.951535,39.714454],[-104.950717,39.713675],[-104.949316,39.712768],[-104.948457,39.711756],[-104.947892,39.7115],[-104.940705,39.711564]]]},"properties":{"name":"Belcaro","basis":"Heutiger Denver-Stadtteil als getrennte geografische Referenz","boundary_role":"reference-neighborhood","source":"Code for Germany / Click That Hood","source_url":"https://github.com/codeforgermany/click_that_hood"}},{"type":"Feature","geometry":{"type":"Polygon","coordinates":[[[-105.025192,39.784385],[-105.025239,39.769289],[-105.034643,39.769548],[-105.053241,39.769334],[-105.053244,39.783672],[-105.050709,39.784817],[-105.048863,39.785149],[-105.04771,39.785026],[-105.044745,39.7838],[-105.043308,39.783589],[-105.03627,39.78358],[-105.033132,39.7834],[-105.025192,39.784385]]]},"properties":{"name":"Berkeley","basis":"Heutiger Denver-Stadtteil als getrennte geografische Referenz","boundary_role":"reference-neighborhood","source":"Code for Germany / Click That Hood","source_url":"https://github.com/codeforgermany/click_that_hood"}},{"type":"Feature","geometry":{"type":"Polygon","coordinates":[[[-104.987397,39.748913],[-104.987389,39.740107],[-104.98894,39.74064],[-104.990077,39.740112],[-104.998567,39.740194],[-105.000254,39.743583],[-105.000422,39.74552],[-104.991691,39.752289],[-104.987397,39.748913]]]},"properties":{"name":"CBD","basis":"Heutiger Denver-Stadtteil als getrennte geografische Referenz","boundary_role":"reference-neighborhood","source":"Code for Germany / Click That Hood","source_url":"https://github.com/codeforgermany/click_that_hood"}},{"type":"Feature","geometry":{"type":"Polygon","coordinates":[[[-104.987389,39.740107],[-104.972992,39.740039],[-104.972939,39.727284],[-104.987415,39.727276],[-104.987389,39.740107]]]},"properties":{"name":"Capitol Hill","basis":"Heutiger Denver-Stadtteil als getrennte geografische Referenz","boundary_role":"reference-neighborhood","source":"Code for Germany / Click That Hood","source_url":"https://github.com/codeforgermany/click_that_hood"}},{"type":"Feature","geometry":{"type":"Polygon","coordinates":[[[-104.998122,39.791022],[-104.998176,39.782565],[-105.002421,39.783648],[-105.007044,39.78326],[-105.010517,39.783594],[-105.019763,39.783718],[-105.025192,39.784385],[-105.025262,39.793958],[-105.024949,39.794072],[-105.02427,39.794028],[-105.023511,39.793492],[-105.022936,39.793404],[-105.022195,39.793809],[-105.021821,39.79455],[-105.021052,39.794356],[-105.021509,39.793289],[-105.020557,39.793009],[-105.020544,39.791089],[-104.998122,39.791022]]]},"properties":{"name":"Chaffee Park","basis":"Heutiger Denver-Stadtteil als getrennte geografische Referenz","boundary_role":"reference-neighborhood","source":"Code for Germany / Click That Hood","source_url":"https://github.com/codeforgermany/click_that_hood"}},{"type":"Feature","geometry":{"type":"Polygon","coordinates":[[[-104.960192,39.729109],[-104.972935,39.729079],[-104.972992,39.740039],[-104.959782,39.739989],[-104.95984,39.731081],[-104.960169,39.730493],[-104.960192,39.729109]]]},"properties":{"name":"Cheesman Park","basis":"Heutiger Denver-Stadtteil als getrennte geografische Referenz","boundary_role":"reference-neighborhood","source":"Code for Germany / Click That Hood","source_url":"https://github.com/codeforgermany/click_that_hood"}},{"type":"Feature","geometry":{"type":"Polygon","coordinates":[[[-104.940705,39.711564],[-104.947892,39.7115],[-104.948457,39.711756],[-104.949316,39.712768],[-104.950717,39.713675],[-104.951535,39.714454],[-104.953697,39.715377],[-104.956613,39.715869],[-104.959309,39.715657],[-104.959459,39.724961],[-104.960171,39.725608],[-104.940691,39.7256],[-104.940705,39.711564]]]},"properties":{"name":"Cherry Creek","basis":"Heutiger Denver-Stadtteil als getrennte geografische Referenz","boundary_role":"reference-neighborhood","source":"Code for Germany / Click That Hood","source_url":"https://github.com/codeforgermany/click_that_hood"}},{"type":"Feature","geometry":{"type":"Polygon","coordinates":[[[-104.940621,39.751037],[-104.940664,39.740129],[-104.957893,39.740207],[-104.959782,39.739989],[-104.959767,39.750718],[-104.954505,39.751165],[-104.940621,39.751037]]]},"properties":{"name":"City Park","basis":"Heutiger Denver-Stadtteil als getrennte geografische Referenz","boundary_role":"reference-neighborhood","source":"Code for Germany / Click That Hood","source_url":"https://github.com/codeforgermany/click_that_hood"}},{"type":"Feature","geometry":{"type":"Polygon","coordinates":[[[-104.959782,39.739989],[-104.973412,39.74003],[-104.973358,39.750724],[-104.959767,39.750718],[-104.959782,39.739989]]]},"properties":{"name":"City Park West","basis":"Heutiger Denver-Stadtteil als getrennte geografische Referenz","boundary_role":"reference-neighborhood","source":"Code for Germany / Click That Hood","source_url":"https://github.com/codeforgermany/click_that_hood"}},{"type":"Feature","geometry":{"type":"Polygon","coordinates":[[[-104.987389,39.740107],[-104.987413,39.738432],[-104.987424,39.726944],[-104.988952,39.727772],[-104.990464,39.729146],[-104.998567,39.740194],[-104.990077,39.740112],[-104.98894,39.74064],[-104.987389,39.740107]]]},"properties":{"name":"Civic Center","basis":"Heutiger Denver-Stadtteil als getrennte geografische Referenz","boundary_role":"reference-neighborhood","source":"Code for Germany / Click That Hood","source_url":"https://github.com/codeforgermany/click_that_hood"}},{"type":"Feature","geometry":{"type":"Polygon","coordinates":[[[-104.940578,39.761958],[-104.942911,39.761715],[-104.945027,39.76193],[-104.959753,39.761992],[-104.95973,39.771916],[-104.959401,39.772894],[-104.940617,39.772878],[-104.940578,39.761958]]]},"properties":{"name":"Clayton","basis":"Heutiger Denver-Stadtteil als getrennte geografische Referenz","boundary_role":"reference-neighborhood","source":"Code for Germany / Click That Hood","source_url":"https://github.com/codeforgermany/click_that_hood"}},{"type":"Feature","geometry":{"type":"Polygon","coordinates":[[[-104.959753,39.761992],[-104.97334,39.762048],[-104.973347,39.769188],[-104.968476,39.772911],[-104.959401,39.772894],[-104.95973,39.771916],[-104.959753,39.761992]]]},"properties":{"name":"Cole","basis":"Heutiger Denver-Stadtteil als getrennte geografische Referenz","boundary_role":"reference-neighborhood","source":"Code for Germany / Click That Hood","source_url":"https://github.com/codeforgermany/click_that_hood"}},{"type":"Feature","geometry":{"type":"Polygon","coordinates":[[[-105.001395,39.682168],[-105.000827,39.681327],[-104.998923,39.680453],[-104.998177,39.679257],[-104.997314,39.673601],[-104.997428,39.672642],[-104.998178,39.670323],[-104.998891,39.668938],[-105.000195,39.668111],[-105.000186,39.667674],[-105.002981,39.666775],[-105.003789,39.666202],[-105.004869,39.663673],[-105.005052,39.663674],[-105.004935,39.661497],[-105.00456,39.660541],[-105.010891,39.66057],[-105.007655,39.664732],[-105.00636,39.667701],[-105.006356,39.676737],[-105.008696,39.676751],[-105.008697,39.678619],[-105.015705,39.678678],[-105.015825,39.660506],[-105.022995,39.660497],[-105.023019,39.656796],[-105.025175,39.656803],[-105.025038,39.682271],[-105.001395,39.682168]]]},"properties":{"name":"College View / South Platte","basis":"Heutiger Denver-Stadtteil als getrennte geografische Referenz","boundary_role":"reference-neighborhood","source":"Code for Germany / Click That Hood","source_url":"https://github.com/codeforgermany/click_that_hood"}},{"type":"Feature","geometry":{"type":"Polygon","coordinates":[[[-104.940664,39.740129],[-104.940691,39.7256],[-104.960171,39.725608],[-104.960169,39.730493],[-104.95984,39.731081],[-104.959799,39.732283],[-104.959782,39.739989],[-104.957893,39.740207],[-104.940664,39.740129]]]},"properties":{"name":"Congress Park","basis":"Heutiger Denver-Stadtteil als getrennte geografische Referenz","boundary_role":"reference-neighborhood","source":"Code for Germany / Click That Hood","source_url":"https://github.com/codeforgermany/click_that_hood"}},{"type":"Feature","geometry":{"type":"Polygon","coordinates":[[[-104.940698,39.69657],[-104.940687,39.682962],[-104.946177,39.684304],[-104.948619,39.684637],[-104.959447,39.684729],[-104.959321,39.696583],[-104.940698,39.69657]]]},"properties":{"name":"Cory - Merrill","basis":"Heutiger Denver-Stadtteil als getrennte geografische Referenz","boundary_role":"reference-neighborhood","source":"Code for Germany / Click That Hood","source_url":"https://github.com/codeforgermany/click_that_hood"}},{"type":"Feature","geometry":{"type":"Polygon","coordinates":[[[-104.960171,39.725608],[-104.959459,39.724961],[-104.959309,39.715657],[-104.961588,39.715434],[-104.963024,39.715064],[-104.964839,39.714217],[-104.965875,39.714234],[-104.967567,39.715205],[-104.970136,39.717529],[-104.973248,39.718404],[-104.973249,39.719435],[-104.972911,39.720232],[-104.972935,39.729079],[-104.960192,39.729109],[-104.960171,39.725608]]]},"properties":{"name":"Country Club","basis":"Heutiger Denver-Stadtteil als getrennte geografische Referenz","boundary_role":"reference-neighborhood","source":"Code for Germany / Click That Hood","source_url":"https://github.com/codeforgermany/click_that_hood"}},{"type":"Feature","geometry":{"type":"Polygon","coordinates":[[[-104.762683,39.798434],[-104.770552,39.798271],[-104.774227,39.798446],[-104.78863,39.798398],[-104.790819,39.798254],[-104.790966,39.812861],[-104.790666,39.827263],[-104.790825,39.841817],[-104.762315,39.841801],[-104.762276,39.845412],[-104.730938,39.845205],[-104.730361,39.896152],[-104.703277,39.895967],[-104.703149,39.906947],[-104.6921,39.90687],[-104.692013,39.914209],[-104.679537,39.914105],[-104.67964,39.907038],[-104.630905,39.906676],[-104.630905,39.899424],[-104.599538,39.899067],[-104.599767,39.881331],[-104.605111,39.881372],[-104.605217,39.873137],[-104.619111,39.873243],[-104.619701,39.826868],[-104.640312,39.826972],[-104.640309,39.822587],[-104.655359,39.822698],[-104.655477,39.813091],[-104.666156,39.813168],[-104.666038,39.822886],[-104.762493,39.823451],[-104.762683,39.798434]]]},"properties":{"name":"DIA","basis":"Heutiger Denver-Stadtteil als getrennte geografische Referenz","boundary_role":"reference-neighborhood","source":"Code for Germany / Click That Hood","source_url":"https://github.com/codeforgermany/click_that_hood"}},{"type":"Feature","geometry":{"type":"Polygon","coordinates":[[[-104.884657,39.747455],[-104.8847,39.732847],[-104.903459,39.732895],[-104.903428,39.751017],[-104.898735,39.751017],[-104.898767,39.747443],[-104.884657,39.747455]]]},"properties":{"name":"East Colfax","basis":"Heutiger Denver-Stadtteil als getrennte geografische Referenz","boundary_role":"reference-neighborhood","source":"Code for Germany / Click That Hood","source_url":"https://github.com/codeforgermany/click_that_hood"}},{"type":"Feature","geometry":{"type":"Polygon","coordinates":[[[-104.940088,39.790975],[-104.940548,39.788867],[-104.940617,39.772878],[-104.968476,39.772911],[-104.971916,39.770301],[-104.978415,39.775306],[-104.977798,39.776552],[-104.977998,39.779007],[-104.977208,39.780582],[-104.9761,39.782071],[-104.975613,39.78319],[-104.975394,39.784314],[-104.975409,39.785738],[-104.975156,39.786356],[-104.974364,39.787165],[-104.968754,39.79104],[-104.960191,39.791025],[-104.955429,39.794646],[-104.949897,39.794639],[-104.940476,39.79461],[-104.940487,39.790973],[-104.940088,39.790975]]]},"properties":{"name":"Elyria Swansea","basis":"Heutiger Denver-Stadtteil als getrennte geografische Referenz","boundary_role":"reference-neighborhood","source":"Code for Germany / Click That Hood","source_url":"https://github.com/codeforgermany/click_that_hood"}},{"type":"Feature","geometry":{"type":"Polygon","coordinates":[[[-104.971916,39.770301],[-104.973347,39.769188],[-104.973383,39.74378],[-104.978178,39.747501],[-104.985574,39.747597],[-104.987202,39.747523],[-104.9874,39.747358],[-104.987526,39.749048],[-104.999548,39.758474],[-105.003169,39.760406],[-104.995507,39.76299],[-104.993088,39.764923],[-104.991786,39.765617],[-104.989103,39.766105],[-104.984605,39.767537],[-104.978415,39.775306],[-104.971916,39.770301]]]},"properties":{"name":"Five Points","basis":"Heutiger Denver-Stadtteil als getrennte geografische Referenz","boundary_role":"reference-neighborhood","source":"Code for Germany / Click That Hood","source_url":"https://github.com/codeforgermany/click_that_hood"}},{"type":"Feature","geometry":{"type":"Polygon","coordinates":[[[-105.034654,39.653488],[-105.034641,39.645878],[-105.03436,39.645878],[-105.034436,39.643798],[-105.032751,39.643787],[-105.032785,39.642847],[-105.02998,39.642819],[-105.029881,39.64226],[-105.030037,39.638627],[-105.034701,39.638621],[-105.034748,39.633169],[-105.030059,39.633159],[-105.029657,39.632368],[-105.028904,39.632313],[-105.026912,39.631542],[-105.025401,39.631473],[-105.025425,39.628526],[-105.027454,39.628343],[-105.029313,39.627792],[-105.031096,39.627802],[-105.033492,39.628192],[-105.034794,39.628197],[-105.034797,39.627806],[-105.035909,39.62781],[-105.036797,39.628127],[-105.038008,39.626836],[-105.040027,39.628041],[-105.040258,39.627742],[-105.040635,39.627994],[-105.040911,39.627748],[-105.04133,39.628011],[-105.04171,39.627666],[-105.042292,39.628046],[-105.042775,39.627578],[-105.044153,39.628029],[-105.044127,39.631456],[-105.053412,39.631506],[-105.053342,39.638771],[-105.058807,39.63876],[-105.05875,39.638969],[-105.0598,39.638675],[-105.076909,39.638638],[-105.076822,39.639596],[-105.076036,39.641109],[-105.07585,39.642107],[-105.074549,39.644134],[-105.073999,39.644647],[-105.072391,39.645397],[-105.07212,39.645991],[-105.063236,39.646],[-105.063195,39.649627],[-105.057087,39.649685],[-105.057069,39.651231],[-105.05355,39.651157],[-105.05521,39.651959],[-105.057062,39.651972],[-105.057057,39.653167],[-105.048314,39.65331],[-105.038652,39.654406],[-105.036128,39.654082],[-105.034654,39.653488]]]},"properties":{"name":"Fort Logan","basis":"Heutiger Denver-Stadtteil als getrennte geografische Referenz","boundary_role":"reference-neighborhood","source":"Code for Germany / Click That Hood","source_url":"https://github.com/codeforgermany/click_that_hood"}},{"type":"Feature","geometry":{"type":"Polygon","coordinates":[[[-104.809898,39.772832],[-104.809632,39.798307],[-104.790819,39.798254],[-104.775134,39.798452],[-104.770552,39.798271],[-104.762698,39.798434],[-104.734372,39.798308],[-104.734596,39.769217],[-104.764573,39.769186],[-104.764548,39.771567],[-104.772184,39.771499],[-104.772157,39.77641],[-104.781561,39.776436],[-104.781577,39.772796],[-104.809898,39.772832]]]},"properties":{"name":"Gateway / Green Valley Ranch","basis":"Heutiger Denver-Stadtteil als getrennte geografische Referenz","boundary_role":"reference-neighborhood","source":"Code for Germany / Click That Hood","source_url":"https://github.com/codeforgermany/click_that_hood"}},{"type":"Feature","geometry":{"type":"Polygon","coordinates":[[[-104.968754,39.79104],[-104.974364,39.787165],[-104.975156,39.786356],[-104.975409,39.785738],[-104.975394,39.784314],[-104.975613,39.78319],[-104.9761,39.782071],[-104.977208,39.780582],[-104.977998,39.779007],[-104.977792,39.776812],[-104.977931,39.776142],[-104.978523,39.775125],[-104.983161,39.769495],[-104.984356,39.767707],[-104.985331,39.767211],[-104.98754,39.766542],[-104.991972,39.765543],[-104.993088,39.764923],[-104.995507,39.76299],[-104.998247,39.76212],[-104.998122,39.791022],[-104.993236,39.791026],[-104.993229,39.792043],[-104.990659,39.792042],[-104.99028,39.791518],[-104.990268,39.791031],[-104.986388,39.791038],[-104.986382,39.791868],[-104.985203,39.791667],[-104.985207,39.79104],[-104.97817,39.791053],[-104.978168,39.791884],[-104.977716,39.791882],[-104.977708,39.791053],[-104.975974,39.79105],[-104.975959,39.792434],[-104.973069,39.792414],[-104.973059,39.794091],[-104.974673,39.794102],[-104.974681,39.79569],[-104.971166,39.795678],[-104.971167,39.796133],[-104.971658,39.796141],[-104.97165,39.798317],[-104.968633,39.798296],[-104.968643,39.793196],[-104.967541,39.793213],[-104.967932,39.791844],[-104.96831,39.791848],[-104.968771,39.791433],[-104.968754,39.79104]]]},"properties":{"name":"Globeville","basis":"Heutiger Denver-Stadtteil als getrennte geografische Referenz","boundary_role":"reference-neighborhood","source":"Code for Germany / Click That Hood","source_url":"https://github.com/codeforgermany/click_that_hood"}},{"type":"Feature","geometry":{"type":"Polygon","coordinates":[[[-104.905638,39.678441],[-104.90499,39.678119],[-104.903538,39.676761],[-104.903541,39.667625],[-104.917544,39.667584],[-104.917559,39.672983],[-104.919298,39.673917],[-104.920487,39.674141],[-104.92105,39.674562],[-104.921047,39.674836],[-104.922251,39.674834],[-104.922298,39.675644],[-104.922866,39.675704],[-104.923414,39.675475],[-104.923423,39.676578],[-104.924463,39.676581],[-104.924464,39.676207],[-104.924759,39.676153],[-104.924754,39.676353],[-104.925283,39.676353],[-104.925287,39.676742],[-104.925744,39.676737],[-104.925725,39.675281],[-104.927582,39.675273],[-104.927575,39.674827],[-104.930067,39.674824],[-104.926292,39.6694],[-104.92493,39.669334],[-104.925086,39.668977],[-104.924712,39.668429],[-104.922669,39.667843],[-104.922664,39.667661],[-104.921352,39.667668],[-104.920702,39.668168],[-104.920572,39.668035],[-104.921008,39.667778],[-104.920802,39.667582],[-104.925664,39.667488],[-104.93076,39.67478],[-104.933977,39.678446],[-104.905638,39.678441]]]},"properties":{"name":"Goldsmith","basis":"Heutiger Denver-Stadtteil als getrennte geografische Referenz","boundary_role":"reference-neighborhood","source":"Code for Germany / Click That Hood","source_url":"https://github.com/codeforgermany/click_that_hood"}},{"type":"Feature","geometry":{"type":"Polygon","coordinates":[[[-104.922321,39.740143],[-104.922314,39.729262],[-104.922808,39.729256],[-104.922799,39.725632],[-104.940691,39.7256],[-104.940664,39.740129],[-104.922321,39.740143]]]},"properties":{"name":"Hale","basis":"Heutiger Denver-Stadtteil als getrennte geografische Referenz","boundary_role":"reference-neighborhood","source":"Code for Germany / Click That Hood","source_url":"https://github.com/codeforgermany/click_that_hood"}},{"type":"Feature","geometry":{"type":"Polygon","coordinates":[[[-104.866022,39.660271],[-104.866334,39.66031],[-104.866432,39.656257],[-104.866702,39.655111],[-104.867882,39.653807],[-104.869677,39.653115],[-104.918448,39.653081],[-104.923435,39.66412],[-104.925664,39.667488],[-104.920802,39.667582],[-104.920308,39.667112],[-104.920583,39.666939],[-104.922221,39.666947],[-104.92224,39.66376],[-104.921547,39.662847],[-104.921866,39.662249],[-104.921016,39.660338],[-104.918875,39.660338],[-104.918885,39.659921],[-104.918614,39.659922],[-104.918247,39.659347],[-104.916757,39.65901],[-104.916863,39.658795],[-104.915898,39.658508],[-104.916253,39.658088],[-104.916032,39.657496],[-104.915512,39.657511],[-104.915511,39.657128],[-104.915896,39.657149],[-104.916572,39.656119],[-104.915863,39.656048],[-104.915771,39.65635],[-104.91525,39.656173],[-104.913089,39.656181],[-104.913055,39.663131],[-104.915039,39.66314],[-104.915939,39.663471],[-104.91595,39.666152],[-104.916389,39.666154],[-104.916378,39.667585],[-104.894021,39.667588],[-104.890216,39.664497],[-104.888352,39.665674],[-104.889041,39.665775],[-104.889669,39.666285],[-104.890459,39.667579],[-104.885164,39.667566],[-104.879517,39.663933],[-104.876212,39.663932],[-104.875794,39.664305],[-104.875543,39.664889],[-104.875404,39.668816],[-104.876369,39.67112],[-104.877459,39.672067],[-104.875436,39.672063],[-104.87542,39.674792],[-104.87062,39.674779],[-104.865966,39.670955],[-104.866022,39.660271]]]},"properties":{"name":"Hampden","basis":"Heutiger Denver-Stadtteil als getrennte geografische Referenz","boundary_role":"reference-neighborhood","source":"Code for Germany / Click That Hood","source_url":"https://github.com/codeforgermany/click_that_hood"}},{"type":"Feature","geometry":{"type":"Polygon","coordinates":[[[-104.901864,39.624093],[-104.916676,39.649688],[-104.918448,39.653081],[-104.880091,39.653058],[-104.880333,39.641315],[-104.885085,39.638964],[-104.885255,39.624128],[-104.901864,39.624093]]]},"properties":{"name":"Hampden South","basis":"Heutiger Denver-Stadtteil als getrennte geografische Referenz","boundary_role":"reference-neighborhood","source":"Code for Germany / Click That Hood","source_url":"https://github.com/codeforgermany/click_that_hood"}},{"type":"Feature","geometry":{"type":"Polygon","coordinates":[[[-105.025108,39.667716],[-105.053233,39.667785],[-105.053233,39.675037],[-105.062608,39.675008],[-105.062622,39.679294],[-105.061397,39.678237],[-105.060326,39.677928],[-105.057783,39.678681],[-105.05781,39.682269],[-105.025038,39.682271],[-105.025108,39.667716]]]},"properties":{"name":"Harvey Park","basis":"Heutiger Denver-Stadtteil als getrennte geografische Referenz","boundary_role":"reference-neighborhood","source":"Code for Germany / Click That Hood","source_url":"https://github.com/codeforgermany/click_that_hood"}},{"type":"Feature","geometry":{"type":"Polygon","coordinates":[[[-105.025108,39.667716],[-105.025175,39.656803],[-105.032657,39.656875],[-105.032066,39.656312],[-105.032095,39.653276],[-105.034615,39.653276],[-105.034654,39.653488],[-105.036128,39.654082],[-105.038652,39.654406],[-105.048314,39.65331],[-105.053219,39.653184],[-105.053233,39.667785],[-105.025108,39.667716]]]},"properties":{"name":"Harvey Park South","basis":"Heutiger Denver-Stadtteil als getrennte geografische Referenz","boundary_role":"reference-neighborhood","source":"Code for Germany / Click That Hood","source_url":"https://github.com/codeforgermany/click_that_hood"}},{"type":"Feature","geometry":{"type":"Polygon","coordinates":[[[-104.998203,39.769297],[-104.998247,39.76212],[-105.000463,39.761231],[-105.002838,39.760635],[-105.003717,39.760046],[-105.005612,39.758073],[-105.005944,39.757347],[-105.007584,39.755403],[-105.009489,39.753927],[-105.011708,39.75501],[-105.017812,39.757004],[-105.021368,39.758461],[-105.025234,39.758477],[-105.025239,39.769289],[-104.998203,39.769297]]]},"properties":{"name":"Highland","basis":"Heutiger Denver-Stadtteil als getrennte geografische Referenz","boundary_role":"reference-neighborhood","source":"Code for Germany / Click That Hood","source_url":"https://github.com/codeforgermany/click_that_hood"}},{"type":"Feature","geometry":{"type":"Polygon","coordinates":[[[-104.910237,39.711202],[-104.940686,39.711076],[-104.940691,39.7256],[-104.903408,39.725642],[-104.903537,39.721996],[-104.908145,39.722007],[-104.908169,39.71837],[-104.912781,39.718364],[-104.912699,39.714795],[-104.907432,39.714783],[-104.910237,39.711202]]]},"properties":{"name":"Hilltop","basis":"Heutiger Denver-Stadtteil als getrennte geografische Referenz","boundary_role":"reference-neighborhood","source":"Code for Germany / Click That Hood","source_url":"https://github.com/codeforgermany/click_that_hood"}},{"type":"Feature","geometry":{"type":"Polygon","coordinates":[[[-104.903531,39.678475],[-104.903512,39.689351],[-104.898811,39.689339],[-104.898822,39.690724],[-104.898182,39.690727],[-104.898828,39.691428],[-104.898839,39.692957],[-104.894196,39.692977],[-104.894059,39.685694],[-104.889329,39.685685],[-104.889309,39.682056],[-104.894046,39.682061],[-104.894057,39.678448],[-104.903531,39.678475]],[[-104.902671,39.685712],[-104.90115,39.684809],[-104.898783,39.683402],[-104.898786,39.685704],[-104.902671,39.685712]]]},"properties":{"name":"Indian Creek","basis":"Heutiger Denver-Stadtteil als getrennte geografische Referenz","boundary_role":"reference-neighborhood","source":"Code for Germany / Click That Hood","source_url":"https://github.com/codeforgermany/click_that_hood"}},{"type":"Feature","geometry":{"type":"Polygon","coordinates":[[[-105.009489,39.753927],[-105.012528,39.751402],[-105.015139,39.749843],[-105.015444,39.74875],[-105.015751,39.744523],[-105.016261,39.74339],[-105.017865,39.745159],[-105.01832,39.74638],[-105.020483,39.746392],[-105.020509,39.7476],[-105.023616,39.74759],[-105.023625,39.746362],[-105.025214,39.746364],[-105.025234,39.758477],[-105.021368,39.758461],[-105.017812,39.757004],[-105.011708,39.75501],[-105.009489,39.753927]]]},"properties":{"name":"Jefferson Park","basis":"Heutiger Denver-Stadtteil als getrennte geografische Referenz","boundary_role":"reference-neighborhood","source":"Code for Germany / Click That Hood","source_url":"https://github.com/codeforgermany/click_that_hood"}},{"type":"Feature","geometry":{"type":"Polygon","coordinates":[[[-104.855598,39.660291],[-104.851683,39.659452],[-104.848625,39.659078],[-104.848559,39.657061],[-104.847251,39.657069],[-104.852305,39.65577],[-104.85405,39.65515],[-104.868196,39.647068],[-104.870062,39.646277],[-104.871188,39.646229],[-104.873041,39.645828],[-104.87557,39.644983],[-104.87545,39.651662],[-104.87668,39.65305],[-104.87011,39.653056],[-104.868586,39.653428],[-104.867722,39.653918],[-104.866937,39.654711],[-104.866517,39.655667],[-104.866334,39.66031],[-104.856414,39.660291],[-104.855766,39.660483],[-104.855598,39.660291]]]},"properties":{"name":"Kennedy","basis":"Heutiger Denver-Stadtteil als getrennte geografische Referenz","boundary_role":"reference-neighborhood","source":"Code for Germany / Click That Hood","source_url":"https://github.com/codeforgermany/click_that_hood"}},{"type":"Feature","geometry":{"type":"Polygon","coordinates":[[[-104.998567,39.740194],[-104.990464,39.729146],[-104.988952,39.727772],[-104.987424,39.726944],[-104.987435,39.725638],[-105.00805,39.725864],[-105.015769,39.725503],[-105.015675,39.727511],[-105.016967,39.729832],[-105.017026,39.735298],[-105.018062,39.738097],[-105.017963,39.738983],[-105.017385,39.740516],[-105.004126,39.740149],[-104.998567,39.740194]]]},"properties":{"name":"Lincoln Park","basis":"Heutiger Denver-Stadtteil als getrennte geografische Referenz","boundary_role":"reference-neighborhood","source":"Code for Germany / Click That Hood","source_url":"https://github.com/codeforgermany/click_that_hood"}},{"type":"Feature","geometry":{"type":"Polygon","coordinates":[[[-104.8847,39.732847],[-104.884713,39.730567],[-104.885276,39.729922],[-104.886521,39.729149],[-104.884728,39.727899],[-104.881997,39.725057],[-104.880745,39.725586],[-104.875333,39.725576],[-104.875344,39.719227],[-104.875116,39.718842],[-104.874252,39.718329],[-104.870644,39.718314],[-104.870665,39.710033],[-104.88313,39.707057],[-104.884426,39.706915],[-104.88601,39.707305],[-104.89186,39.710919],[-104.892559,39.711155],[-104.910237,39.711202],[-104.907432,39.714783],[-104.912699,39.714795],[-104.912781,39.718364],[-104.908169,39.71837],[-104.908145,39.722007],[-104.903537,39.721996],[-104.903459,39.732895],[-104.8847,39.732847]]]},"properties":{"name":"Lowry Field","basis":"Heutiger Denver-Stadtteil als getrennte geografische Referenz","boundary_role":"reference-neighborhood","source":"Code for Germany / Click That Hood","source_url":"https://github.com/codeforgermany/click_that_hood"}},{"type":"Feature","geometry":{"type":"Polygon","coordinates":[[[-105.025059,39.696747],[-105.025038,39.682271],[-105.053235,39.682295],[-105.053231,39.69677],[-105.036706,39.696758],[-105.035073,39.697235],[-105.032074,39.696732],[-105.025059,39.696747]]]},"properties":{"name":"Mar Lee","basis":"Heutiger Denver-Stadtteil als getrennte geografische Referenz","boundary_role":"reference-neighborhood","source":"Code for Germany / Click That Hood","source_url":"https://github.com/codeforgermany/click_that_hood"}},{"type":"Feature","geometry":{"type":"Polygon","coordinates":[[[-105.065074,39.618518],[-105.065091,39.620045],[-105.065662,39.6206],[-105.076116,39.624225],[-105.074517,39.624227],[-105.076273,39.625095],[-105.080232,39.629461],[-105.080952,39.631327],[-105.083712,39.631327],[-105.083733,39.630229],[-105.081691,39.63023],[-105.081747,39.627318],[-105.083813,39.627318],[-105.083789,39.628527],[-105.08558,39.628527],[-105.085626,39.626107],[-105.087391,39.626046],[-105.087384,39.62709],[-105.091164,39.627081],[-105.091186,39.624201],[-105.107537,39.624207],[-105.107517,39.62709],[-105.109967,39.627084],[-105.109914,39.635071],[-105.091116,39.635082],[-105.091102,39.638702],[-105.081421,39.63871],[-105.08147,39.636237],[-105.080857,39.636141],[-105.080306,39.636205],[-105.079967,39.636632],[-105.079482,39.636726],[-105.077246,39.636397],[-105.075247,39.636496],[-105.074172,39.636767],[-105.073265,39.636548],[-105.073196,39.638741],[-105.059058,39.638676],[-105.05984,39.634691],[-105.057061,39.631499],[-105.053434,39.629298],[-105.053449,39.627705],[-105.05578,39.625998],[-105.055809,39.624251],[-105.053484,39.624254],[-105.053517,39.620867],[-105.056273,39.621104],[-105.057244,39.620913],[-105.057386,39.620492],[-105.056489,39.619918],[-105.05712,39.619368],[-105.05816,39.617375],[-105.058098,39.614409],[-105.09701,39.614311],[-105.09703,39.61843],[-105.065074,39.618518]],[[-105.080874,39.635001],[-105.08087,39.635687],[-105.081483,39.635689],[-105.081488,39.635003],[-105.080874,39.635001]]]},"properties":{"name":"Marston","basis":"Heutiger Denver-Stadtteil als getrennte geografische Referenz","boundary_role":"reference-neighborhood","source":"Code for Germany / Click That Hood","source_url":"https://github.com/codeforgermany/click_that_hood"}},{"type":"Feature","geometry":{"type":"Polygon","coordinates":[[[-104.809898,39.772832],[-104.828163,39.772788],[-104.828163,39.772577],[-104.865887,39.775843],[-104.866035,39.798411],[-104.828094,39.798195],[-104.809632,39.798307],[-104.809898,39.772832]]]},"properties":{"name":"Montbello","basis":"Heutiger Denver-Stadtteil als getrennte geografische Referenz","boundary_role":"reference-neighborhood","source":"Code for Germany / Click That Hood","source_url":"https://github.com/codeforgermany/click_that_hood"}},{"type":"Feature","geometry":{"type":"Polygon","coordinates":[[[-104.903455,39.740146],[-104.903408,39.725642],[-104.922799,39.725632],[-104.922808,39.729256],[-104.922314,39.729262],[-104.922321,39.740143],[-104.903455,39.740146]]]},"properties":{"name":"Montclair","basis":"Heutiger Denver-Stadtteil als getrennte geografische Referenz","boundary_role":"reference-neighborhood","source":"Code for Germany / Click That Hood","source_url":"https://github.com/codeforgermany/click_that_hood"}},{"type":"Feature","geometry":{"type":"Polygon","coordinates":[[[-104.973383,39.74378],[-104.973412,39.74003],[-104.987389,39.740107],[-104.9874,39.747358],[-104.987202,39.747523],[-104.978178,39.747501],[-104.973383,39.74378]]]},"properties":{"name":"North Capitol Hill","basis":"Heutiger Denver-Stadtteil als getrennte geografische Referenz","boundary_role":"reference-neighborhood","source":"Code for Germany / Click That Hood","source_url":"https://github.com/codeforgermany/click_that_hood"}},{"type":"Feature","geometry":{"type":"Polygon","coordinates":[[[-104.903439,39.761984],[-104.903428,39.751017],[-104.940621,39.751037],[-104.940578,39.761958],[-104.903439,39.761984]]]},"properties":{"name":"North Park Hill","basis":"Heutiger Denver-Stadtteil als getrennte geografische Referenz","boundary_role":"reference-neighborhood","source":"Code for Germany / Click That Hood","source_url":"https://github.com/codeforgermany/click_that_hood"}},{"type":"Feature","geometry":{"type":"Polygon","coordinates":[[[-104.903511,39.783823],[-104.903497,39.777393],[-104.90366,39.77482],[-104.9035,39.773312],[-104.903439,39.761984],[-104.940578,39.761958],[-104.940569,39.787933],[-104.940495,39.789469],[-104.940088,39.790975],[-104.92695,39.791039],[-104.926981,39.783776],[-104.903511,39.783823]]]},"properties":{"name":"Northeast Park Hill","basis":"Heutiger Denver-Stadtteil als getrennte geografische Referenz","boundary_role":"reference-neighborhood","source":"Code for Germany / Click That Hood","source_url":"https://github.com/codeforgermany/click_that_hood"}},{"type":"Feature","geometry":{"type":"Polygon","coordinates":[[[-104.987431,39.696634],[-104.987572,39.667683],[-105.000186,39.667674],[-105.000195,39.668111],[-104.999152,39.668706],[-104.998629,39.669294],[-104.997467,39.672492],[-104.997315,39.673541],[-104.99768,39.675218],[-104.998029,39.678779],[-104.998352,39.67967],[-104.999159,39.680645],[-105.000941,39.681414],[-105.001413,39.682271],[-105.001394,39.68331],[-104.99961,39.689548],[-104.998493,39.690458],[-104.995452,39.691728],[-104.994191,39.692598],[-104.993322,39.693975],[-104.992384,39.696661],[-104.987431,39.696634]]]},"properties":{"name":"Overland","basis":"Heutiger Denver-Stadtteil als getrennte geografische Referenz","boundary_role":"reference-neighborhood","source":"Code for Germany / Click That Hood","source_url":"https://github.com/codeforgermany/click_that_hood"}},{"type":"Feature","geometry":{"type":"Polygon","coordinates":[[[-104.973424,39.689824],[-104.973431,39.678513],[-104.987567,39.67852],[-104.987431,39.696634],[-104.982218,39.696658],[-104.976161,39.691395],[-104.973424,39.689824]]]},"properties":{"name":"Platt Park","basis":"Heutiger Denver-Stadtteil als getrennte geografische Referenz","boundary_role":"reference-neighborhood","source":"Code for Germany / Click That Hood","source_url":"https://github.com/codeforgermany/click_that_hood"}},{"type":"Feature","geometry":{"type":"Polygon","coordinates":[[[-105.029959,39.792032],[-105.029951,39.791126],[-105.025191,39.791115],[-105.025192,39.784385],[-105.033132,39.7834],[-105.03627,39.78358],[-105.043308,39.783589],[-105.044745,39.7838],[-105.04771,39.785026],[-105.048863,39.785149],[-105.050709,39.784817],[-105.053244,39.783672],[-105.053244,39.783814],[-105.062659,39.783848],[-105.062652,39.788349],[-105.064905,39.788358],[-105.064901,39.79032],[-105.064314,39.79032],[-105.064312,39.79108],[-105.062646,39.791078],[-105.062647,39.79051],[-105.061797,39.790501],[-105.061482,39.791076],[-105.034506,39.791143],[-105.034518,39.792049],[-105.029959,39.792032]]]},"properties":{"name":"Regis","basis":"Heutiger Denver-Stadtteil als getrennte geografische Referenz","boundary_role":"reference-neighborhood","source":"Code for Germany / Click That Hood","source_url":"https://github.com/codeforgermany/click_that_hood"}},{"type":"Feature","geometry":{"type":"Polygon","coordinates":[[[-104.973431,39.678513],[-104.973486,39.667676],[-104.987572,39.667683],[-104.987567,39.67852],[-104.973431,39.678513]]]},"properties":{"name":"Rosedale","basis":"Heutiger Denver-Stadtteil als getrennte geografische Referenz","boundary_role":"reference-neighborhood","source":"Code for Germany / Click That Hood","source_url":"https://github.com/codeforgermany/click_that_hood"}},{"type":"Feature","geometry":{"type":"Polygon","coordinates":[[[-104.992384,39.696661],[-104.993322,39.693975],[-104.994191,39.692598],[-104.995452,39.691728],[-104.998322,39.690552],[-104.999546,39.689656],[-105.001394,39.68331],[-105.001395,39.682168],[-105.025038,39.682271],[-105.025059,39.696747],[-104.992384,39.696661]]]},"properties":{"name":"Ruby Hill","basis":"Heutiger Denver-Stadtteil als getrennte geografische Referenz","boundary_role":"reference-neighborhood","source":"Code for Germany / Click That Hood","source_url":"https://github.com/codeforgermany/click_that_hood"}},{"type":"Feature","geometry":{"type":"Polygon","coordinates":[[[-104.940621,39.751037],[-104.954505,39.751165],[-104.959767,39.750718],[-104.959753,39.761992],[-104.945027,39.76193],[-104.942911,39.761715],[-104.940578,39.761958],[-104.940621,39.751037]]]},"properties":{"name":"Skyland","basis":"Heutiger Denver-Stadtteil als getrennte geografische Referenz","boundary_role":"reference-neighborhood","source":"Code for Germany / Click That Hood","source_url":"https://github.com/codeforgermany/click_that_hood"}},{"type":"Feature","geometry":{"type":"Polygon","coordinates":[[[-105.025234,39.758477],[-105.025214,39.746364],[-105.035771,39.746379],[-105.035766,39.743952],[-105.053212,39.743981],[-105.05324,39.758474],[-105.025234,39.758477]]]},"properties":{"name":"Sloan Lake","basis":"Heutiger Denver-Stadtteil als getrennte geografische Referenz","boundary_role":"reference-neighborhood","source":"Code for Germany / Click That Hood","source_url":"https://github.com/codeforgermany/click_that_hood"}},{"type":"Feature","geometry":{"type":"Polygon","coordinates":[[[-104.903428,39.751017],[-104.903455,39.740146],[-104.940664,39.740129],[-104.940621,39.751037],[-104.903428,39.751017]]]},"properties":{"name":"South Park Hill","basis":"Heutiger Denver-Stadtteil als getrennte geografische Referenz","boundary_role":"reference-neighborhood","source":"Code for Germany / Click That Hood","source_url":"https://github.com/codeforgermany/click_that_hood"}},{"type":"Feature","geometry":{"type":"Polygon","coordinates":[[[-104.901864,39.624093],[-104.913407,39.624083],[-104.913227,39.638649],[-104.922496,39.645849],[-104.931873,39.645826],[-104.931713,39.653046],[-104.918448,39.653081],[-104.916676,39.649688],[-104.901864,39.624093]],[[-104.903285,39.625954],[-104.903917,39.626829],[-104.903909,39.624186],[-104.902796,39.624304],[-104.903285,39.625954]]]},"properties":{"name":"Southmoor Park","basis":"Heutiger Denver-Stadtteil als getrennte geografische Referenz","boundary_role":"reference-neighborhood","source":"Code for Germany / Click That Hood","source_url":"https://github.com/codeforgermany/click_that_hood"}},{"type":"Feature","geometry":{"type":"Polygon","coordinates":[[[-104.973249,39.719435],[-104.973145,39.71473],[-104.973392,39.714729],[-104.973393,39.711109],[-104.987575,39.711158],[-104.987415,39.727276],[-104.972939,39.727284],[-104.972911,39.720232],[-104.973249,39.719435]]]},"properties":{"name":"Speer","basis":"Heutiger Denver-Stadtteil als getrennte geografische Referenz","boundary_role":"reference-neighborhood","source":"Code for Germany / Click That Hood","source_url":"https://github.com/codeforgermany/click_that_hood"}},{"type":"Feature","geometry":{"type":"Polygon","coordinates":[[[-104.866035,39.798411],[-104.865887,39.775843],[-104.828163,39.772577],[-104.828173,39.769158],[-104.832869,39.769173],[-104.83287,39.766367],[-104.83759,39.76716],[-104.856404,39.768569],[-104.856338,39.758131],[-104.855482,39.75781],[-104.854314,39.758075],[-104.850778,39.756771],[-104.848219,39.756434],[-104.848013,39.755467],[-104.847739,39.755263],[-104.846869,39.755233],[-104.846864,39.754724],[-104.879935,39.754744],[-104.879941,39.747452],[-104.898767,39.747443],[-104.898735,39.751017],[-104.903428,39.751017],[-104.9035,39.773312],[-104.90366,39.77482],[-104.903497,39.777393],[-104.903555,39.798394],[-104.901419,39.798392],[-104.901417,39.800204],[-104.899068,39.800203],[-104.89907,39.798391],[-104.88445,39.798383],[-104.884405,39.812815],[-104.866261,39.812846],[-104.866213,39.798411],[-104.866035,39.798411]]]},"properties":{"name":"Stapleton","basis":"Heutiger Denver-Stadtteil als getrennte geografische Referenz","boundary_role":"reference-neighborhood","source":"Code for Germany / Click That Hood","source_url":"https://github.com/codeforgermany/click_that_hood"}},{"type":"Feature","geometry":{"type":"Polygon","coordinates":[[[-105.016261,39.74339],[-105.017963,39.738983],[-105.018062,39.738097],[-105.017026,39.735298],[-105.016967,39.729832],[-105.015675,39.727511],[-105.015769,39.725503],[-105.018678,39.72532],[-105.025136,39.725543],[-105.025214,39.746364],[-105.023625,39.746362],[-105.023616,39.74759],[-105.020509,39.7476],[-105.020483,39.746392],[-105.01832,39.74638],[-105.017865,39.745159],[-105.016261,39.74339]]]},"properties":{"name":"Sun Valley","basis":"Heutiger Denver-Stadtteil als getrennte geografische Referenz","boundary_role":"reference-neighborhood","source":"Code for Germany / Click That Hood","source_url":"https://github.com/codeforgermany/click_that_hood"}},{"type":"Feature","geometry":{"type":"Polygon","coordinates":[[[-104.998176,39.782565],[-104.998203,39.769297],[-105.025239,39.769289],[-105.025192,39.784385],[-105.019763,39.783718],[-105.010517,39.783594],[-105.007044,39.78326],[-105.002421,39.783648],[-104.998176,39.782565]]]},"properties":{"name":"Sunnyside","basis":"Heutiger Denver-Stadtteil als getrennte geografische Referenz","boundary_role":"reference-neighborhood","source":"Code for Germany / Click That Hood","source_url":"https://github.com/codeforgermany/click_that_hood"}},{"type":"Feature","geometry":{"type":"Polygon","coordinates":[[[-104.991691,39.752289],[-105.000422,39.74552],[-105.000472,39.746725],[-105.001468,39.748552],[-105.007771,39.753446],[-105.008186,39.754792],[-105.005944,39.757347],[-105.005612,39.758073],[-105.004025,39.759808],[-105.003169,39.760406],[-104.999548,39.758474],[-104.991691,39.752289]]]},"properties":{"name":"Union Station","basis":"Heutiger Denver-Stadtteil als getrennte geografische Referenz","boundary_role":"reference-neighborhood","source":"Code for Germany / Click That Hood","source_url":"https://github.com/codeforgermany/click_that_hood"}},{"type":"Feature","geometry":{"type":"Polygon","coordinates":[[[-104.959447,39.684729],[-104.959441,39.661591],[-104.963066,39.661579],[-104.963038,39.660378],[-104.968828,39.660431],[-104.968804,39.665851],[-104.973464,39.665863],[-104.973424,39.689824],[-104.964238,39.685342],[-104.962157,39.684809],[-104.959447,39.684729]]]},"properties":{"name":"University","basis":"Heutiger Denver-Stadtteil als getrennte geografische Referenz","boundary_role":"reference-neighborhood","source":"Code for Germany / Click That Hood","source_url":"https://github.com/codeforgermany/click_that_hood"}},{"type":"Feature","geometry":{"type":"Polygon","coordinates":[[[-104.935579,39.680285],[-104.93076,39.67478],[-104.92371,39.664627],[-104.918448,39.653081],[-104.94068,39.653054],[-104.940557,39.659329],[-104.940687,39.660281],[-104.940687,39.682962],[-104.938237,39.682133],[-104.936659,39.681201],[-104.935579,39.680285]],[[-104.93162,39.673362],[-104.933885,39.673347],[-104.933878,39.671192],[-104.933031,39.671193],[-104.933028,39.670575],[-104.931714,39.670577],[-104.93161,39.671195],[-104.931594,39.667569],[-104.930428,39.66757],[-104.930428,39.668476],[-104.929256,39.668478],[-104.929255,39.66939],[-104.928074,39.669392],[-104.928081,39.668966],[-104.927201,39.668965],[-104.929651,39.672382],[-104.93078,39.672388],[-104.930777,39.67281],[-104.931617,39.672808],[-104.93162,39.673362]]]},"properties":{"name":"University Hills","basis":"Heutiger Denver-Stadtteil als getrennte geografische Referenz","boundary_role":"reference-neighborhood","source":"Code for Germany / Click That Hood","source_url":"https://github.com/codeforgermany/click_that_hood"}},{"type":"Feature","geometry":{"type":"Polygon","coordinates":[[[-104.940687,39.682962],[-104.94068,39.667561],[-104.946065,39.667559],[-104.948509,39.666941],[-104.949644,39.667076],[-104.950783,39.667545],[-104.959379,39.667595],[-104.959447,39.684729],[-104.948619,39.684637],[-104.946177,39.684304],[-104.940687,39.682962]]]},"properties":{"name":"University Park","basis":"Heutiger Denver-Stadtteil als getrennte geografische Referenz","boundary_role":"reference-neighborhood","source":"Code for Germany / Click That Hood","source_url":"https://github.com/codeforgermany/click_that_hood"}},{"type":"Feature","geometry":{"type":"Polygon","coordinates":[[[-105.015769,39.725503],[-105.015836,39.724659],[-105.01527,39.723985],[-105.0127,39.722439],[-105.009633,39.721504],[-105.006676,39.718579],[-105.003369,39.716501],[-105.002548,39.715804],[-105.001825,39.714844],[-105.000143,39.711203],[-105.025093,39.711175],[-105.025136,39.725543],[-105.018678,39.72532],[-105.015769,39.725503]]]},"properties":{"name":"Valverde","basis":"Heutiger Denver-Stadtteil als getrennte geografische Referenz","boundary_role":"reference-neighborhood","source":"Code for Germany / Click That Hood","source_url":"https://github.com/codeforgermany/click_that_hood"}},{"type":"Feature","geometry":{"type":"Polygon","coordinates":[[[-105.037499,39.734123],[-105.035695,39.734931],[-105.035087,39.735826],[-105.034797,39.735958],[-105.033771,39.73529],[-105.032011,39.73497],[-105.031096,39.735382],[-105.026912,39.735952],[-105.025175,39.736594],[-105.025136,39.725543],[-105.053254,39.725801],[-105.053242,39.733107],[-105.054419,39.733103],[-105.054422,39.73364],[-105.055013,39.733719],[-105.055009,39.733101],[-105.055596,39.733099],[-105.055586,39.734912],[-105.053233,39.734876],[-105.051966,39.735066],[-105.051686,39.734947],[-105.051052,39.735413],[-105.050062,39.73517],[-105.049004,39.735439],[-105.04892,39.735256],[-105.048143,39.735188],[-105.047597,39.735364],[-105.04703,39.734937],[-105.04529,39.734829],[-105.04208,39.735058],[-105.041716,39.734682],[-105.0394,39.734378],[-105.038354,39.733981],[-105.037897,39.734179],[-105.037499,39.734123]]]},"properties":{"name":"Villa Park","basis":"Heutiger Denver-Stadtteil als getrennte geografische Referenz","boundary_role":"reference-neighborhood","source":"Code for Germany / Click That Hood","source_url":"https://github.com/codeforgermany/click_that_hood"}},{"type":"Feature","geometry":{"type":"MultiPolygon","coordinates":[[[[-104.935906,39.697843],[-104.935912,39.696584],[-104.928213,39.696605],[-104.923312,39.696825],[-104.921357,39.696038],[-104.920711,39.695451],[-104.917524,39.693804],[-104.917173,39.693315],[-104.915456,39.692288],[-104.914335,39.691941],[-104.913499,39.691268],[-104.909776,39.689309],[-104.909445,39.688743],[-104.907755,39.687878],[-104.90704,39.687719],[-104.906737,39.687352],[-104.905236,39.68666],[-104.904571,39.68596],[-104.903431,39.685458],[-104.903514,39.684756],[-104.905163,39.685714],[-104.905157,39.683896],[-104.904603,39.683896],[-104.904591,39.680272],[-104.908095,39.68027],[-104.908094,39.679807],[-104.906982,39.679809],[-104.906984,39.678796],[-104.906116,39.67848],[-104.906253,39.678443],[-104.933977,39.678446],[-104.935579,39.680285],[-104.936659,39.681201],[-104.938237,39.682133],[-104.940687,39.682962],[-104.940555,39.695404],[-104.939511,39.695402],[-104.93951,39.69476],[-104.93626,39.694767],[-104.93642,39.697842],[-104.935906,39.697843]],[[-104.91092,39.682075],[-104.91092,39.679892],[-104.908203,39.679883],[-104.908201,39.682076],[-104.91092,39.682075]]],[[[-104.931728,39.698423],[-104.934071,39.6984],[-104.934056,39.700168],[-104.93172,39.70017],[-104.931728,39.698423]]]]},"properties":{"name":"Virginia Village","basis":"Heutiger Denver-Stadtteil als getrennte geografische Referenz","boundary_role":"reference-neighborhood","source":"Code for Germany / Click That Hood","source_url":"https://github.com/codeforgermany/click_that_hood"}},{"type":"Feature","geometry":{"type":"Polygon","coordinates":[[[-104.959309,39.715657],[-104.959447,39.684729],[-104.961744,39.684768],[-104.963168,39.684998],[-104.964646,39.685514],[-104.973424,39.689824],[-104.973392,39.714729],[-104.973145,39.71473],[-104.973248,39.718404],[-104.970136,39.717529],[-104.967567,39.715205],[-104.965875,39.714234],[-104.964839,39.714217],[-104.963024,39.715064],[-104.961588,39.715434],[-104.959309,39.715657]]]},"properties":{"name":"Washington Park","basis":"Heutiger Denver-Stadtteil als getrennte geografische Referenz","boundary_role":"reference-neighborhood","source":"Code for Germany / Click That Hood","source_url":"https://github.com/codeforgermany/click_that_hood"}},{"type":"Feature","geometry":{"type":"Polygon","coordinates":[[[-104.973424,39.689824],[-104.976161,39.691395],[-104.982218,39.696658],[-104.987431,39.696634],[-104.987575,39.711158],[-104.973393,39.711109],[-104.973424,39.689824]]]},"properties":{"name":"Washington Park West","basis":"Heutiger Denver-Stadtteil als getrennte geografische Referenz","boundary_role":"reference-neighborhood","source":"Code for Germany / Click That Hood","source_url":"https://github.com/codeforgermany/click_that_hood"}},{"type":"Feature","geometry":{"type":"Polygon","coordinates":[[[-104.926986,39.7067],[-104.929118,39.706787],[-104.92912,39.706411],[-104.929537,39.706413],[-104.929546,39.708511],[-104.926983,39.708113],[-104.931683,39.709127],[-104.931566,39.711209],[-104.903495,39.711282],[-104.903508,39.696627],[-104.900104,39.692956],[-104.90351,39.692989],[-104.903431,39.685458],[-104.904571,39.68596],[-104.905236,39.68666],[-104.906737,39.687352],[-104.90704,39.687719],[-104.907755,39.687878],[-104.909445,39.688743],[-104.909776,39.689309],[-104.913499,39.691268],[-104.91441,39.691983],[-104.915456,39.692288],[-104.917173,39.693315],[-104.917524,39.693804],[-104.920711,39.695451],[-104.921482,39.6961],[-104.923312,39.696825],[-104.928213,39.696635],[-104.928209,39.698424],[-104.928796,39.698419],[-104.92878,39.700227],[-104.932883,39.700304],[-104.932883,39.701321],[-104.934053,39.701312],[-104.934045,39.703759],[-104.932857,39.703615],[-104.932883,39.702048],[-104.931712,39.702057],[-104.931705,39.703858],[-104.926992,39.703858],[-104.926986,39.7067]],[[-104.929311,39.702037],[-104.929313,39.701272],[-104.928299,39.701274],[-104.929024,39.701928],[-104.929311,39.702037]]]},"properties":{"name":"Washington Virginia Vale","basis":"Heutiger Denver-Stadtteil als getrennte geografische Referenz","boundary_role":"reference-neighborhood","source":"Code for Germany / Click That Hood","source_url":"https://github.com/codeforgermany/click_that_hood"}},{"type":"Feature","geometry":{"type":"Polygon","coordinates":[[[-104.94068,39.667561],[-104.94068,39.653054],[-104.954965,39.653085],[-104.954399,39.65579],[-104.953515,39.655869],[-104.953789,39.656715],[-104.959453,39.656718],[-104.959379,39.667595],[-104.950783,39.667545],[-104.949644,39.667076],[-104.948509,39.666941],[-104.946065,39.667559],[-104.94068,39.667561]]]},"properties":{"name":"Wellshire","basis":"Heutiger Denver-Stadtteil als getrennte geografische Referenz","boundary_role":"reference-neighborhood","source":"Code for Germany / Click That Hood","source_url":"https://github.com/codeforgermany/click_that_hood"}},{"type":"Feature","geometry":{"type":"Polygon","coordinates":[[[-105.025214,39.746364],[-105.025175,39.736594],[-105.026036,39.736179],[-105.029272,39.735536],[-105.031096,39.735382],[-105.032011,39.73497],[-105.033771,39.73529],[-105.034797,39.735958],[-105.035087,39.735826],[-105.035876,39.734816],[-105.036816,39.734318],[-105.038295,39.733981],[-105.0394,39.734378],[-105.041716,39.734682],[-105.04208,39.735058],[-105.04529,39.734829],[-105.04703,39.734937],[-105.047597,39.735364],[-105.048143,39.735188],[-105.04892,39.735256],[-105.049004,39.735439],[-105.050062,39.73517],[-105.050982,39.735415],[-105.051474,39.734987],[-105.053233,39.734876],[-105.053212,39.743981],[-105.035766,39.743952],[-105.035771,39.746379],[-105.025214,39.746364]]]},"properties":{"name":"West Colfax","basis":"Heutiger Denver-Stadtteil als getrennte geografische Referenz","boundary_role":"reference-neighborhood","source":"Code for Germany / Click That Hood","source_url":"https://github.com/codeforgermany/click_that_hood"}},{"type":"Feature","geometry":{"type":"Polygon","coordinates":[[[-105.025239,39.769289],[-105.025234,39.758477],[-105.05324,39.758474],[-105.053241,39.769334],[-105.034643,39.769548],[-105.025239,39.769289]]]},"properties":{"name":"West Highland","basis":"Heutiger Denver-Stadtteil als getrennte geografische Referenz","boundary_role":"reference-neighborhood","source":"Code for Germany / Click That Hood","source_url":"https://github.com/codeforgermany/click_that_hood"}},{"type":"Feature","geometry":{"type":"Polygon","coordinates":[[[-105.053264,39.711344],[-105.025093,39.711175],[-105.025059,39.696747],[-105.032074,39.696732],[-105.035073,39.697235],[-105.036706,39.696758],[-105.053231,39.69677],[-105.053264,39.711344]]]},"properties":{"name":"Westwood","basis":"Heutiger Denver-Stadtteil als getrennte geografische Referenz","boundary_role":"reference-neighborhood","source":"Code for Germany / Click That Hood","source_url":"https://github.com/codeforgermany/click_that_hood"}},{"type":"Feature","geometry":{"type":"Polygon","coordinates":[[[-104.959767,39.750718],[-104.973358,39.750724],[-104.97334,39.762048],[-104.959753,39.761992],[-104.959767,39.750718]]]},"properties":{"name":"Whittier","basis":"Heutiger Denver-Stadtteil als getrennte geografische Referenz","boundary_role":"reference-neighborhood","source":"Code for Germany / Click That Hood","source_url":"https://github.com/codeforgermany/click_that_hood"}},{"type":"Feature","geometry":{"type":"Polygon","coordinates":[[[-104.88313,39.707057],[-104.865974,39.711053],[-104.865969,39.703904],[-104.868592,39.703113],[-104.869541,39.701205],[-104.870654,39.700667],[-104.87065,39.698363],[-104.868205,39.698365],[-104.868208,39.70018],[-104.86715,39.700179],[-104.867147,39.699275],[-104.865965,39.699278],[-104.865963,39.696559],[-104.87531,39.696556],[-104.875318,39.698438],[-104.877723,39.698446],[-104.877732,39.696559],[-104.894095,39.696594],[-104.894093,39.695889],[-104.894767,39.695892],[-104.894769,39.696596],[-104.896819,39.696604],[-104.899158,39.695366],[-104.90038,39.696551],[-104.899749,39.697155],[-104.903545,39.698536],[-104.903495,39.711282],[-104.892371,39.71112],[-104.88601,39.707305],[-104.884426,39.706915],[-104.88313,39.707057]]]},"properties":{"name":"Windsor","basis":"Heutiger Denver-Stadtteil als getrennte geografische Referenz","boundary_role":"reference-neighborhood","source":"Code for Germany / Click That Hood","source_url":"https://github.com/codeforgermany/click_that_hood"}}]}
