{"type":"FeatureCollection","name":"Denver äußere DMZ","features":[{"type":"Feature","geometry":{"type":"Polygon","coordinates":[[[-105.34691666286324,40.10964538803729],[-105.04987420371444,40.15061676171299],[-104.67597549074252,40.08998453798781],[-104.40970940895814,39.90564648136785],[-104.3894811011123,39.379710477375724],[-104.45021861773898,38.73184363335745],[-104.77941385084553,38.63925747404623],[-105.20666616738765,38.71046619346992],[-105.38031726075957,39.01690929942035],[-105.44066637210217,39.92214596955944],[-105.34691666286324,40.10964538803729]],[[-105.37,39.02],[-105.2,38.72],[-104.78,38.65],[-104.46,38.74],[-104.4,39.38],[-104.42,39.9],[-104.68,40.08],[-105.05,40.14],[-105.34,40.1],[-105.43,39.92],[-105.37,39.02]]]},"properties":{"name":"Äußere DMZ der Front Range Free Zone","basis":"Etwa ein Kilometer breiter, vollständig umlaufender Grenzstreifen außerhalb der FRFZ","boundary_role":"lore-dmz","lore_source":"The Third Parallel, S. 12–13 (SR6)","source":"U.S. Census Bureau TIGERweb","source_url":"https://tigerweb.geo.census.gov/arcgis/rest/services/TIGERweb/Places_CouSub_ConCity_SubMCD/MapServer/4/query","boundary_review_status":"source-aligned","boundary_review_label":"Quellenabgeglichene Breite; mangels publizierter Vermessung bleibt der exakte Verlauf modelliert"}}]}
