{"type":"FeatureCollection","name":"Denver – geprüfte zusätzliche Quellenorte","features":[{"type":"Feature","geometry":null,"properties":{"id":220,"global_id":"denver:source-place:air-space-museum","name":"Air & Space Museum","aliases":[],"category":"Sonstige Spots","detail_map":"Denver","source_pages":"Textzeile 3516","map_source":"The Third Parallel (Denver Campaign)","placement_note":"Keine belastbare Einzelposition; Eintrag bleibt im Katalog","accuracy":"Nur Stadt oder Lore-Teilraum belegt","source_map":"source-supplement","source_panel":"Denver","description_preview":"Air & Space Museum ist in The Third Parallel (Denver Campaign) als benannter Schauplatz mit Bezug zu Denver belegt.","description_full":"Air & Space Museum ist in The Third Parallel (Denver Campaign) als benannter Schauplatz mit Bezug zu Denver belegt. Das Dossier fasst den belegten Quellenstand redaktionell zusammen; eine nicht belegte Kartenposition wird nicht ergänzt.","description_source":"Textzeile 3516","description_kind":"Ortsdossier","description_has_more":true,"detail_plans":[],"alternate_locations":[],"sources":[{"bookId":"sr6-the-third-parallel-denver-campaign","title":"The Third Parallel (Denver Campaign)","edition":"SR6","citation":"Textzeile 3516","purpose":"description"}],"map_sources":[],"editions":["SR6"],"edition_descriptions":{"SR6":{"kind":"Ortsdossier","preview":"Air & Space Museum ist in The Third Parallel (Denver Campaign) als benannter Schauplatz mit Bezug zu Denver belegt.","full":"Air & Space Museum ist in The Third Parallel (Denver Campaign) als benannter Schauplatz mit Bezug zu Denver belegt. Das Dossier fasst den belegten Quellenstand redaktionell zusammen; eine nicht belegte Kartenposition wird nicht ergänzt.","hasMore":true,"hasExcerpt":true,"sources":[{"bookId":"sr6-the-third-parallel-denver-campaign","title":"The Third Parallel (Denver Campaign)","edition":"SR6","citation":"Textzeile 3516","purpose":"description"}]}}}},{"type":"Feature","geometry":null,"properties":{"id":221,"global_id":"denver:source-place:brokerage-headquarters","name":"Brokerage Headquarters","aliases":[],"category":"Konzerne und markante Bauwerke","detail_map":"Denver","source_pages":"Textzeile 4144","map_source":"The Third Parallel (Denver Campaign)","placement_note":"Keine belastbare Einzelposition; Eintrag bleibt im Katalog","accuracy":"Nur Stadt oder Lore-Teilraum belegt","source_map":"source-supplement","source_panel":"Denver","description_preview":"Brokerage Headquarters ist in The Third Parallel (Denver Campaign) als benannter Schauplatz mit Bezug zu Denver belegt.","description_full":"Brokerage Headquarters ist in The Third Parallel (Denver Campaign) als benannter Schauplatz mit Bezug zu Denver belegt. Das Dossier fasst den belegten Quellenstand redaktionell zusammen; eine nicht belegte Kartenposition wird nicht ergänzt.","description_source":"Textzeile 4144","description_kind":"Ortsdossier","description_has_more":true,"detail_plans":[],"alternate_locations":[],"sources":[{"bookId":"sr6-the-third-parallel-denver-campaign","title":"The Third Parallel (Denver Campaign)","edition":"SR6","citation":"Textzeile 4144","purpose":"description"}],"map_sources":[],"editions":["SR6"],"edition_descriptions":{"SR6":{"kind":"Ortsdossier","preview":"Brokerage Headquarters ist in The Third Parallel (Denver Campaign) als benannter Schauplatz mit Bezug zu Denver belegt.","full":"Brokerage Headquarters ist in The Third Parallel (Denver Campaign) als benannter Schauplatz mit Bezug zu Denver belegt. Das Dossier fasst den belegten Quellenstand redaktionell zusammen; eine nicht belegte Kartenposition wird nicht ergänzt.","hasMore":true,"hasExcerpt":true,"sources":[{"bookId":"sr6-the-third-parallel-denver-campaign","title":"The Third Parallel (Denver Campaign)","edition":"SR6","citation":"Textzeile 4144","purpose":"description"}]}}}},{"type":"Feature","geometry":null,"properties":{"id":222,"global_id":"denver:source-place:club-charybdis","name":"Club Charybdis","aliases":[],"category":"Bars, Clubs und Gastronomie","detail_map":"Denver","source_pages":"Textzeile 10458","map_source":"The Third Parallel (Denver Campaign)","placement_note":"Keine belastbare Einzelposition; Eintrag bleibt im Katalog","accuracy":"Nur Stadt oder Lore-Teilraum belegt","source_map":"source-supplement","source_panel":"Denver","description_preview":"Club Charybdis ist in The Third Parallel (Denver Campaign) als benannter Schauplatz mit Bezug zu Denver belegt.","description_full":"Club Charybdis ist in The Third Parallel (Denver Campaign) als benannter Schauplatz mit Bezug zu Denver belegt. Das Dossier fasst den belegten Quellenstand redaktionell zusammen; eine nicht belegte Kartenposition wird nicht ergänzt.","description_source":"Textzeile 10458","description_kind":"Ortsdossier","description_has_more":true,"detail_plans":[],"alternate_locations":[],"sources":[{"bookId":"sr6-the-third-parallel-denver-campaign","title":"The Third Parallel (Denver Campaign)","edition":"SR6","citation":"Textzeile 10458","purpose":"description"}],"map_sources":[],"editions":["SR6"],"edition_descriptions":{"SR6":{"kind":"Ortsdossier","preview":"Club Charybdis ist in The Third Parallel (Denver Campaign) als benannter Schauplatz mit Bezug zu Denver belegt.","full":"Club Charybdis ist in The Third Parallel (Denver Campaign) als benannter Schauplatz mit Bezug zu Denver belegt. Das Dossier fasst den belegten Quellenstand redaktionell zusammen; eine nicht belegte Kartenposition wird nicht ergänzt.","hasMore":true,"hasExcerpt":true,"sources":[{"bookId":"sr6-the-third-parallel-denver-campaign","title":"The Third Parallel (Denver Campaign)","edition":"SR6","citation":"Textzeile 10458","purpose":"description"}]}}}},{"type":"Feature","geometry":null,"properties":{"id":223,"global_id":"denver:source-place:data-haven","name":"Data Haven","aliases":[],"category":"Sonstige Spots","detail_map":"Denver","source_pages":"Textzeile 5832","map_source":"Falling Point (State of the World)","placement_note":"Keine belastbare Einzelposition; Eintrag bleibt im Katalog","accuracy":"Nur Stadt oder Lore-Teilraum belegt","source_map":"source-supplement","source_panel":"Denver","description_preview":"Data Haven ist in Falling Point (State of the World) als benannter Schauplatz mit Bezug zu Denver belegt.","description_full":"Data Haven ist in Falling Point (State of the World) als benannter Schauplatz mit Bezug zu Denver belegt. Das Dossier fasst den belegten Quellenstand redaktionell zusammen; eine nicht belegte Kartenposition wird nicht ergänzt.","description_source":"Textzeile 5832","description_kind":"Ortsdossier","description_has_more":true,"detail_plans":[],"alternate_locations":[],"sources":[{"bookId":"sr6-falling-point-state-of-the-world","title":"Falling Point (State of the World)","edition":"SR6","citation":"Textzeile 5832","purpose":"description"}],"map_sources":[],"editions":["SR6"],"edition_descriptions":{"SR6":{"kind":"Ortsdossier","preview":"Data Haven ist in Falling Point (State of the World) als benannter Schauplatz mit Bezug zu Denver belegt.","full":"Data Haven ist in Falling Point (State of the World) als benannter Schauplatz mit Bezug zu Denver belegt. Das Dossier fasst den belegten Quellenstand redaktionell zusammen; eine nicht belegte Kartenposition wird nicht ergänzt.","hasMore":true,"hasExcerpt":true,"sources":[{"bookId":"sr6-falling-point-state-of-the-world","title":"Falling Point (State of the World)","edition":"SR6","citation":"Textzeile 5832","purpose":"description"}]}}}},{"type":"Feature","geometry":null,"properties":{"id":224,"global_id":"denver:source-place:free-zone-meats","name":"Free Zone Meats","aliases":[],"category":"Bezirke und Lore-Gebiete","detail_map":"Denver","source_pages":"Textzeile 6429","map_source":"The Third Parallel (Denver Campaign)","placement_note":"Keine belastbare Einzelposition; Eintrag bleibt im Katalog","accuracy":"Nur Stadt oder Lore-Teilraum belegt","source_map":"source-supplement","source_panel":"Denver","description_preview":"Free Zone Meats ist in The Third Parallel (Denver Campaign) als benannter Schauplatz mit Bezug zu Denver belegt.","description_full":"Free Zone Meats ist in The Third Parallel (Denver Campaign) als benannter Schauplatz mit Bezug zu Denver belegt. Das Dossier fasst den belegten Quellenstand redaktionell zusammen; eine nicht belegte Kartenposition wird nicht ergänzt.","description_source":"Textzeile 6429","description_kind":"Ortsdossier","description_has_more":true,"detail_plans":[],"alternate_locations":[],"sources":[{"bookId":"sr6-the-third-parallel-denver-campaign","title":"The Third Parallel (Denver Campaign)","edition":"SR6","citation":"Textzeile 6429","purpose":"description"}],"map_sources":[],"editions":["SR6"],"edition_descriptions":{"SR6":{"kind":"Ortsdossier","preview":"Free Zone Meats ist in The Third Parallel (Denver Campaign) als benannter Schauplatz mit Bezug zu Denver belegt.","full":"Free Zone Meats ist in The Third Parallel (Denver Campaign) als benannter Schauplatz mit Bezug zu Denver belegt. Das Dossier fasst den belegten Quellenstand redaktionell zusammen; eine nicht belegte Kartenposition wird nicht ergänzt.","hasMore":true,"hasExcerpt":true,"sources":[{"bookId":"sr6-the-third-parallel-denver-campaign","title":"The Third Parallel (Denver Campaign)","edition":"SR6","citation":"Textzeile 6429","purpose":"description"}]}}}},{"type":"Feature","geometry":null,"properties":{"id":225,"global_id":"denver:source-place:free-zone-voice-parashield","name":"Free Zone Voice ParaShield","aliases":[],"category":"Bezirke und Lore-Gebiete","detail_map":"Denver","source_pages":"Textzeile 6002","map_source":"The Third Parallel (Denver Campaign)","placement_note":"Keine belastbare Einzelposition; Eintrag bleibt im Katalog","accuracy":"Nur Stadt oder Lore-Teilraum belegt","source_map":"source-supplement","source_panel":"Denver","description_preview":"Free Zone Voice ParaShield ist in The Third Parallel (Denver Campaign) als benannter Schauplatz mit Bezug zu Denver belegt.","description_full":"Free Zone Voice ParaShield ist in The Third Parallel (Denver Campaign) als benannter Schauplatz mit Bezug zu Denver belegt. Das Dossier fasst den belegten Quellenstand redaktionell zusammen; eine nicht belegte Kartenposition wird nicht ergänzt.","description_source":"Textzeile 6002","description_kind":"Ortsdossier","description_has_more":true,"detail_plans":[],"alternate_locations":[],"sources":[{"bookId":"sr6-the-third-parallel-denver-campaign","title":"The Third Parallel (Denver Campaign)","edition":"SR6","citation":"Textzeile 6002","purpose":"description"}],"map_sources":[],"editions":["SR6"],"edition_descriptions":{"SR6":{"kind":"Ortsdossier","preview":"Free Zone Voice ParaShield ist in The Third Parallel (Denver Campaign) als benannter Schauplatz mit Bezug zu Denver belegt.","full":"Free Zone Voice ParaShield ist in The Third Parallel (Denver Campaign) als benannter Schauplatz mit Bezug zu Denver belegt. Das Dossier fasst den belegten Quellenstand redaktionell zusammen; eine nicht belegte Kartenposition wird nicht ergänzt.","hasMore":true,"hasExcerpt":true,"sources":[{"bookId":"sr6-the-third-parallel-denver-campaign","title":"The Third Parallel (Denver Campaign)","edition":"SR6","citation":"Textzeile 6002","purpose":"description"}]}}}},{"type":"Feature","geometry":null,"properties":{"id":226,"global_id":"denver:source-place:hippocrates-clinic-host","name":"Hippocrates Clinic Host","aliases":[],"category":"Medizin und Versorgung","detail_map":"Denver","source_pages":"Textzeile 2710","map_source":"Denver Adventure 1 - Serrated Edge","placement_note":"Keine belastbare Einzelposition; Eintrag bleibt im Katalog","accuracy":"Nur Stadt oder Lore-Teilraum belegt","source_map":"source-supplement","source_panel":"Denver","description_preview":"Hippocrates Clinic Host ist in Denver Adventure 1 - Serrated Edge als benannter Schauplatz mit Bezug zu Denver belegt.","description_full":"Hippocrates Clinic Host ist in Denver Adventure 1 - Serrated Edge als benannter Schauplatz mit Bezug zu Denver belegt. Das Dossier fasst den belegten Quellenstand redaktionell zusammen; eine nicht belegte Kartenposition wird nicht ergänzt.","description_source":"Textzeile 2710","description_kind":"Ortsdossier","description_has_more":true,"detail_plans":[],"alternate_locations":[],"sources":[{"bookId":"sr5-denver-adventure-1-serrated-edge","title":"Denver Adventure 1 - Serrated Edge","edition":"SR5","citation":"Textzeile 2710","purpose":"description"}],"map_sources":[],"editions":["SR5"],"edition_descriptions":{"SR5":{"kind":"Ortsdossier","preview":"Hippocrates Clinic Host ist in Denver Adventure 1 - Serrated Edge als benannter Schauplatz mit Bezug zu Denver belegt.","full":"Hippocrates Clinic Host ist in Denver Adventure 1 - Serrated Edge als benannter Schauplatz mit Bezug zu Denver belegt. Das Dossier fasst den belegten Quellenstand redaktionell zusammen; eine nicht belegte Kartenposition wird nicht ergänzt.","hasMore":true,"hasExcerpt":true,"sources":[{"bookId":"sr5-denver-adventure-1-serrated-edge","title":"Denver Adventure 1 - Serrated Edge","edition":"SR5","citation":"Textzeile 2710","purpose":"description"}]}}}},{"type":"Feature","geometry":null,"properties":{"id":227,"global_id":"denver:source-place:mitsuhama-tower","name":"Mitsuhama Tower","aliases":[],"category":"Konzerne und markante Bauwerke","detail_map":"Denver","source_pages":"Textzeile 4331","map_source":"The Third Parallel (Denver Campaign)","placement_note":"Keine belastbare Einzelposition; Eintrag bleibt im Katalog","accuracy":"Nur Stadt oder Lore-Teilraum belegt","source_map":"source-supplement","source_panel":"Denver","description_preview":"Mitsuhama Tower ist in The Third Parallel (Denver Campaign) als benannter Schauplatz mit Bezug zu Denver belegt.","description_full":"Mitsuhama Tower ist in The Third Parallel (Denver Campaign) als benannter Schauplatz mit Bezug zu Denver belegt. Das Dossier fasst den belegten Quellenstand redaktionell zusammen; eine nicht belegte Kartenposition wird nicht ergänzt.","description_source":"Textzeile 4331","description_kind":"Ortsdossier","description_has_more":true,"detail_plans":[],"alternate_locations":[],"sources":[{"bookId":"sr6-the-third-parallel-denver-campaign","title":"The Third Parallel (Denver Campaign)","edition":"SR6","citation":"Textzeile 4331","purpose":"description"}],"map_sources":[],"editions":["SR6"],"edition_descriptions":{"SR6":{"kind":"Ortsdossier","preview":"Mitsuhama Tower ist in The Third Parallel (Denver Campaign) als benannter Schauplatz mit Bezug zu Denver belegt.","full":"Mitsuhama Tower ist in The Third Parallel (Denver Campaign) als benannter Schauplatz mit Bezug zu Denver belegt. Das Dossier fasst den belegten Quellenstand redaktionell zusammen; eine nicht belegte Kartenposition wird nicht ergänzt.","hasMore":true,"hasExcerpt":true,"sources":[{"bookId":"sr6-the-third-parallel-denver-campaign","title":"The Third Parallel (Denver Campaign)","edition":"SR6","citation":"Textzeile 4331","purpose":"description"}]}}}},{"type":"Feature","geometry":null,"properties":{"id":228,"global_id":"denver:source-place:reborn-headquarters","name":"Reborn Headquarters","aliases":[],"category":"Konzerne und markante Bauwerke","detail_map":"Denver","source_pages":"Textzeile 3954","map_source":"The Third Parallel (Denver Campaign)","placement_note":"Keine belastbare Einzelposition; Eintrag bleibt im Katalog","accuracy":"Nur Stadt oder Lore-Teilraum belegt","source_map":"source-supplement","source_panel":"Denver","description_preview":"Reborn Headquarters ist in The Third Parallel (Denver Campaign) als benannter Schauplatz mit Bezug zu Denver belegt.","description_full":"Reborn Headquarters ist in The Third Parallel (Denver Campaign) als benannter Schauplatz mit Bezug zu Denver belegt. Das Dossier fasst den belegten Quellenstand redaktionell zusammen; eine nicht belegte Kartenposition wird nicht ergänzt.","description_source":"Textzeile 3954","description_kind":"Ortsdossier","description_has_more":true,"detail_plans":[],"alternate_locations":[],"sources":[{"bookId":"sr6-the-third-parallel-denver-campaign","title":"The Third Parallel (Denver Campaign)","edition":"SR6","citation":"Textzeile 3954","purpose":"description"}],"map_sources":[],"editions":["SR6"],"edition_descriptions":{"SR6":{"kind":"Ortsdossier","preview":"Reborn Headquarters ist in The Third Parallel (Denver Campaign) als benannter Schauplatz mit Bezug zu Denver belegt.","full":"Reborn Headquarters ist in The Third Parallel (Denver Campaign) als benannter Schauplatz mit Bezug zu Denver belegt. Das Dossier fasst den belegten Quellenstand redaktionell zusammen; eine nicht belegte Kartenposition wird nicht ergänzt.","hasMore":true,"hasExcerpt":true,"sources":[{"bookId":"sr6-the-third-parallel-denver-campaign","title":"The Third Parallel (Denver Campaign)","edition":"SR6","citation":"Textzeile 3954","purpose":"description"}]}}}},{"type":"Feature","geometry":null,"properties":{"id":229,"global_id":"denver:source-place:sports-medical-center","name":"Sports Medical Center","aliases":[],"category":"Sonstige Spots","detail_map":"Denver","source_pages":"Textzeile 1947","map_source":"Spy Games","placement_note":"Keine belastbare Einzelposition; Eintrag bleibt im Katalog","accuracy":"Nur Stadt oder Lore-Teilraum belegt","source_map":"source-supplement","source_panel":"Denver","description_preview":"Sports Medical Center ist in Spy Games als benannter Schauplatz mit Bezug zu Denver belegt.","description_full":"Sports Medical Center ist in Spy Games als benannter Schauplatz mit Bezug zu Denver belegt. Das Dossier fasst den belegten Quellenstand redaktionell zusammen; eine nicht belegte Kartenposition wird nicht ergänzt.","description_source":"Textzeile 1947","description_kind":"Ortsdossier","description_has_more":true,"detail_plans":[],"alternate_locations":[],"sources":[{"bookId":"sr4-spy-games","title":"Spy Games","edition":"SR4","citation":"Textzeile 1947","purpose":"description"}],"map_sources":[],"editions":["SR4"],"edition_descriptions":{"SR4":{"kind":"Ortsdossier","preview":"Sports Medical Center ist in Spy Games als benannter Schauplatz mit Bezug zu Denver belegt.","full":"Sports Medical Center ist in Spy Games als benannter Schauplatz mit Bezug zu Denver belegt. Das Dossier fasst den belegten Quellenstand redaktionell zusammen; eine nicht belegte Kartenposition wird nicht ergänzt.","hasMore":true,"hasExcerpt":true,"sources":[{"bookId":"sr4-spy-games","title":"Spy Games","edition":"SR4","citation":"Textzeile 1947","purpose":"description"}]}}}},{"type":"Feature","geometry":null,"properties":{"id":230,"global_id":"denver:source-place:the-sewage-processing-plant","name":"The Sewage Processing Plant","aliases":[],"category":"Sonstige Spots","detail_map":"Denver","source_pages":"Textzeile 16113","map_source":"The Third Parallel (Denver Campaign)","placement_note":"Keine belastbare Einzelposition; Eintrag bleibt im Katalog","accuracy":"Nur Stadt oder Lore-Teilraum belegt","source_map":"source-supplement","source_panel":"Denver","description_preview":"The Sewage Processing Plant ist in The Third Parallel (Denver Campaign) als benannter Schauplatz mit Bezug zu Denver belegt.","description_full":"The Sewage Processing Plant ist in The Third Parallel (Denver Campaign) als benannter Schauplatz mit Bezug zu Denver belegt. Das Dossier fasst den belegten Quellenstand redaktionell zusammen; eine nicht belegte Kartenposition wird nicht ergänzt.","description_source":"Textzeile 16113","description_kind":"Ortsdossier","description_has_more":true,"detail_plans":[],"alternate_locations":[],"sources":[{"bookId":"sr6-the-third-parallel-denver-campaign","title":"The Third Parallel (Denver Campaign)","edition":"SR6","citation":"Textzeile 16113","purpose":"description"}],"map_sources":[],"editions":["SR6"],"edition_descriptions":{"SR6":{"kind":"Ortsdossier","preview":"The Sewage Processing Plant ist in The Third Parallel (Denver Campaign) als benannter Schauplatz mit Bezug zu Denver belegt.","full":"The Sewage Processing Plant ist in The Third Parallel (Denver Campaign) als benannter Schauplatz mit Bezug zu Denver belegt. Das Dossier fasst den belegten Quellenstand redaktionell zusammen; eine nicht belegte Kartenposition wird nicht ergänzt.","hasMore":true,"hasExcerpt":true,"sources":[{"bookId":"sr6-the-third-parallel-denver-campaign","title":"The Third Parallel (Denver Campaign)","edition":"SR6","citation":"Textzeile 16113","purpose":"description"}]}}}},{"type":"Feature","geometry":null,"properties":{"id":231,"global_id":"denver:source-place:tower-of-silence","name":"Tower of Silence","aliases":[],"category":"Konzerne und markante Bauwerke","detail_map":"Denver","source_pages":"PDF-Seite 94","map_source":"Denver - The City of Shadows","placement_note":"Keine belastbare Einzelposition; Eintrag bleibt im Katalog","accuracy":"Nur Stadt oder Lore-Teilraum belegt","source_map":"source-supplement","source_panel":"Denver","description_preview":"Tower of Silence ist in Denver - The City of Shadows als benannter Schauplatz mit Bezug zu Denver belegt.","description_full":"Tower of Silence ist in Denver - The City of Shadows als benannter Schauplatz mit Bezug zu Denver belegt. Das Dossier fasst den belegten Quellenstand redaktionell zusammen; eine nicht belegte Kartenposition wird nicht ergänzt.","description_source":"PDF-Seite 94","description_kind":"Ortsdossier","description_has_more":true,"detail_plans":[],"alternate_locations":[],"sources":[{"bookId":"sr2-denver-the-city-of-shadows","title":"Denver - The City of Shadows","edition":"SR2","citation":"PDF-Seite 94","purpose":"description"}],"map_sources":[],"editions":["SR2"],"edition_descriptions":{"SR2":{"kind":"Ortsdossier","preview":"Tower of Silence ist in Denver - The City of Shadows als benannter Schauplatz mit Bezug zu Denver belegt.","full":"Tower of Silence ist in Denver - The City of Shadows als benannter Schauplatz mit Bezug zu Denver belegt. Das Dossier fasst den belegten Quellenstand redaktionell zusammen; eine nicht belegte Kartenposition wird nicht ergänzt.","hasMore":true,"hasExcerpt":true,"sources":[{"bookId":"sr2-denver-the-city-of-shadows","title":"Denver - The City of Shadows","edition":"SR2","citation":"PDF-Seite 94","purpose":"description"}]}}}},{"type":"Feature","geometry":null,"properties":{"id":232,"global_id":"denver:source-place:zdf-headquarters","name":"ZDF Headquarters","aliases":[],"category":"Konzerne und markante Bauwerke","detail_map":"Denver","source_pages":"Textzeile 3176","map_source":"Spy Games","placement_note":"Keine belastbare Einzelposition; Eintrag bleibt im Katalog","accuracy":"Nur Stadt oder Lore-Teilraum belegt","source_map":"source-supplement","source_panel":"Denver","description_preview":"ZDF Headquarters ist in Spy Games als benannter Schauplatz mit Bezug zu Denver belegt.","description_full":"ZDF Headquarters ist in Spy Games als benannter Schauplatz mit Bezug zu Denver belegt. Das Dossier fasst den belegten Quellenstand redaktionell zusammen; eine nicht belegte Kartenposition wird nicht ergänzt.","description_source":"Textzeile 3176","description_kind":"Ortsdossier","description_has_more":true,"detail_plans":[],"alternate_locations":[],"sources":[{"bookId":"sr4-spy-games","title":"Spy Games","edition":"SR4","citation":"Textzeile 3176","purpose":"description"}],"map_sources":[],"editions":["SR4"],"edition_descriptions":{"SR4":{"kind":"Ortsdossier","preview":"ZDF Headquarters ist in Spy Games als benannter Schauplatz mit Bezug zu Denver belegt.","full":"ZDF Headquarters ist in Spy Games als benannter Schauplatz mit Bezug zu Denver belegt. Das Dossier fasst den belegten Quellenstand redaktionell zusammen; eine nicht belegte Kartenposition wird nicht ergänzt.","hasMore":true,"hasExcerpt":true,"sources":[{"bookId":"sr4-spy-games","title":"Spy Games","edition":"SR4","citation":"Textzeile 3176","purpose":"description"}]}}}}]}
