{"type":"FeatureCollection","name":"Denver Gebietsstatus","topology":{"model":"exclusive-partition","priority":["corporate","normal"],"unresolved_overlap_area_degrees_squared":0,"basis":"Gebiet innerhalb der umlaufenden SR6-DMZ; Distrikte überschneiden sich nicht"},"features":[{"type":"Feature","geometry":{"type":"Polygon","coordinates":[[[-105.43,39.92],[-105.34,40.1],[-105.05,40.14],[-104.68,40.08],[-104.42,39.9],[-104.4,39.38],[-104.46,38.74],[-104.78,38.65],[-105.2,38.72],[-105.37,39.02],[-105.43,39.92]]]},"properties":{"status":"normal","zone_type":"magenta","label":"Normal / Stadt · Front Range Free Zone","basis":"Gebiet innerhalb der umlaufenden SR6-DMZ; Distrikte überschneiden sich nicht","topology":"disjoint","source":"Code for Germany / Click That Hood","source_url":"https://github.com/codeforgermany/click_that_hood"}}]}
