{"type":"FeatureCollection","name":"Québec Orte","features":[{"type":"Feature","geometry":{"type":"Point","coordinates":[-71.2048,46.8119]},"properties":{"id":3,"global_id":"quebec:place:3-chateau-frontenac","name":"Château Frontenac","aliases":[],"category":"Behörden","detail_map":"Québec City Metroplex","source_pages":"Der Québec City Metroplex","map_source":"Nordamerika in den Schatten","placement_note":"Erhaltener geographischer Bezugspunkt","accuracy":"Geographischer Bezugspunkt","source_map":"quebec-content","source_panel":"Québec City Metroplex","description_preview":"Das Château Frontenac dient im Quellenstand als repräsentativer Sitz der politischen Mehrheitsführung.","description_full":"Das Château Frontenac dient im Quellenstand als repräsentativer Sitz der politischen Mehrheitsführung. Die Position folgt einem erhaltenen heutigen Bezugspunkt.","description_source":"Der Québec City Metroplex","description_kind":"Ortsprofil","description_has_more":true,"detail_plans":[],"alternate_locations":[],"sources":[{"bookId":"sr3-nordamerika-in-den-schatten","title":"Nordamerika in den Schatten","edition":"SR3","citation":"Der Québec City Metroplex","purpose":"description"}],"map_sources":[],"editions":["SR3"],"edition_descriptions":{"SR3":{"kind":"Ortsprofil","preview":"Das Château Frontenac dient im Quellenstand als repräsentativer Sitz der politischen Mehrheitsführung.","full":"Das Château Frontenac dient im Quellenstand als repräsentativer Sitz der politischen Mehrheitsführung. Die Position folgt einem erhaltenen heutigen Bezugspunkt.","hasMore":true,"hasExcerpt":true,"sources":[{"bookId":"sr3-nordamerika-in-den-schatten","title":"Nordamerika in den Schatten","edition":"SR3","citation":"Der Québec City Metroplex","purpose":"description"}]}}}},{"type":"Feature","geometry":null,"properties":{"id":4,"global_id":"quebec:place:4-hilton-international-quebec","name":"Hilton International Quebec","aliases":[],"category":"Hotels","detail_map":"Québec City Metroplex","source_pages":"Hilton International Quebec","map_source":"Nordamerika Quellenbuch","placement_note":"Keine belastbare Einzelposition; Eintrag bleibt im Katalog","accuracy":"Nur Stadt oder Lore-Teilraum belegt","source_map":"quebec-content","source_panel":"Québec City Metroplex","description_preview":"Das Hilton ist ein bedeutender Hotel- und Geschäftstreffpunkt.","description_full":"Das Hilton ist ein bedeutender Hotel- und Geschäftstreffpunkt. Die Position ist auf den belegten Stadt- oder Teilraum angenähert; eine hausgenaue Lage und eine weitergehende eigene Fließtextbeschreibung sind aus dem zugeordneten Datenmaterial nicht sicher ableitbar.","description_source":"Hilton International Quebec","description_kind":"Ortsprofil","description_has_more":true,"detail_plans":[],"alternate_locations":[],"sources":[{"bookId":"sr2-nordamerika-quellenbuch","title":"Nordamerika Quellenbuch","edition":"SR2","citation":"Hilton International Quebec","purpose":"description"}],"map_sources":[],"editions":["SR2"],"edition_descriptions":{"SR2":{"kind":"Ortsprofil","preview":"Das Hilton ist ein bedeutender Hotel- und Geschäftstreffpunkt.","full":"Das Hilton ist ein bedeutender Hotel- und Geschäftstreffpunkt. Die Position ist auf den belegten Stadt- oder Teilraum angenähert; eine hausgenaue Lage und eine weitergehende eigene Fließtextbeschreibung sind aus dem zugeordneten Datenmaterial nicht sicher ableitbar.","hasMore":true,"hasExcerpt":true,"sources":[{"bookId":"sr2-nordamerika-quellenbuch","title":"Nordamerika Quellenbuch","edition":"SR2","citation":"Hilton International Quebec","purpose":"description"}]}}}},{"type":"Feature","geometry":null,"properties":{"id":5,"global_id":"quebec:place:5-hotel-auberge-des-gouverneurs","name":"Hôtel Auberge des Gouverneurs","aliases":[],"category":"Hotels","detail_map":"Québec City Metroplex","source_pages":"Hôtel Auberge des Gouverneurs","map_source":"Nordamerika Quellenbuch","placement_note":"Keine belastbare Einzelposition; Eintrag bleibt im Katalog","accuracy":"Nur Stadt oder Lore-Teilraum belegt","source_map":"quebec-content","source_panel":"Québec City Metroplex","description_preview":"Das Hotel ist als Unterkunft und lokaler Treffpunkt belegt.","description_full":"Das Hotel ist als Unterkunft und lokaler Treffpunkt belegt. Die Position ist auf den belegten Stadt- oder Teilraum angenähert; eine hausgenaue Lage und eine weitergehende eigene Fließtextbeschreibung sind aus dem zugeordneten Datenmaterial nicht sicher ableitbar.","description_source":"Hôtel Auberge des Gouverneurs","description_kind":"Ortsprofil","description_has_more":true,"detail_plans":[],"alternate_locations":[],"sources":[{"bookId":"sr2-nordamerika-quellenbuch","title":"Nordamerika Quellenbuch","edition":"SR2","citation":"Hôtel Auberge des Gouverneurs","purpose":"description"}],"map_sources":[],"editions":["SR2"],"edition_descriptions":{"SR2":{"kind":"Ortsprofil","preview":"Das Hotel ist als Unterkunft und lokaler Treffpunkt belegt.","full":"Das Hotel ist als Unterkunft und lokaler Treffpunkt belegt. Die Position ist auf den belegten Stadt- oder Teilraum angenähert; eine hausgenaue Lage und eine weitergehende eigene Fließtextbeschreibung sind aus dem zugeordneten Datenmaterial nicht sicher ableitbar.","hasMore":true,"hasExcerpt":true,"sources":[{"bookId":"sr2-nordamerika-quellenbuch","title":"Nordamerika Quellenbuch","edition":"SR2","citation":"Hôtel Auberge des Gouverneurs","purpose":"description"}]}}}},{"type":"Feature","geometry":{"type":"Point","coordinates":[-71.208,46.8139]},"properties":{"id":1,"global_id":"quebec:place:1-quebec-city-metroplex","name":"Québec City Metroplex","aliases":[],"category":"Bezirke","detail_map":"Québec City Metroplex","source_pages":"Der Québec City Metroplex","map_source":"Nordamerika in den Schatten","placement_note":"Geografischer Bezugspunkt des Lore-Distrikts Québec City Metroplex","accuracy":"Lore-Bezirkszentrum; Grenzpolygon noch nicht georeferenziert","source_map":"quebec-content","source_panel":"Québec City Metroplex","description_preview":"Der Hauptstadtplex verbindet historische Stadt, Regierungssitz und stark umkämpfte Unternehmenszonen.","description_full":"Der Hauptstadtplex verbindet historische Stadt, Regierungssitz und stark umkämpfte Unternehmenszonen. Die Position ist auf den belegten Stadt- oder Teilraum angenähert; eine hausgenaue Lage und eine weitergehende eigene Fließtextbeschreibung sind aus dem zugeordneten Datenmaterial nicht sicher ableitbar.","description_source":"Der Québec City Metroplex","description_kind":"Ortsprofil","description_has_more":true,"detail_plans":[],"alternate_locations":[],"sources":[{"bookId":"sr3-nordamerika-in-den-schatten","title":"Nordamerika in den Schatten","edition":"SR3","citation":"Der Québec City Metroplex","purpose":"description"}],"map_sources":[],"editions":["SR3"],"edition_descriptions":{"SR3":{"kind":"Ortsprofil","preview":"Der Hauptstadtplex verbindet historische Stadt, Regierungssitz und stark umkämpfte Unternehmenszonen.","full":"Der Hauptstadtplex verbindet historische Stadt, Regierungssitz und stark umkämpfte Unternehmenszonen. Die Position ist auf den belegten Stadt- oder Teilraum angenähert; eine hausgenaue Lage und eine weitergehende eigene Fließtextbeschreibung sind aus dem zugeordneten Datenmaterial nicht sicher ableitbar.","hasMore":true,"hasExcerpt":true,"sources":[{"bookId":"sr3-nordamerika-in-den-schatten","title":"Nordamerika in den Schatten","edition":"SR3","citation":"Der Québec City Metroplex","purpose":"description"}]}}}},{"type":"Feature","geometry":{"type":"Point","coordinates":[-71.25,46.82]},"properties":{"id":2,"global_id":"quebec:place:2-quebec-corporate-zones","name":"Québec Corporate Zones","aliases":[],"category":"Bezirke","detail_map":"Québec Corporate Zones","source_pages":"Québec City Metroplex","map_source":"Shadows of North America","placement_note":"Geografischer Bezugspunkt des Lore-Distrikts Québec Corporate Zones","accuracy":"Lore-Bezirkszentrum; Grenzpolygon noch nicht georeferenziert","source_map":"quebec-content","source_panel":"Québec Corporate Zones","description_preview":"Zwölf Unternehmenszonen bündeln einen wesentlichen Teil der Konzernmacht im Hauptstadtgebiet.","description_full":"Zwölf Unternehmenszonen bündeln einen wesentlichen Teil der Konzernmacht im Hauptstadtgebiet. Die Position ist auf den belegten Stadt- oder Teilraum angenähert; eine hausgenaue Lage und eine weitergehende eigene Fließtextbeschreibung sind aus dem zugeordneten Datenmaterial nicht sicher ableitbar.","description_source":"Québec City Metroplex","description_kind":"Ortsprofil","description_has_more":true,"detail_plans":[],"alternate_locations":[],"sources":[{"bookId":"sr3-shadows-of-north-america","title":"Shadows of North America","edition":"SR3","citation":"Québec City Metroplex","purpose":"description"}],"map_sources":[],"editions":["SR3"],"edition_descriptions":{"SR3":{"kind":"Ortsprofil","preview":"Zwölf Unternehmenszonen bündeln einen wesentlichen Teil der Konzernmacht im Hauptstadtgebiet.","full":"Zwölf Unternehmenszonen bündeln einen wesentlichen Teil der Konzernmacht im Hauptstadtgebiet. Die Position ist auf den belegten Stadt- oder Teilraum angenähert; eine hausgenaue Lage und eine weitergehende eigene Fließtextbeschreibung sind aus dem zugeordneten Datenmaterial nicht sicher ableitbar.","hasMore":true,"hasExcerpt":true,"sources":[{"bookId":"sr3-shadows-of-north-america","title":"Shadows of North America","edition":"SR3","citation":"Québec City Metroplex","purpose":"description"}]}}}}]}
