{"type":"FeatureCollection","name":"Québec – geprüfte zusätzliche Quellenorte","features":[{"type":"Feature","geometry":null,"properties":{"id":6,"global_id":"quebec:source-place:technology-complex","name":"Technology Complex","aliases":[],"category":"Sonstige Spots","detail_map":"Québec","source_pages":"Textzeile 569","map_source":"Montreal 2074","placement_note":"Keine belastbare Einzelposition; Eintrag bleibt im Katalog","accuracy":"Nur Stadt oder Lore-Teilraum belegt","source_map":"source-supplement","source_panel":"Québec","description_preview":"Technology Complex ist in Montreal 2074 als benannter Schauplatz mit Bezug zu Québec belegt.","description_full":"Technology Complex ist in Montreal 2074 als benannter Schauplatz mit Bezug zu Québec belegt. Das Dossier fasst den belegten Quellenstand redaktionell zusammen; eine nicht belegte Kartenposition wird nicht ergänzt.","description_source":"Textzeile 569","description_kind":"Ortsdossier","description_has_more":true,"detail_plans":[],"alternate_locations":[],"sources":[{"bookId":"sr4-montreal-2074","title":"Montreal 2074","edition":"SR4","citation":"Textzeile 569","purpose":"description"}],"map_sources":[],"editions":["SR4"],"edition_descriptions":{"SR4":{"kind":"Ortsdossier","preview":"Technology Complex ist in Montreal 2074 als benannter Schauplatz mit Bezug zu Québec belegt.","full":"Technology Complex ist in Montreal 2074 als benannter Schauplatz mit Bezug zu Québec belegt. Das Dossier fasst den belegten Quellenstand redaktionell zusammen; eine nicht belegte Kartenposition wird nicht ergänzt.","hasMore":true,"hasExcerpt":true,"sources":[{"bookId":"sr4-montreal-2074","title":"Montreal 2074","edition":"SR4","citation":"Textzeile 569","purpose":"description"}]}}}}]}
