{"type":"FeatureCollection","name":"Brisbane Orte","features":[{"type":"Feature","geometry":{"type":"Point","coordinates":[153.0251,-27.4698]},"properties":{"id":1,"global_id":"brisbane:place:1-brisbane-lore-raum","name":"Brisbane Lore-Raum","aliases":[],"category":"Bezirke","detail_map":"Brisbane Lore-Raum","source_pages":"Stadt- oder Regionalkapitel","map_source":"Target Awakened Lands","placement_note":"Geografischer Bezugspunkt des Lore-Distrikts Brisbane Lore-Raum","accuracy":"Lore-Bezirkszentrum; Grenzpolygon noch nicht georeferenziert","source_map":"brisbane-content","source_panel":"Brisbane Lore-Raum","description_preview":"Brisbane ist ein ost­australischer Küsten-, Konzern- und Verkehrsknoten.","description_full":"Brisbane ist ein ost­australischer Küsten-, Konzern- und Verkehrsknoten. Die Position ist auf den belegten Stadt- oder Teilraum angenähert; eine hausgenaue Lage und eine weitergehende eigene Fließtextbeschreibung sind aus dem zugeordneten Datenmaterial nicht sicher ableitbar.","description_source":"Stadt- oder Regionalkapitel","description_kind":"Ortsprofil","description_has_more":true,"detail_plans":[],"alternate_locations":[],"sources":[{"bookId":"sr3-target-awakened-lands","title":"Target Awakened Lands","edition":"SR3","citation":"Stadt- oder Regionalkapitel","purpose":"description"}],"map_sources":[],"editions":["SR3"],"edition_descriptions":{"SR3":{"kind":"Ortsprofil","preview":"Brisbane ist ein ost­australischer Küsten-, Konzern- und Verkehrsknoten.","full":"Brisbane ist ein ost­australischer Küsten-, Konzern- und Verkehrsknoten. Die Position ist auf den belegten Stadt- oder Teilraum angenähert; eine hausgenaue Lage und eine weitergehende eigene Fließtextbeschreibung sind aus dem zugeordneten Datenmaterial nicht sicher ableitbar.","hasMore":true,"hasExcerpt":true,"sources":[{"bookId":"sr3-target-awakened-lands","title":"Target Awakened Lands","edition":"SR3","citation":"Stadt- oder Regionalkapitel","purpose":"description"}]}}}}]}
