{"type":"FeatureCollection","name":"Portland Orte","features":[{"type":"Feature","geometry":null,"properties":{"id":3,"global_id":"portland:place:3-new-dawn-corporation","name":"New Dawn Corporation","aliases":[],"category":"Konzerne","detail_map":"Portland","source_pages":"New Dawn Corporation","map_source":"Tir Tairngire","placement_note":"Keine belastbare Einzelposition; Eintrag bleibt im Katalog","accuracy":"Nur Stadt oder Lore-Teilraum belegt","source_map":"portland-content","source_panel":"Portland","description_preview":"New Dawn ist als Portlander Konzernstandort belegt.","description_full":"New Dawn ist als Portlander Konzernstandort belegt. Die Position ist auf den belegten Stadt- oder Teilraum angenähert; eine hausgenaue Lage und eine weitergehende eigene Fließtextbeschreibung sind aus dem zugeordneten Datenmaterial nicht sicher ableitbar.","description_source":"New Dawn Corporation","description_kind":"Ortsprofil","description_has_more":true,"detail_plans":[],"alternate_locations":[],"sources":[{"bookId":"sr2-tir-tairngire","title":"Tir Tairngire","edition":"SR2","citation":"New Dawn Corporation","purpose":"description"}],"map_sources":[],"editions":["SR2"],"edition_descriptions":{"SR2":{"kind":"Ortsprofil","preview":"New Dawn ist als Portlander Konzernstandort belegt.","full":"New Dawn ist als Portlander Konzernstandort belegt. Die Position ist auf den belegten Stadt- oder Teilraum angenähert; eine hausgenaue Lage und eine weitergehende eigene Fließtextbeschreibung sind aus dem zugeordneten Datenmaterial nicht sicher ableitbar.","hasMore":true,"hasExcerpt":true,"sources":[{"bookId":"sr2-tir-tairngire","title":"Tir Tairngire","edition":"SR2","citation":"New Dawn Corporation","purpose":"description"}]}}}},{"type":"Feature","geometry":null,"properties":{"id":4,"global_id":"portland:place:4-pat-ogradys","name":"Pat O’Grady’s","aliases":[],"category":"Bars und Kneipen","detail_map":"Portland","source_pages":"Pat O’Grady’s","map_source":"Tir Tairngire","placement_note":"Keine belastbare Einzelposition; Eintrag bleibt im Katalog","accuracy":"Nur Stadt oder Lore-Teilraum belegt","source_map":"portland-content","source_panel":"Portland","description_preview":"Pat O’Grady’s ist ein im Portland-Quellenstand benanntes Lokal.","description_full":"Pat O’Grady’s ist ein im Portland-Quellenstand benanntes Lokal. Die Position ist auf den belegten Stadt- oder Teilraum angenähert; eine hausgenaue Lage und eine weitergehende eigene Fließtextbeschreibung sind aus dem zugeordneten Datenmaterial nicht sicher ableitbar.","description_source":"Pat O’Grady’s","description_kind":"Ortsprofil","description_has_more":true,"detail_plans":[],"alternate_locations":[],"sources":[{"bookId":"sr2-tir-tairngire","title":"Tir Tairngire","edition":"SR2","citation":"Pat O’Grady’s","purpose":"description"}],"map_sources":[],"editions":["SR2"],"edition_descriptions":{"SR2":{"kind":"Ortsprofil","preview":"Pat O’Grady’s ist ein im Portland-Quellenstand benanntes Lokal.","full":"Pat O’Grady’s ist ein im Portland-Quellenstand benanntes Lokal. Die Position ist auf den belegten Stadt- oder Teilraum angenähert; eine hausgenaue Lage und eine weitergehende eigene Fließtextbeschreibung sind aus dem zugeordneten Datenmaterial nicht sicher ableitbar.","hasMore":true,"hasExcerpt":true,"sources":[{"bookId":"sr2-tir-tairngire","title":"Tir Tairngire","edition":"SR2","citation":"Pat O’Grady’s","purpose":"description"}]}}}},{"type":"Feature","geometry":null,"properties":{"id":5,"global_id":"portland:place:5-portland-civic-stadium","name":"Portland Civic Stadium","aliases":[],"category":"Freizeit und Natur","detail_map":"Portland","source_pages":"Portland Civic Stadium","map_source":"Tir Tairngire","placement_note":"Keine belastbare Einzelposition; Eintrag bleibt im Katalog","accuracy":"Nur Stadt oder Lore-Teilraum belegt","source_map":"portland-content","source_panel":"Portland","description_preview":"Das Civic Stadium ist ein großer Sport- und Veranstaltungsort.","description_full":"Das Civic Stadium ist ein großer Sport- und Veranstaltungsort. Die Position ist auf den belegten Stadt- oder Teilraum angenähert; eine hausgenaue Lage und eine weitergehende eigene Fließtextbeschreibung sind aus dem zugeordneten Datenmaterial nicht sicher ableitbar.","description_source":"Portland Civic Stadium","description_kind":"Ortsprofil","description_has_more":true,"detail_plans":[],"alternate_locations":[],"sources":[{"bookId":"sr2-tir-tairngire","title":"Tir Tairngire","edition":"SR2","citation":"Portland Civic Stadium","purpose":"description"}],"map_sources":[],"editions":["SR2"],"edition_descriptions":{"SR2":{"kind":"Ortsprofil","preview":"Das Civic Stadium ist ein großer Sport- und Veranstaltungsort.","full":"Das Civic Stadium ist ein großer Sport- und Veranstaltungsort. Die Position ist auf den belegten Stadt- oder Teilraum angenähert; eine hausgenaue Lage und eine weitergehende eigene Fließtextbeschreibung sind aus dem zugeordneten Datenmaterial nicht sicher ableitbar.","hasMore":true,"hasExcerpt":true,"sources":[{"bookId":"sr2-tir-tairngire","title":"Tir Tairngire","edition":"SR2","citation":"Portland Civic Stadium","purpose":"description"}]}}}},{"type":"Feature","geometry":{"type":"Point","coordinates":[-122.678,45.515]},"properties":{"id":1,"global_id":"portland:place:1-portland-core","name":"Portland Core","aliases":[],"category":"Bezirke","detail_map":"Portland Core","source_pages":"Kapitel Portland","map_source":"Tir Tairngire","placement_note":"Geografischer Bezugspunkt des Lore-Distrikts Portland Core","accuracy":"Lore-Bezirkszentrum; Grenzpolygon noch nicht georeferenziert","source_map":"portland-content","source_panel":"Portland Core","description_preview":"Der Kernraum ist politisches, wirtschaftliches und logistisches Zentrum der abgeschotteten Stadt.","description_full":"Der Kernraum ist politisches, wirtschaftliches und logistisches Zentrum der abgeschotteten Stadt. Die Position ist auf den belegten Stadt- oder Teilraum angenähert; eine hausgenaue Lage und eine weitergehende eigene Fließtextbeschreibung sind aus dem zugeordneten Datenmaterial nicht sicher ableitbar.","description_source":"Kapitel Portland","description_kind":"Ortsprofil","description_has_more":true,"detail_plans":[],"alternate_locations":[],"sources":[{"bookId":"sr2-tir-tairngire","title":"Tir Tairngire","edition":"SR2","citation":"Kapitel Portland","purpose":"description"}],"map_sources":[],"editions":["SR2"],"edition_descriptions":{"SR2":{"kind":"Ortsprofil","preview":"Der Kernraum ist politisches, wirtschaftliches und logistisches Zentrum der abgeschotteten Stadt.","full":"Der Kernraum ist politisches, wirtschaftliches und logistisches Zentrum der abgeschotteten Stadt. Die Position ist auf den belegten Stadt- oder Teilraum angenähert; eine hausgenaue Lage und eine weitergehende eigene Fließtextbeschreibung sind aus dem zugeordneten Datenmaterial nicht sicher ableitbar.","hasMore":true,"hasExcerpt":true,"sources":[{"bookId":"sr2-tir-tairngire","title":"Tir Tairngire","edition":"SR2","citation":"Kapitel Portland","purpose":"description"}]}}}},{"type":"Feature","geometry":null,"properties":{"id":6,"global_id":"portland:place:6-portland-executel","name":"Portland Executel","aliases":[],"category":"Hotels","detail_map":"Portland","source_pages":"Portland Executel","map_source":"Tir Tairngire","placement_note":"Keine belastbare Einzelposition; Eintrag bleibt im Katalog","accuracy":"Nur Stadt oder Lore-Teilraum belegt","source_map":"portland-content","source_panel":"Portland","description_preview":"Das Executel ist ein Geschäfts- und Übernachtungsstandort.","description_full":"Das Executel ist ein Geschäfts- und Übernachtungsstandort. Die Position ist auf den belegten Stadt- oder Teilraum angenähert; eine hausgenaue Lage und eine weitergehende eigene Fließtextbeschreibung sind aus dem zugeordneten Datenmaterial nicht sicher ableitbar.","description_source":"Portland Executel","description_kind":"Ortsprofil","description_has_more":true,"detail_plans":[],"alternate_locations":[],"sources":[{"bookId":"sr2-tir-tairngire","title":"Tir Tairngire","edition":"SR2","citation":"Portland Executel","purpose":"description"}],"map_sources":[],"editions":["SR2"],"edition_descriptions":{"SR2":{"kind":"Ortsprofil","preview":"Das Executel ist ein Geschäfts- und Übernachtungsstandort.","full":"Das Executel ist ein Geschäfts- und Übernachtungsstandort. Die Position ist auf den belegten Stadt- oder Teilraum angenähert; eine hausgenaue Lage und eine weitergehende eigene Fließtextbeschreibung sind aus dem zugeordneten Datenmaterial nicht sicher ableitbar.","hasMore":true,"hasExcerpt":true,"sources":[{"bookId":"sr2-tir-tairngire","title":"Tir Tairngire","edition":"SR2","citation":"Portland Executel","purpose":"description"}]}}}},{"type":"Feature","geometry":null,"properties":{"id":2,"global_id":"portland:place:2-telestrian-industries-portland","name":"Telestrian Industries Portland","aliases":[],"category":"Konzerne","detail_map":"Portland","source_pages":"Telestrian Industries Corporation","map_source":"Tir Tairngire","placement_note":"Keine belastbare Einzelposition; Eintrag bleibt im Katalog","accuracy":"Nur Stadt oder Lore-Teilraum belegt","source_map":"portland-content","source_panel":"Portland","description_preview":"Telestrian Industries gehört zu den prägenden Konzernakteuren Portlands.","description_full":"Telestrian Industries gehört zu den prägenden Konzernakteuren Portlands. Die Position ist auf den belegten Stadt- oder Teilraum angenähert; eine hausgenaue Lage und eine weitergehende eigene Fließtextbeschreibung sind aus dem zugeordneten Datenmaterial nicht sicher ableitbar.","description_source":"Telestrian Industries Corporation","description_kind":"Ortsprofil","description_has_more":true,"detail_plans":[],"alternate_locations":[],"sources":[{"bookId":"sr2-tir-tairngire","title":"Tir Tairngire","edition":"SR2","citation":"Telestrian Industries Corporation","purpose":"description"}],"map_sources":[],"editions":["SR2"],"edition_descriptions":{"SR2":{"kind":"Ortsprofil","preview":"Telestrian Industries gehört zu den prägenden Konzernakteuren Portlands.","full":"Telestrian Industries gehört zu den prägenden Konzernakteuren Portlands. Die Position ist auf den belegten Stadt- oder Teilraum angenähert; eine hausgenaue Lage und eine weitergehende eigene Fließtextbeschreibung sind aus dem zugeordneten Datenmaterial nicht sicher ableitbar.","hasMore":true,"hasExcerpt":true,"sources":[{"bookId":"sr2-tir-tairngire","title":"Tir Tairngire","edition":"SR2","citation":"Telestrian Industries Corporation","purpose":"description"}]}}}},{"type":"Feature","geometry":null,"properties":{"id":7,"global_id":"portland:place:7-west-slope-inn","name":"West Slope Inn","aliases":[],"category":"Hotels","detail_map":"Portland","source_pages":"West Slope Inn","map_source":"Tir Tairngire","placement_note":"Keine belastbare Einzelposition; Eintrag bleibt im Katalog","accuracy":"Nur Stadt oder Lore-Teilraum belegt","source_map":"portland-content","source_panel":"Portland","description_preview":"Das West Slope Inn ist eine im Stadtprofil benannte Unterkunft.","description_full":"Das West Slope Inn ist eine im Stadtprofil benannte Unterkunft. Die Position ist auf den belegten Stadt- oder Teilraum angenähert; eine hausgenaue Lage und eine weitergehende eigene Fließtextbeschreibung sind aus dem zugeordneten Datenmaterial nicht sicher ableitbar.","description_source":"West Slope Inn","description_kind":"Ortsprofil","description_has_more":true,"detail_plans":[],"alternate_locations":[],"sources":[{"bookId":"sr2-tir-tairngire","title":"Tir Tairngire","edition":"SR2","citation":"West Slope Inn","purpose":"description"}],"map_sources":[],"editions":["SR2"],"edition_descriptions":{"SR2":{"kind":"Ortsprofil","preview":"Das West Slope Inn ist eine im Stadtprofil benannte Unterkunft.","full":"Das West Slope Inn ist eine im Stadtprofil benannte Unterkunft. Die Position ist auf den belegten Stadt- oder Teilraum angenähert; eine hausgenaue Lage und eine weitergehende eigene Fließtextbeschreibung sind aus dem zugeordneten Datenmaterial nicht sicher ableitbar.","hasMore":true,"hasExcerpt":true,"sources":[{"bookId":"sr2-tir-tairngire","title":"Tir Tairngire","edition":"SR2","citation":"West Slope Inn","purpose":"description"}]}}}},{"type":"Feature","geometry":null,"properties":{"id":8,"global_id":"portland:place:8-willamette-hospital","name":"Willamette Hospital","aliases":[],"category":"Medizin","detail_map":"Portland","source_pages":"Willamette Hospital","map_source":"Tir Tairngire","placement_note":"Keine belastbare Einzelposition; Eintrag bleibt im Katalog","accuracy":"Nur Stadt oder Lore-Teilraum belegt","source_map":"portland-content","source_panel":"Portland","description_preview":"Das Willamette Hospital ist eine wichtige medizinische Einrichtung.","description_full":"Das Willamette Hospital ist eine wichtige medizinische Einrichtung. Die Position ist auf den belegten Stadt- oder Teilraum angenähert; eine hausgenaue Lage und eine weitergehende eigene Fließtextbeschreibung sind aus dem zugeordneten Datenmaterial nicht sicher ableitbar.","description_source":"Willamette Hospital","description_kind":"Ortsprofil","description_has_more":true,"detail_plans":[],"alternate_locations":[],"sources":[{"bookId":"sr2-tir-tairngire","title":"Tir Tairngire","edition":"SR2","citation":"Willamette Hospital","purpose":"description"}],"map_sources":[],"editions":["SR2"],"edition_descriptions":{"SR2":{"kind":"Ortsprofil","preview":"Das Willamette Hospital ist eine wichtige medizinische Einrichtung.","full":"Das Willamette Hospital ist eine wichtige medizinische Einrichtung. Die Position ist auf den belegten Stadt- oder Teilraum angenähert; eine hausgenaue Lage und eine weitergehende eigene Fließtextbeschreibung sind aus dem zugeordneten Datenmaterial nicht sicher ableitbar.","hasMore":true,"hasExcerpt":true,"sources":[{"bookId":"sr2-tir-tairngire","title":"Tir Tairngire","edition":"SR2","citation":"Willamette Hospital","purpose":"description"}]}}}},{"type":"Feature","geometry":null,"properties":{"id":9,"global_id":"portland:place:9-willamette-university","name":"Willamette University","aliases":[],"category":"Bildung und Kultur","detail_map":"Portland","source_pages":"Willamette University","map_source":"Tir Tairngire","placement_note":"Keine belastbare Einzelposition; Eintrag bleibt im Katalog","accuracy":"Nur Stadt oder Lore-Teilraum belegt","source_map":"portland-content","source_panel":"Portland","description_preview":"Die Willamette University ist ein Bildungs- und Forschungsstandort.","description_full":"Die Willamette University ist ein Bildungs- und Forschungsstandort. Die Position ist auf den belegten Stadt- oder Teilraum angenähert; eine hausgenaue Lage und eine weitergehende eigene Fließtextbeschreibung sind aus dem zugeordneten Datenmaterial nicht sicher ableitbar.","description_source":"Willamette University","description_kind":"Ortsprofil","description_has_more":true,"detail_plans":[],"alternate_locations":[],"sources":[{"bookId":"sr2-tir-tairngire","title":"Tir Tairngire","edition":"SR2","citation":"Willamette University","purpose":"description"}],"map_sources":[],"editions":["SR2"],"edition_descriptions":{"SR2":{"kind":"Ortsprofil","preview":"Die Willamette University ist ein Bildungs- und Forschungsstandort.","full":"Die Willamette University ist ein Bildungs- und Forschungsstandort. Die Position ist auf den belegten Stadt- oder Teilraum angenähert; eine hausgenaue Lage und eine weitergehende eigene Fließtextbeschreibung sind aus dem zugeordneten Datenmaterial nicht sicher ableitbar.","hasMore":true,"hasExcerpt":true,"sources":[{"bookId":"sr2-tir-tairngire","title":"Tir Tairngire","edition":"SR2","citation":"Willamette University","purpose":"description"}]}}}}]}
