{"type":"FeatureCollection","name":"Chicago Lore-Distrikte","features":[{"type":"Feature","geometry":{"type":"Polygon","coordinates":[[[-87.70055819327283,41.6844],[-87.73948070724958,41.6844],[-87.739739,41.69086],[-87.720317,41.691285],[-87.721125,41.71317],[-87.712578,41.713297],[-87.712525,41.711474],[-87.711298,41.711491],[-87.711124,41.706074],[-87.701325,41.706178],[-87.701375,41.707052],[-87.691519,41.707203],[-87.691729,41.713566],[-87.681842,41.713662],[-87.68251295540796,41.73549301189755],[-87.741067,41.734524],[-87.740933,41.736865],[-87.742165,41.77478],[-87.800806,41.773697],[-87.801626,41.797995],[-87.797187,41.799402],[-87.752736,41.800187],[-87.753077,41.81331],[-87.744655,41.815963],[-87.744763,41.822032],[-87.738649,41.822118],[-87.73856134565922,41.81901378901345],[-87.738811,41.836696],[-87.739109,41.838548],[-87.7399819947976,41.86595883922314],[-87.774139,41.865459],[-87.775599,41.909254],[-87.805745,41.908839],[-87.8065,41.93100355899418],[-87.8065,41.9401],[-87.63734570725035,41.9401],[-87.637115,41.939826],[-87.637011221709,41.9401],[-87.63675658474577,41.9401],[-87.636816,41.939758],[-87.635841,41.939777],[-87.6358,41.939611],[-87.6350445203837,41.9401],[-87.6337001746802,41.9401],[-87.632985,41.938076],[-87.632292,41.937235],[-87.632426,41.937182],[-87.632101,41.93584],[-87.630443,41.933666],[-87.630713,41.933062],[-87.630664,41.932534],[-87.630731,41.933063],[-87.631384,41.93297],[-87.6314,41.93269],[-87.631821,41.932444],[-87.631254,41.932394],[-87.631072,41.932592],[-87.631239,41.932386],[-87.63085,41.932167],[-87.630674,41.931775],[-87.63101,41.930084],[-87.630834,41.929013],[-87.630396,41.928082],[-87.630611,41.927996],[-87.629791,41.927079],[-87.629598,41.926584],[-87.629706,41.926092],[-87.629876,41.92616],[-87.630275,41.925748],[-87.629979,41.923678],[-87.629003,41.92275],[-87.628336,41.923074],[-87.62948,41.922397],[-87.628536,41.921033],[-87.62771,41.921376],[-87.628917,41.920729],[-87.627956,41.919505],[-87.627325,41.919747],[-87.628419,41.919259],[-87.627354,41.918003],[-87.6268,41.918251],[-87.627909,41.9176],[-87.626705,41.916435],[-87.626093,41.916836],[-87.626813,41.916286],[-87.624867,41.914725],[-87.623194,41.913776],[-87.621732,41.913528],[-87.620616,41.913793],[-87.620572,41.91337],[-87.620212,41.913907],[-87.620208,41.914556],[-87.620467,41.914794],[-87.620989,41.914785],[-87.620477,41.914847],[-87.620146,41.914538],[-87.620221,41.913716],[-87.620442,41.913413],[-87.620779,41.913176],[-87.622934,41.912674],[-87.624663,41.911416],[-87.624725,41.910741],[-87.625095,41.910265],[-87.624809,41.907527],[-87.623572,41.904077],[-87.623723,41.904049],[-87.622591,41.903188],[-87.621909,41.902336],[-87.621868,41.902046],[-87.619876,41.901546],[-87.619125,41.900974],[-87.614907,41.894671],[-87.613686,41.893129],[-87.612623,41.893409],[-87.61203,41.893327],[-87.610154,41.896228],[-87.602426,41.896371],[-87.602352,41.893265],[-87.609822,41.893146],[-87.609796,41.892221],[-87.600715,41.892443],[-87.600582,41.89224],[-87.598549,41.892274],[-87.598524,41.89145],[-87.600567,41.891415],[-87.600561,41.891112],[-87.600719,41.891075],[-87.609535,41.891013],[-87.609486,41.88939],[-87.607665,41.889369],[-87.607653,41.888674],[-87.604676,41.888643],[-87.605202,41.888469],[-87.602456,41.888329],[-87.609846,41.88797],[-87.609986,41.88408],[-87.612736,41.884059],[-87.612878,41.883391],[-87.613506,41.88286],[-87.614461,41.882543],[-87.61579,41.882436],[-87.616399,41.882023],[-87.616498,41.881414],[-87.615754,41.881417],[-87.615722,41.880567],[-87.616478,41.880557],[-87.616183,41.875668],[-87.616212,41.868899],[-87.61540678632227,41.86834190449041],[-87.613972,41.868503],[-87.612773,41.868308],[-87.612418,41.867942],[-87.612347,41.867473],[-87.612688,41.866753],[-87.607749,41.866859],[-87.606759,41.867242],[-87.606002,41.867021],[-87.605611,41.866424],[-87.605715,41.866001],[-87.606051,41.865681],[-87.606045,41.864794],[-87.606293,41.864785],[-87.606586,41.865213],[-87.606832,41.865194],[-87.607358,41.864812],[-87.607579,41.864274],[-87.606955,41.862374],[-87.606021,41.862005],[-87.605965,41.86008],[-87.607072,41.859958],[-87.606511,41.853359],[-87.609004,41.853181],[-87.609588,41.853393],[-87.609897,41.85377],[-87.609335,41.856817],[-87.609925,41.857656],[-87.609885,41.858643],[-87.610476,41.859281],[-87.610363,41.859864],[-87.610668,41.860206],[-87.610675,41.860651],[-87.610348,41.860848],[-87.610361,41.861396],[-87.609898,41.862109],[-87.609605,41.863405],[-87.609955,41.864634],[-87.610448,41.865319],[-87.61048,41.865865],[-87.612669,41.865843],[-87.61265,41.865279],[-87.613131,41.864449],[-87.61344,41.863371],[-87.61326,41.862376],[-87.612561,41.861373],[-87.612548,41.860825],[-87.612203,41.860634],[-87.612393,41.860354],[-87.61215,41.860346],[-87.612443,41.859988],[-87.612187,41.858584],[-87.612725,41.858359],[-87.613042,41.857611],[-87.612853,41.856356],[-87.612476,41.855843],[-87.611175,41.854884],[-87.610717,41.853078],[-87.609222,41.850909],[-87.60949,41.848074],[-87.608538,41.846576],[-87.608408,41.846066],[-87.609141,41.844693],[-87.609406,41.845267],[-87.608771,41.843365],[-87.60802,41.842306],[-87.607849,41.841031],[-87.607528,41.84056],[-87.606678,41.840561],[-87.607501,41.840503],[-87.607211,41.839652],[-87.606156,41.838635],[-87.60471,41.83896],[-87.604185,41.839829],[-87.604667,41.83888],[-87.606135,41.838551],[-87.606072,41.837293],[-87.605655,41.836121],[-87.604558,41.834992],[-87.604544,41.834811],[-87.605033,41.834422],[-87.604868,41.833796],[-87.604352,41.833196],[-87.603012,41.832732],[-87.602704,41.832332],[-87.60271,41.831366],[-87.602395,41.830693],[-87.599972,41.82793],[-87.597755,41.826344],[-87.597482,41.825641],[-87.597662,41.824198],[-87.597271,41.822618],[-87.595115,41.819814],[-87.594621,41.819696],[-87.592616,41.818343],[-87.592191,41.817681],[-87.591989,41.816289],[-87.591456,41.815958],[-87.590891,41.815004],[-87.590398,41.814553],[-87.590346,41.814376],[-87.590517,41.814349],[-87.590036,41.813516],[-87.588626,41.81219],[-87.587337,41.811838],[-87.586934,41.811175],[-87.586925,41.810107],[-87.585158,41.807215],[-87.581269,41.804311],[-87.580115,41.803927],[-87.580017,41.803587],[-87.580448,41.802931],[-87.580289,41.802865],[-87.580474,41.800861],[-87.580283,41.799626],[-87.579788,41.798441],[-87.579937,41.798369],[-87.57821,41.797013],[-87.577351,41.796857],[-87.576447,41.797052],[-87.575883,41.796977],[-87.575272,41.796608],[-87.575164,41.79624],[-87.575444,41.79544],[-87.576166,41.795086],[-87.577388,41.795039],[-87.578304,41.794729],[-87.579012,41.7942],[-87.579301,41.793487],[-87.586638,41.793384],[-87.579302,41.793395],[-87.579325,41.792572],[-87.579628,41.792036],[-87.579449,41.791713],[-87.578272,41.789936],[-87.57632,41.78857],[-87.577759,41.788298],[-87.577639,41.788153],[-87.57715,41.788183],[-87.57733,41.787572],[-87.577242,41.786484],[-87.576046,41.783598],[-87.572479,41.781896],[-87.569683,41.781297],[-87.568397,41.781608],[-87.567532,41.784597],[-87.568306,41.781539],[-87.57308,41.780251],[-87.572954,41.779824],[-87.57411,41.779528],[-87.574735,41.779111],[-87.57528,41.777867],[-87.575191,41.777005],[-87.574608,41.776154],[-87.575079,41.775931],[-87.575043,41.775785],[-87.573367,41.775377],[-87.573216,41.775586],[-87.571936,41.775878],[-87.571773,41.776664],[-87.572315,41.777336],[-87.572646,41.777335],[-87.573361,41.778306],[-87.573259,41.779144],[-87.572477,41.779307],[-87.569898,41.776998],[-87.568813,41.776404],[-87.566826,41.77397],[-87.565652,41.772923],[-87.563581,41.772026],[-87.563276,41.770444],[-87.562338,41.769001],[-87.560527,41.768397],[-87.559536,41.769179],[-87.559392,41.766783],[-87.560516,41.766171],[-87.560514,41.76539],[-87.560122,41.764941],[-87.559842,41.764958],[-87.559602,41.76473],[-87.559517,41.764517],[-87.559742,41.764391],[-87.558979,41.763753],[-87.558456,41.764018],[-87.557572,41.763115],[-87.557641,41.762846],[-87.555593,41.761579],[-87.554802,41.761771],[-87.554033,41.760761],[-87.549545,41.758956],[-87.548401,41.758692],[-87.54659,41.758878],[-87.544319,41.760167],[-87.543853,41.760112],[-87.544417,41.760616],[-87.546492,41.760646],[-87.544365,41.760666],[-87.542563,41.759131],[-87.542627,41.758739],[-87.541649,41.757824],[-87.541148,41.757794],[-87.540597,41.757269],[-87.543762,41.755383],[-87.544946,41.754435],[-87.543978,41.755152],[-87.544413,41.754132],[-87.543716,41.752534],[-87.543188,41.751989],[-87.540434,41.751846],[-87.530948,41.748026],[-87.529877,41.741477],[-87.524462,41.741469],[-87.529887,41.741329],[-87.530687,41.741117],[-87.539855,41.741013],[-87.53983,41.740497],[-87.529857,41.740607],[-87.528958,41.733748],[-87.529495,41.732367],[-87.529135,41.732087],[-87.525263,41.731531],[-87.524688,41.731093],[-87.524467,41.721898],[-87.525003,41.721523],[-87.5247,41.721254],[-87.525093,41.721415],[-87.525408,41.72092],[-87.525081,41.720848],[-87.525485,41.720722],[-87.525609,41.719436],[-87.525294,41.718487],[-87.524905,41.71805],[-87.524505,41.717988],[-87.524468,41.717403],[-87.525813,41.717331],[-87.526421,41.717114],[-87.526605,41.717236],[-87.526519,41.717085],[-87.526791,41.716882],[-87.527301,41.716825],[-87.528189,41.716229],[-87.528704,41.715423],[-87.527712,41.713422],[-87.526486,41.712355],[-87.525167,41.713327],[-87.528408,41.710803],[-87.526648,41.709849],[-87.526243,41.70982],[-87.5259,41.710145],[-87.525997,41.71035],[-87.52575,41.710411],[-87.52414,41.70936],[-87.52476,41.709334],[-87.52553,41.709937],[-87.52622,41.709539],[-87.525769,41.709157],[-87.525261,41.709473],[-87.52513,41.709344],[-87.525679,41.709085],[-87.525374,41.708827],[-87.524862,41.709153],[-87.524942,41.708727],[-87.524535,41.708482],[-87.52477265998843,41.6844],[-87.60192691129133,41.6844],[-87.601936,41.684742],[-87.60192715141473,41.6844],[-87.69562768294021,41.6844],[-87.6957748705542,41.688075657812455],[-87.699473,41.687933],[-87.699398,41.686147],[-87.700624,41.686136],[-87.70055819327283,41.6844]],[[-87.627511,41.900758],[-87.624504,41.900806],[-87.619125,41.900974],[-87.627511,41.900758]],[[-87.628661,41.903264],[-87.628321,41.902373],[-87.625505,41.896713],[-87.627511,41.900758],[-87.628661,41.903264]],[[-87.625481,41.895722],[-87.625202,41.888867],[-87.625505,41.896713],[-87.625481,41.895722]],[[-87.627617,41.887512],[-87.62515769582384,41.888869832230434],[-87.625202,41.888867],[-87.627617,41.887512]],[[-87.611411,41.845267],[-87.616008,41.845093],[-87.609406,41.845267],[-87.611411,41.845267]],[[-87.613979,41.851617],[-87.61850784691306,41.86187996648384],[-87.611411,41.845267],[-87.613979,41.851617]],[[-87.58629602734527,41.77334017099944],[-87.58629601998055,41.77334017108215],[-87.586638,41.793384],[-87.58629602734527,41.77334017099944]],[[-87.61576,41.785699],[-87.586595,41.786143],[-87.606037,41.785874],[-87.61576,41.785699]],[[-87.66382371054718,41.91581771054718],[-87.6645879533507,41.91776297854559],[-87.663896,41.91589],[-87.66382371054718,41.91581771054718]],[[-87.663029,41.915488],[-87.66365405434783,41.91564805434783],[-87.663621,41.915615],[-87.663029,41.915488]],[[-87.661132,41.916177],[-87.66124287325628,41.91613673027222],[-87.66108000623888,41.91614621449613],[-87.661132,41.916177]],[[-87.658651,41.914708],[-87.65892951843308,41.91487291075299],[-87.65830007897554,41.914308154624855],[-87.658651,41.914708]],[[-87.657862,41.913809],[-87.65804309245074,41.91401533981396],[-87.656861,41.910785],[-87.657862,41.913809]],[[-87.649501,41.9109],[-87.648272,41.91092],[-87.656861,41.910785],[-87.649501,41.9109]],[[-87.641506,41.891969],[-87.64153492632141,41.89199657806066],[-87.64145971201977,41.89189566922127],[-87.641506,41.891969]],[[-87.639435,41.889228],[-87.63968492422663,41.88951458248029],[-87.639407031409,41.88914175655369],[-87.639435,41.889228]],[[-87.65867,41.875599],[-87.65935169795307,41.87558967339314],[-87.651365,41.875295],[-87.65867,41.875599]],[[-87.64558253271709,41.87541688338088],[-87.645579,41.875498],[-87.651365,41.875295],[-87.64558253271709,41.87541688338088]],[[-87.644792,41.867525],[-87.645657,41.873707],[-87.64477626541567,41.867157325500195],[-87.644792,41.867525]],[[-87.639014,41.860018],[-87.644468,41.859954],[-87.674273,41.859546],[-87.639014,41.860018]],[[-87.64264,41.850024],[-87.64244765306917,41.8502764923821],[-87.64306489043248,41.849861735000395],[-87.64264,41.850024]],[[-87.643999,41.849505],[-87.64361470823901,41.84965176042969],[-87.64528811403535,41.84942073052497],[-87.643999,41.849505]],[[-87.649637,41.848396],[-87.64618251114585,41.84929725032688],[-87.6468,41.849212],[-87.649637,41.848396]],[[-87.66362395633145,41.84437130301339],[-87.660773,41.845839],[-87.663607,41.844406],[-87.66362395633145,41.84437130301339]],[[-87.66431,41.842801],[-87.66408989470457,41.84341787405166],[-87.664969,41.841619],[-87.66431,41.842801]],[[-87.66344,41.837805],[-87.664538,41.839555],[-87.664285,41.839065],[-87.66344,41.837805]],[[-87.661287,41.834863],[-87.663078,41.836823],[-87.662487,41.836141],[-87.661287,41.834863]],[[-87.678806,41.7935],[-87.678815,41.793868],[-87.679413,41.797034],[-87.678806,41.7935]],[[-87.679123,41.786564],[-87.679672,41.786557],[-87.689725344449,41.786417399216624],[-87.679123,41.786564]],[[-87.669692,41.757784],[-87.678151,41.75766],[-87.67832593630666,41.75765685907642],[-87.669692,41.757784]],[[-87.678114,41.744296],[-87.67810919945984,41.74425843148713],[-87.67858796977158,41.75765215435214],[-87.678114,41.744296]],[[-87.67785915130679,41.742468050927194],[-87.67799846326278,41.74339182187341],[-87.67789,41.742543],[-87.67785915130679,41.742468050927194]],[[-87.696016,41.698806],[-87.6958487448217,41.69162740774734],[-87.69209,41.69176],[-87.692105,41.692202],[-87.691009,41.692283],[-87.691238,41.698982],[-87.642608,41.699641],[-87.696148,41.698941],[-87.696016,41.698806]],[[-87.642152,41.685082],[-87.642834,41.706917],[-87.642608,41.699641],[-87.642152,41.685082]],[[-87.661599,41.68482],[-87.61543066535222,41.685394763939044],[-87.642152,41.685082],[-87.661599,41.68482]],[[-87.7138294891933,41.80592261472422],[-87.71432228984646,41.80470080896688],[-87.714189,41.80484],[-87.7138294891933,41.80592261472422]],[[-87.688182,41.863057],[-87.688215,41.859507],[-87.68816940104887,41.859452730825765],[-87.688182,41.863057]],[[-87.6880739576132,41.859339139694576],[-87.688073,41.859338],[-87.685834,41.859366],[-87.6880739576132,41.859339139694576]],[[-87.68798981421851,41.85697977228041],[-87.68803399532604,41.856969879946085],[-87.68756,41.844795],[-87.68798981421851,41.85697977228041]],[[-87.73146,41.931734],[-87.7352218309152,41.93898567367984],[-87.727702,41.924473],[-87.73146,41.931734]],[[-87.6674950638295,41.90334599898662],[-87.69193308383419,41.902968292362544],[-87.69193308370431,41.90296828707867],[-87.6674950638295,41.90334599898662]],[[-87.69157,41.888196],[-87.703868,41.888164],[-87.68873105843171,41.88817495724909],[-87.69157,41.888196]],[[-87.68867345710036,41.888174530297555],[-87.690327,41.887677],[-87.69041994924308,41.88761154119972],[-87.68867345710036,41.888174530297555]],[[-87.69085151908367,41.88730761140896],[-87.691152,41.887096],[-87.69118669171519,41.8870309043097],[-87.69085151908367,41.88730761140896]],[[-87.691325,41.875256],[-87.691505,41.881113],[-87.69113790990096,41.86884135683875],[-87.691325,41.875256]],[[-87.69097469462581,41.867497349573064],[-87.69095,41.867294],[-87.69088218246364,41.86719034624968],[-87.69097469462581,41.867497349573064]],[[-87.78897830775061,41.917313403455715],[-87.789935,41.918005],[-87.7889825574945,41.91731494618607],[-87.78897830775061,41.917313403455715]],[[-87.787834,41.916898],[-87.78759538223434,41.916857101939705],[-87.78876144144934,41.91723467724685],[-87.787834,41.916898]],[[-87.785226,41.916451],[-87.78493225058119,41.91645515555303],[-87.78523385335987,41.91645234603216],[-87.785226,41.916451]],[[-87.759246,41.916087],[-87.764123,41.916649],[-87.76431262433788,41.91664723359209],[-87.759246,41.916087]],[[-87.741335,41.913898],[-87.755087,41.915471],[-87.75570521876459,41.915418187341714],[-87.741335,41.913898]],[[-87.78611134209781,41.9383014931669],[-87.742175,41.938891],[-87.74069863211861,41.93891117186088],[-87.78611134209781,41.9383014931669]],[[-87.77525378975412,41.90979229394272],[-87.775245,41.909806],[-87.77546953962569,41.916543303560324],[-87.77525378975412,41.90979229394272]],[[-87.741342,41.899853],[-87.741021,41.89651],[-87.741119,41.898777],[-87.741342,41.899853]],[[-87.741163,41.895915],[-87.74114830070076,41.89580255793776],[-87.741021,41.89651],[-87.741163,41.895915]],[[-87.740749,41.891464],[-87.740212,41.876907],[-87.740596,41.887823],[-87.740749,41.891464]],[[-87.70820912245256,41.87003075336935],[-87.717969,41.869941],[-87.720239,41.869869],[-87.70820912245256,41.87003075336935]],[[-87.739894,41.868963],[-87.740085,41.873252],[-87.739766,41.865962],[-87.739894,41.868963]],[[-87.739515,41.876909],[-87.73948858358754,41.876221747204866],[-87.739502,41.876624],[-87.739515,41.876909]],[[-87.736724,41.913466],[-87.73397428082727,41.91350282021253],[-87.73677690896648,41.9134709569884],[-87.736724,41.913466]],[[-87.68439391999505,41.80455461094692],[-87.694095,41.804409],[-87.684394,41.804554],[-87.68439391999505,41.80455461094692]],[[-87.687399,41.834801],[-87.6873985441811,41.8347100696864],[-87.68546552700056,41.83537594460735],[-87.687399,41.834801]],[[-87.670561,41.837136],[-87.670044,41.837142],[-87.66990009405278,41.837156382604384],[-87.670561,41.837136]],[[-87.66896784359608,41.83724955588712],[-87.668243,41.837322],[-87.666506,41.837861],[-87.66896784359608,41.83724955588712]],[[-87.687883,41.932179],[-87.68731642088687,41.91400886794025],[-87.68798697094147,41.93610304254058],[-87.687883,41.932179]],[[-87.66612840549655,41.91452230111411],[-87.66652546633033,41.91444908422278],[-87.666214,41.914485],[-87.66612840549655,41.91452230111411]],[[-87.685968,41.934033],[-87.687673,41.935899],[-87.68798450298102,41.93610143866948],[-87.685968,41.934033]],[[-87.68346937243635,41.93340513974042],[-87.68348,41.933425],[-87.68374050405369,41.933473270249394],[-87.68346937243635,41.93340513974042]],[[-87.688487,41.936428],[-87.6885005713173,41.93643021289229],[-87.68805088355512,41.93614457788778],[-87.688487,41.936428]],[[-87.630226,41.857779],[-87.635158,41.857722],[-87.630224,41.857695],[-87.630061,41.852877],[-87.630226,41.857779]],[[-87.638089,41.932932],[-87.66878169958434,41.93241951240099],[-87.65871,41.932556],[-87.638089,41.932932]],[[-87.632822,41.932933],[-87.632506,41.932601],[-87.63245365908338,41.93259955453864],[-87.632822,41.932933]],[[-87.618962,41.867503],[-87.61886760577715,41.86761219236704],[-87.62372724369811,41.867467039748],[-87.618962,41.867503]],[[-87.61910891273747,41.863418917770275],[-87.61895,41.862915],[-87.61888733683378,41.86276831216908],[-87.61910891273747,41.863418917770275]],[[-87.61784,41.845726],[-87.629168,41.845557],[-87.629965,41.845545],[-87.61784,41.845726]],[[-87.62826566133737,41.78325318660336],[-87.62897,41.783147],[-87.625404,41.78321],[-87.62826566133737,41.78325318660336]],[[-87.639335,41.756157],[-87.64034821599934,41.75613993171616],[-87.6399,41.756146],[-87.639335,41.756157]],[[-87.639759,41.750705],[-87.639369,41.750711],[-87.63932712514058,41.75071165353425],[-87.639759,41.750705]],[[-87.604492,41.722548],[-87.604482,41.722044],[-87.604507,41.723614],[-87.604492,41.722548]],[[-87.603182,41.722048],[-87.586704,41.722322],[-87.604482,41.722044],[-87.603182,41.722048]],[[-87.611351,41.686246],[-87.61136065015823,41.68606966529035],[-87.603182,41.722048],[-87.611351,41.686246]],[[-87.58668832508052,41.722307261434125],[-87.587374,41.723256],[-87.586704,41.722322],[-87.58668832508052,41.722307261434125]],[[-87.634734,41.867315],[-87.6348333312106,41.8678975097249],[-87.63472693400638,41.86706593157614],[-87.634734,41.867315]],[[-87.62413208365004,41.867461447567834],[-87.624335,41.880827],[-87.624452,41.884471],[-87.62413208365004,41.867461447567834]],[[-87.617429,41.881872],[-87.617488,41.880918],[-87.617224,41.869971],[-87.617429,41.881872]],[[-87.61687422582666,41.88266208339561],[-87.617043,41.882562],[-87.617429,41.881872],[-87.61687422582666,41.88266208339561]],[[-87.6150249230769,41.88375872333193],[-87.61494,41.883804],[-87.61492724201197,41.88381664838332],[-87.6150249230769,41.88375872333193]],[[-87.64408490159262,41.75608934166844],[-87.644235,41.758144],[-87.644184,41.756088],[-87.64408490159262,41.75608934166844]],[[-87.633734,41.728853],[-87.633133,41.707043],[-87.633742,41.729921],[-87.634128,41.735942],[-87.633734,41.728853]],[[-87.63749355268072,41.886292423989275],[-87.637588,41.886234],[-87.63764101088914,41.88594114129481],[-87.63749355268072,41.886292423989275]],[[-87.62450258747874,41.89928132455654],[-87.62450096954132,41.897534922896604],[-87.624451,41.897889],[-87.62450258747874,41.89928132455654]],[[-87.638139,41.88319],[-87.638278,41.88037],[-87.63822912420042,41.8801580321625],[-87.638139,41.88319]],[[-87.637429,41.876688],[-87.63615913635284,41.8748106887388],[-87.636294,41.875201],[-87.637429,41.876688]],[[-87.63598820934713,41.87431600587524],[-87.63571053622458,41.873041718159264],[-87.635869,41.873971],[-87.63598820934713,41.87431600587524]],[[-87.61734033044108,41.869590412754484],[-87.61757248265944,41.86905951728669],[-87.617467,41.869176],[-87.61734033044108,41.869590412754484]],[[-87.631682,41.911181],[-87.6316860282707,41.91118762325817],[-87.631445,41.903901],[-87.631682,41.911181]],[[-87.626458,41.911471],[-87.62645760358096,41.91147101909495],[-87.626566,41.911673],[-87.626458,41.911471]],[[-87.58582100875324,41.7516715156537],[-87.585821,41.751672],[-87.58596100161753,41.751772251948374],[-87.58582100875324,41.7516715156537]],[[-87.58558662100332,41.75150285453254],[-87.552287,41.751919],[-87.5855949127945,41.75150882115323],[-87.58558662100332,41.75150285453254]],[[-87.5431355851969,41.7229287459893],[-87.543144,41.722862],[-87.542692,41.720816],[-87.5431355851969,41.7229287459893]],[[-87.542211,41.714622],[-87.54218,41.715643],[-87.54234523815549,41.71416342245016],[-87.542211,41.714622]],[[-87.542674,41.71095],[-87.54264496787947,41.7114795788229],[-87.54271065566658,41.71089139642137],[-87.542674,41.71095]],[[-87.60143169809297,41.68646776253527],[-87.60157,41.686209],[-87.60158067842511,41.68616619877149],[-87.60143169809297,41.68646776253527]],[[-87.5430517903965,41.7235934040658],[-87.542252,41.726579],[-87.542997,41.724028],[-87.5430517903965,41.7235934040658]],[[-87.59785,41.741693],[-87.597486,41.74043],[-87.59785346632276,41.74202049817478],[-87.59785,41.741693]],[[-87.5873982003468,41.77332779290974],[-87.605769,41.773141],[-87.592099,41.773275],[-87.5873982003468,41.77332779290974]],[[-87.606407,41.802251],[-87.606708,41.816814],[-87.606859,41.823166],[-87.606407,41.802251]]]},"properties":{"name":"The Zone","basis":"Ehemalige Containment Zone zwischen Harlem Avenue, Belmont Avenue, 115th Street und dem Ufer des Lake Michigan","boundary_role":"lore-district","lore_source":"Mission Chicago, Chicago-Kapitel (SR5); Bug City, The Wall (SR2)","source":"Code for Germany / Click That Hood","source_url":"https://github.com/codeforgermany/click_that_hood","boundary_review_status":"source-aligned","boundary_review_label":"Vier publizierte Straßen- und Ufergrenzen vollständig umgesetzt"}}]}
