{"type":"FeatureCollection","name":"Chicago Orte","features":[{"type":"Feature","geometry":null,"properties":{"id":11,"global_id":"chicago:place:11-bryn-mawr-apartment-hotel","name":"Bryn Mawr Apartment Hotel","aliases":[],"category":"Hotels","detail_map":"Northside","source_pages":"Kapitel Northside","map_source":"Feral Cities","placement_note":"Keine belastbare Einzelposition; Eintrag bleibt im Katalog","accuracy":"Nur Stadt oder Lore-Teilraum belegt","source_map":"chicago-content","source_panel":"Northside","description_preview":"Das Bryn Mawr Apartment Hotel ist als Schauplatz im Northside belegt.","description_full":"Das Bryn Mawr Apartment Hotel ist als Schauplatz im Northside belegt. Die Position ist auf den belegten Stadt- oder Teilraum angenähert; eine hausgenaue Lage und eine weitergehende eigene Fließtextbeschreibung sind aus dem zugeordneten Datenmaterial nicht sicher ableitbar.","description_source":"Kapitel Northside","description_kind":"Ortsprofil","description_has_more":true,"detail_plans":[],"alternate_locations":[],"sources":[{"bookId":"sr4-feral-cities","title":"Feral Cities","edition":"SR4","citation":"Kapitel Northside","purpose":"description"}],"map_sources":[],"editions":["SR4"],"edition_descriptions":{"SR4":{"kind":"Ortsprofil","preview":"Das Bryn Mawr Apartment Hotel ist als Schauplatz im Northside belegt.","full":"Das Bryn Mawr Apartment Hotel ist als Schauplatz im Northside belegt. Die Position ist auf den belegten Stadt- oder Teilraum angenähert; eine hausgenaue Lage und eine weitergehende eigene Fließtextbeschreibung sind aus dem zugeordneten Datenmaterial nicht sicher ableitbar.","hasMore":true,"hasExcerpt":true,"sources":[{"bookId":"sr4-feral-cities","title":"Feral Cities","edition":"SR4","citation":"Kapitel Northside","purpose":"description"}]}}}},{"type":"Feature","geometry":{"type":"Point","coordinates":[-87.6226,41.8522]},"properties":{"id":9,"global_id":"chicago:place:9-cermak-crater","name":"Cermak Crater","aliases":[],"category":"Sondergebiete","detail_map":"The Zone","source_pages":"Kapitel The Zone","map_source":"Feral Cities","placement_note":"Erhaltener geographischer Bezugspunkt","accuracy":"Geographischer Bezugspunkt","source_map":"chicago-content","source_panel":"The Zone","description_preview":"Der Cermak-Krater ist Ground Zero der Zerstörung und ein zentraler Gefahrenpunkt der Zone.","description_full":"Der Cermak-Krater ist Ground Zero der Zerstörung und ein zentraler Gefahrenpunkt der Zone. Die Position folgt einem erhaltenen heutigen Bezugspunkt.","description_source":"Kapitel The Zone","description_kind":"Ortsprofil","description_has_more":true,"detail_plans":[],"alternate_locations":[],"sources":[{"bookId":"sr4-feral-cities","title":"Feral Cities","edition":"SR4","citation":"Kapitel The Zone","purpose":"description"}],"map_sources":[],"editions":["SR4"],"edition_descriptions":{"SR4":{"kind":"Ortsprofil","preview":"Der Cermak-Krater ist Ground Zero der Zerstörung und ein zentraler Gefahrenpunkt der Zone.","full":"Der Cermak-Krater ist Ground Zero der Zerstörung und ein zentraler Gefahrenpunkt der Zone. Die Position folgt einem erhaltenen heutigen Bezugspunkt.","hasMore":true,"hasExcerpt":true,"sources":[{"bookId":"sr4-feral-cities","title":"Feral Cities","edition":"SR4","citation":"Kapitel The Zone","purpose":"description"}]}}}},{"type":"Feature","geometry":null,"properties":{"id":10,"global_id":"chicago:place:10-chicago-pedway","name":"Chicago Pedway","aliases":[],"category":"Verkehr","detail_map":"The Zone","source_pages":"Kapitel The Zone","map_source":"Feral Cities","placement_note":"Keine belastbare Einzelposition; Eintrag bleibt im Katalog","accuracy":"Nur Stadt oder Lore-Teilraum belegt","source_map":"chicago-content","source_panel":"The Zone","description_preview":"Das unterirdische Pedway-Netz verbindet Teile des Zentrums und dient als Verkehrsweg, Rückzugsraum und Gefahrenzone.","description_full":"Das unterirdische Pedway-Netz verbindet Teile des Zentrums und dient als Verkehrsweg, Rückzugsraum und Gefahrenzone. Die Position ist auf den belegten Stadt- oder Teilraum angenähert; eine hausgenaue Lage und eine weitergehende eigene Fließtextbeschreibung sind aus dem zugeordneten Datenmaterial nicht sicher ableitbar.","description_source":"Kapitel The Zone","description_kind":"Ortsprofil","description_has_more":true,"detail_plans":[],"alternate_locations":[],"sources":[{"bookId":"sr4-feral-cities","title":"Feral Cities","edition":"SR4","citation":"Kapitel The Zone","purpose":"description"}],"map_sources":[],"editions":["SR4"],"edition_descriptions":{"SR4":{"kind":"Ortsprofil","preview":"Das unterirdische Pedway-Netz verbindet Teile des Zentrums und dient als Verkehrsweg, Rückzugsraum und Gefahrenzone.","full":"Das unterirdische Pedway-Netz verbindet Teile des Zentrums und dient als Verkehrsweg, Rückzugsraum und Gefahrenzone. Die Position ist auf den belegten Stadt- oder Teilraum angenähert; eine hausgenaue Lage und eine weitergehende eigene Fließtextbeschreibung sind aus dem zugeordneten Datenmaterial nicht sicher ableitbar.","hasMore":true,"hasExcerpt":true,"sources":[{"bookId":"sr4-feral-cities","title":"Feral Cities","edition":"SR4","citation":"Kapitel The Zone","purpose":"description"}]}}}},{"type":"Feature","geometry":null,"properties":{"id":23,"global_id":"chicago:place:23-cook-county-printing-office","name":"Cook County Printing Office","aliases":[],"category":"Behörden","detail_map":"The Zone","source_pages":"PDF-Seite 102","map_source":"Bug City","placement_note":"Keine belastbare Einzelposition; Eintrag bleibt im Katalog","accuracy":"Nur Stadt oder Lore-Teilraum belegt","source_map":"chicago-content","source_panel":"The Zone","description_preview":"Das Cook County Printing Office ist ein im frühen Containment-Zone-Quellenstand belegter Standort.","description_full":"Das Cook County Printing Office ist ein im frühen Containment-Zone-Quellenstand belegter Standort. Die Position ist auf den belegten Stadt- oder Teilraum angenähert; eine hausgenaue Lage und eine weitergehende eigene Fließtextbeschreibung sind aus dem zugeordneten Datenmaterial nicht sicher ableitbar.","description_source":"PDF-Seite 102","description_kind":"Ortsprofil","description_has_more":true,"detail_plans":[],"alternate_locations":[],"sources":[{"bookId":"sr2-bug-city","title":"Bug City","edition":"SR2","citation":"PDF-Seite 102","purpose":"description"}],"map_sources":[],"editions":["SR2"],"edition_descriptions":{"SR2":{"kind":"Ortsprofil","preview":"Das Cook County Printing Office ist ein im frühen Containment-Zone-Quellenstand belegter Standort.","full":"Das Cook County Printing Office ist ein im frühen Containment-Zone-Quellenstand belegter Standort. Die Position ist auf den belegten Stadt- oder Teilraum angenähert; eine hausgenaue Lage und eine weitergehende eigene Fließtextbeschreibung sind aus dem zugeordneten Datenmaterial nicht sicher ableitbar.","hasMore":true,"hasExcerpt":true,"sources":[{"bookId":"sr2-bug-city","title":"Bug City","edition":"SR2","citation":"PDF-Seite 102","purpose":"description"}]}}}},{"type":"Feature","geometry":null,"properties":{"id":28,"global_id":"chicago:place:28-elemental-hall","name":"Elemental Hall","aliases":[],"category":"Magie und Erwachte","detail_map":"The Zone","source_pages":"Preservation Society","map_source":"Abenteuerband - Schatten über Chicago","placement_note":"Keine belastbare Einzelposition; Eintrag bleibt im Katalog","accuracy":"Nur Stadt oder Lore-Teilraum belegt","source_map":"chicago-content","source_panel":"The Zone","description_preview":"Elemental Hall ist der frühere Magie-Fachbereich der University of Chicago und heutige Sitz der Astral Space Preservation Society.","description_full":"Elemental Hall ist der frühere Magie-Fachbereich der University of Chicago und heutige Sitz der Astral Space Preservation Society. Die Position ist auf den belegten Stadt- oder Teilraum angenähert; eine hausgenaue Lage und eine weitergehende eigene Fließtextbeschreibung sind aus dem zugeordneten Datenmaterial nicht sicher ableitbar.","description_source":"Preservation Society","description_kind":"Ortsprofil","description_has_more":true,"detail_plans":[],"alternate_locations":[],"sources":[{"bookId":"sr5-abenteuerband-schatten-uber-chicago","title":"Abenteuerband - Schatten über Chicago","edition":"SR5","citation":"Preservation Society","purpose":"description"}],"map_sources":[],"editions":["SR5"],"edition_descriptions":{"SR5":{"kind":"Ortsprofil","preview":"Elemental Hall ist der frühere Magie-Fachbereich der University of Chicago und heutige Sitz der Astral Space Preservation Society.","full":"Elemental Hall ist der frühere Magie-Fachbereich der University of Chicago und heutige Sitz der Astral Space Preservation Society. Die Position ist auf den belegten Stadt- oder Teilraum angenähert; eine hausgenaue Lage und eine weitergehende eigene Fließtextbeschreibung sind aus dem zugeordneten Datenmaterial nicht sicher ableitbar.","hasMore":true,"hasExcerpt":true,"sources":[{"bookId":"sr5-abenteuerband-schatten-uber-chicago","title":"Abenteuerband - Schatten über Chicago","edition":"SR5","citation":"Preservation Society","purpose":"description"}]}}}},{"type":"Feature","geometry":null,"properties":{"id":12,"global_id":"chicago:place:12-fort-chicago","name":"Fort Chicago","aliases":[],"category":"Sicherheit und Justiz","detail_map":"Northside","source_pages":"Kapitel Northside","map_source":"Feral Cities","placement_note":"Keine belastbare Einzelposition; Eintrag bleibt im Katalog","accuracy":"Nur Stadt oder Lore-Teilraum belegt","source_map":"chicago-content","source_panel":"Northside","description_preview":"Fort Chicago ist eine befestigte Enklave im nördlichen Stadtgebiet.","description_full":"Fort Chicago ist eine befestigte Enklave im nördlichen Stadtgebiet. Die Position ist auf den belegten Stadt- oder Teilraum angenähert; eine hausgenaue Lage und eine weitergehende eigene Fließtextbeschreibung sind aus dem zugeordneten Datenmaterial nicht sicher ableitbar.","description_source":"Kapitel Northside","description_kind":"Ortsprofil","description_has_more":true,"detail_plans":[],"alternate_locations":[],"sources":[{"bookId":"sr4-feral-cities","title":"Feral Cities","edition":"SR4","citation":"Kapitel Northside","purpose":"description"}],"map_sources":[],"editions":["SR4"],"edition_descriptions":{"SR4":{"kind":"Ortsprofil","preview":"Fort Chicago ist eine befestigte Enklave im nördlichen Stadtgebiet.","full":"Fort Chicago ist eine befestigte Enklave im nördlichen Stadtgebiet. Die Position ist auf den belegten Stadt- oder Teilraum angenähert; eine hausgenaue Lage und eine weitergehende eigene Fließtextbeschreibung sind aus dem zugeordneten Datenmaterial nicht sicher ableitbar.","hasMore":true,"hasExcerpt":true,"sources":[{"bookId":"sr4-feral-cities","title":"Feral Cities","edition":"SR4","citation":"Kapitel Northside","purpose":"description"}]}}}},{"type":"Feature","geometry":null,"properties":{"id":13,"global_id":"chicago:place:13-freaktown","name":"Freaktown","aliases":[],"category":"Stadtteile","detail_map":"The Zone","source_pages":"Kapitel The Zone","map_source":"Feral Cities","placement_note":"Keine belastbare Einzelposition; Eintrag bleibt im Katalog","accuracy":"Nur Stadt oder Lore-Teilraum belegt","source_map":"chicago-content","source_panel":"The Zone","description_preview":"Freaktown ist eine eigenständige Gemeinschaft innerhalb der Zone.","description_full":"Freaktown ist eine eigenständige Gemeinschaft innerhalb der Zone. Die Position ist auf den belegten Stadt- oder Teilraum angenähert; eine hausgenaue Lage und eine weitergehende eigene Fließtextbeschreibung sind aus dem zugeordneten Datenmaterial nicht sicher ableitbar.","description_source":"Kapitel The Zone","description_kind":"Ortsprofil","description_has_more":true,"detail_plans":[],"alternate_locations":[],"sources":[{"bookId":"sr4-feral-cities","title":"Feral Cities","edition":"SR4","citation":"Kapitel The Zone","purpose":"description"}],"map_sources":[],"editions":["SR4"],"edition_descriptions":{"SR4":{"kind":"Ortsprofil","preview":"Freaktown ist eine eigenständige Gemeinschaft innerhalb der Zone.","full":"Freaktown ist eine eigenständige Gemeinschaft innerhalb der Zone. Die Position ist auf den belegten Stadt- oder Teilraum angenähert; eine hausgenaue Lage und eine weitergehende eigene Fließtextbeschreibung sind aus dem zugeordneten Datenmaterial nicht sicher ableitbar.","hasMore":true,"hasExcerpt":true,"sources":[{"bookId":"sr4-feral-cities","title":"Feral Cities","edition":"SR4","citation":"Kapitel The Zone","purpose":"description"}]}}}},{"type":"Feature","geometry":{"type":"Point","coordinates":[-87.619,41.8757]},"properties":{"id":24,"global_id":"chicago:place:24-grant-park","name":"Grant Park","aliases":[],"category":"Freizeit und Natur","detail_map":"The Core","source_pages":"PDF-Seite 113","map_source":"Bug City","placement_note":"Erhaltener geographischer Bezugspunkt","accuracy":"Geographischer Bezugspunkt","source_map":"chicago-content","source_panel":"The Core","description_preview":"Grant Park ist ein historischer Innenstadtpark und ein wiederkehrender geografischer Bezugspunkt Chicagos.","description_full":"Grant Park ist ein historischer Innenstadtpark und ein wiederkehrender geografischer Bezugspunkt Chicagos. Die Position folgt einem erhaltenen heutigen Bezugspunkt.","description_source":"PDF-Seite 113","description_kind":"Ortsprofil","description_has_more":true,"detail_plans":[],"alternate_locations":[],"sources":[{"bookId":"sr2-bug-city","title":"Bug City","edition":"SR2","citation":"PDF-Seite 113","purpose":"description"}],"map_sources":[],"editions":["SR2"],"edition_descriptions":{"SR2":{"kind":"Ortsprofil","preview":"Grant Park ist ein historischer Innenstadtpark und ein wiederkehrender geografischer Bezugspunkt Chicagos.","full":"Grant Park ist ein historischer Innenstadtpark und ein wiederkehrender geografischer Bezugspunkt Chicagos. Die Position folgt einem erhaltenen heutigen Bezugspunkt.","hasMore":true,"hasExcerpt":true,"sources":[{"bookId":"sr2-bug-city","title":"Bug City","edition":"SR2","citation":"PDF-Seite 113","purpose":"description"}]}}}},{"type":"Feature","geometry":null,"properties":{"id":25,"global_id":"chicago:place:25-joliet-arsenal-industrial-park","name":"Joliet Arsenal Industrial Park","aliases":[],"category":"Konzerne","detail_map":"Joliet","source_pages":"Kapitel Joliet","map_source":"Mission Chicago","placement_note":"Keine belastbare Einzelposition; Eintrag bleibt im Katalog","accuracy":"Nur Stadt oder Lore-Teilraum belegt","source_map":"chicago-content","source_panel":"Joliet","description_preview":"Der Industriepark diente Knight Errant als Sammelpunkt an der Containment-Zone und beherbergt weiterhin wichtige Ares-Munitionslabore.","description_full":"Der Industriepark diente Knight Errant als Sammelpunkt an der Containment-Zone und beherbergt weiterhin wichtige Ares-Munitionslabore. Die Position ist auf den belegten Stadt- oder Teilraum angenähert; eine hausgenaue Lage und eine weitergehende eigene Fließtextbeschreibung sind aus dem zugeordneten Datenmaterial nicht sicher ableitbar.","description_source":"Kapitel Joliet","description_kind":"Ortsprofil","description_has_more":true,"detail_plans":[],"alternate_locations":[],"sources":[{"bookId":"sr5-mission-chicago","title":"Mission Chicago","edition":"SR5","citation":"Kapitel Joliet","purpose":"description"}],"map_sources":[],"editions":["SR5"],"edition_descriptions":{"SR5":{"kind":"Ortsprofil","preview":"Der Industriepark diente Knight Errant als Sammelpunkt an der Containment-Zone und beherbergt weiterhin wichtige Ares-Munitionslabore.","full":"Der Industriepark diente Knight Errant als Sammelpunkt an der Containment-Zone und beherbergt weiterhin wichtige Ares-Munitionslabore. Die Position ist auf den belegten Stadt- oder Teilraum angenähert; eine hausgenaue Lage und eine weitergehende eigene Fließtextbeschreibung sind aus dem zugeordneten Datenmaterial nicht sicher ableitbar.","hasMore":true,"hasExcerpt":true,"sources":[{"bookId":"sr5-mission-chicago","title":"Mission Chicago","edition":"SR5","citation":"Kapitel Joliet","purpose":"description"}]}}}},{"type":"Feature","geometry":null,"properties":{"id":14,"global_id":"chicago:place:14-little-earth","name":"Little Earth","aliases":[],"category":"Stadtteile","detail_map":"The Zone","source_pages":"Kapitel The Zone","map_source":"Feral Cities","placement_note":"Keine belastbare Einzelposition; Eintrag bleibt im Katalog","accuracy":"Nur Stadt oder Lore-Teilraum belegt","source_map":"chicago-content","source_panel":"The Zone","description_preview":"Little Earth liegt im Umfeld der University of Chicago und gehört zu den benannten Enklaven der Zone.","description_full":"Little Earth liegt im Umfeld der University of Chicago und gehört zu den benannten Enklaven der Zone. Die Position ist auf den belegten Stadt- oder Teilraum angenähert; eine hausgenaue Lage und eine weitergehende eigene Fließtextbeschreibung sind aus dem zugeordneten Datenmaterial nicht sicher ableitbar.","description_source":"Kapitel The Zone","description_kind":"Ortsprofil","description_has_more":true,"detail_plans":[],"alternate_locations":[],"sources":[{"bookId":"sr4-feral-cities","title":"Feral Cities","edition":"SR4","citation":"Kapitel The Zone","purpose":"description"}],"map_sources":[],"editions":["SR4"],"edition_descriptions":{"SR4":{"kind":"Ortsprofil","preview":"Little Earth liegt im Umfeld der University of Chicago und gehört zu den benannten Enklaven der Zone.","full":"Little Earth liegt im Umfeld der University of Chicago und gehört zu den benannten Enklaven der Zone. Die Position ist auf den belegten Stadt- oder Teilraum angenähert; eine hausgenaue Lage und eine weitergehende eigene Fließtextbeschreibung sind aus dem zugeordneten Datenmaterial nicht sicher ableitbar.","hasMore":true,"hasExcerpt":true,"sources":[{"bookId":"sr4-feral-cities","title":"Feral Cities","edition":"SR4","citation":"Kapitel The Zone","purpose":"description"}]}}}},{"type":"Feature","geometry":null,"properties":{"id":29,"global_id":"chicago:place:29-malony-government-complex","name":"Malony Government Complex","aliases":[],"category":"Behörden","detail_map":"The Core","source_pages":"Malony Government Complex","map_source":"Bug City","placement_note":"Keine belastbare Einzelposition; Eintrag bleibt im Katalog","accuracy":"Nur Stadt oder Lore-Teilraum belegt","source_map":"chicago-content","source_panel":"The Core","description_preview":"Der Verwaltungskomplex bündelt Rathaus, Council Building, Bundesbehörden und weitere öffentliche Einrichtungen.","description_full":"Der Verwaltungskomplex bündelt Rathaus, Council Building, Bundesbehörden und weitere öffentliche Einrichtungen. Die Position ist auf den belegten Stadt- oder Teilraum angenähert; eine hausgenaue Lage und eine weitergehende eigene Fließtextbeschreibung sind aus dem zugeordneten Datenmaterial nicht sicher ableitbar.","description_source":"Malony Government Complex","description_kind":"Ortsprofil","description_has_more":true,"detail_plans":[],"alternate_locations":[],"sources":[{"bookId":"sr2-bug-city","title":"Bug City","edition":"SR2","citation":"Malony Government Complex","purpose":"description"}],"map_sources":[],"editions":["SR2"],"edition_descriptions":{"SR2":{"kind":"Ortsprofil","preview":"Der Verwaltungskomplex bündelt Rathaus, Council Building, Bundesbehörden und weitere öffentliche Einrichtungen.","full":"Der Verwaltungskomplex bündelt Rathaus, Council Building, Bundesbehörden und weitere öffentliche Einrichtungen. Die Position ist auf den belegten Stadt- oder Teilraum angenähert; eine hausgenaue Lage und eine weitergehende eigene Fließtextbeschreibung sind aus dem zugeordneten Datenmaterial nicht sicher ableitbar.","hasMore":true,"hasExcerpt":true,"sources":[{"bookId":"sr2-bug-city","title":"Bug City","edition":"SR2","citation":"Malony Government Complex","purpose":"description"}]}}}},{"type":"Feature","geometry":null,"properties":{"id":15,"global_id":"chicago:place:15-market-square","name":"Market Square","aliases":[],"category":"Einkaufen","detail_map":"Northside","source_pages":"Kapitel Northside","map_source":"Feral Cities","placement_note":"Keine belastbare Einzelposition; Eintrag bleibt im Katalog","accuracy":"Nur Stadt oder Lore-Teilraum belegt","source_map":"chicago-content","source_panel":"Northside","description_preview":"Market Square ist ein Handelsplatz und sozialer Treffpunkt im Northside.","description_full":"Market Square ist ein Handelsplatz und sozialer Treffpunkt im Northside. Die Position ist auf den belegten Stadt- oder Teilraum angenähert; eine hausgenaue Lage und eine weitergehende eigene Fließtextbeschreibung sind aus dem zugeordneten Datenmaterial nicht sicher ableitbar.","description_source":"Kapitel Northside","description_kind":"Ortsprofil","description_has_more":true,"detail_plans":[],"alternate_locations":[],"sources":[{"bookId":"sr4-feral-cities","title":"Feral Cities","edition":"SR4","citation":"Kapitel Northside","purpose":"description"}],"map_sources":[],"editions":["SR4"],"edition_descriptions":{"SR4":{"kind":"Ortsprofil","preview":"Market Square ist ein Handelsplatz und sozialer Treffpunkt im Northside.","full":"Market Square ist ein Handelsplatz und sozialer Treffpunkt im Northside. Die Position ist auf den belegten Stadt- oder Teilraum angenähert; eine hausgenaue Lage und eine weitergehende eigene Fließtextbeschreibung sind aus dem zugeordneten Datenmaterial nicht sicher ableitbar.","hasMore":true,"hasExcerpt":true,"sources":[{"bookId":"sr4-feral-cities","title":"Feral Cities","edition":"SR4","citation":"Kapitel Northside","purpose":"description"}]}}}},{"type":"Feature","geometry":null,"properties":{"id":16,"global_id":"chicago:place:16-merles-grocery","name":"Merle’s Grocery","aliases":[],"category":"Einkaufen","detail_map":"The Zone","source_pages":"Kapitel The Zone","map_source":"Feral Cities","placement_note":"Keine belastbare Einzelposition; Eintrag bleibt im Katalog","accuracy":"Nur Stadt oder Lore-Teilraum belegt","source_map":"chicago-content","source_panel":"The Zone","description_preview":"Merle’s Grocery ist ein lokaler Versorgungs- und Kontaktpunkt in der Zone.","description_full":"Merle’s Grocery ist ein lokaler Versorgungs- und Kontaktpunkt in der Zone. Die Position ist auf den belegten Stadt- oder Teilraum angenähert; eine hausgenaue Lage und eine weitergehende eigene Fließtextbeschreibung sind aus dem zugeordneten Datenmaterial nicht sicher ableitbar.","description_source":"Kapitel The Zone","description_kind":"Ortsprofil","description_has_more":true,"detail_plans":[],"alternate_locations":[],"sources":[{"bookId":"sr4-feral-cities","title":"Feral Cities","edition":"SR4","citation":"Kapitel The Zone","purpose":"description"}],"map_sources":[],"editions":["SR4"],"edition_descriptions":{"SR4":{"kind":"Ortsprofil","preview":"Merle’s Grocery ist ein lokaler Versorgungs- und Kontaktpunkt in der Zone.","full":"Merle’s Grocery ist ein lokaler Versorgungs- und Kontaktpunkt in der Zone. Die Position ist auf den belegten Stadt- oder Teilraum angenähert; eine hausgenaue Lage und eine weitergehende eigene Fließtextbeschreibung sind aus dem zugeordneten Datenmaterial nicht sicher ableitbar.","hasMore":true,"hasExcerpt":true,"sources":[{"bookId":"sr4-feral-cities","title":"Feral Cities","edition":"SR4","citation":"Kapitel The Zone","purpose":"description"}]}}}},{"type":"Feature","geometry":null,"properties":{"id":20,"global_id":"chicago:place:20-millers-pub","name":"Miller’s Pub","aliases":[],"category":"Bars und Kneipen","detail_map":"The Core","source_pages":"Kapitel Miller’s Pub","map_source":"Mission Chicago","placement_note":"Keine belastbare Einzelposition; Eintrag bleibt im Katalog","accuracy":"Nur Stadt oder Lore-Teilraum belegt","source_map":"chicago-content","source_panel":"The Core","description_preview":"Miller’s Pub ist ein Treffpunkt der lokalen Schatten- und Kneipenszene.","description_full":"Miller’s Pub ist ein Treffpunkt der lokalen Schatten- und Kneipenszene. Die Position ist auf den belegten Stadt- oder Teilraum angenähert; eine hausgenaue Lage und eine weitergehende eigene Fließtextbeschreibung sind aus dem zugeordneten Datenmaterial nicht sicher ableitbar.","description_source":"Kapitel Miller’s Pub","description_kind":"Ortsprofil","description_has_more":true,"detail_plans":[],"alternate_locations":[],"sources":[{"bookId":"sr5-mission-chicago","title":"Mission Chicago","edition":"SR5","citation":"Kapitel Miller’s Pub","purpose":"description"}],"map_sources":[],"editions":["SR5"],"edition_descriptions":{"SR5":{"kind":"Ortsprofil","preview":"Miller’s Pub ist ein Treffpunkt der lokalen Schatten- und Kneipenszene.","full":"Miller’s Pub ist ein Treffpunkt der lokalen Schatten- und Kneipenszene. Die Position ist auf den belegten Stadt- oder Teilraum angenähert; eine hausgenaue Lage und eine weitergehende eigene Fließtextbeschreibung sind aus dem zugeordneten Datenmaterial nicht sicher ableitbar.","hasMore":true,"hasExcerpt":true,"sources":[{"bookId":"sr5-mission-chicago","title":"Mission Chicago","edition":"SR5","citation":"Kapitel Miller’s Pub","purpose":"description"}]}}}},{"type":"Feature","geometry":{"type":"Point","coordinates":[-87.66,41.965]},"properties":{"id":2,"global_id":"chicago:place:2-northside","name":"Northside","aliases":[],"category":"Bezirke","detail_map":"Northside","source_pages":"Kapitel Northside","map_source":"Feral Cities","placement_note":"Geografischer Bezugspunkt des Lore-Distrikts Northside","accuracy":"Lore-Bezirkszentrum; Grenzpolygon noch nicht georeferenziert","source_map":"chicago-content","source_panel":"Northside","description_preview":"Northside umfasst überlebende und neu organisierte Siedlungsräume nördlich des Kerns.","description_full":"Northside umfasst überlebende und neu organisierte Siedlungsräume nördlich des Kerns. Die Position ist auf den belegten Stadt- oder Teilraum angenähert; eine hausgenaue Lage und eine weitergehende eigene Fließtextbeschreibung sind aus dem zugeordneten Datenmaterial nicht sicher ableitbar.","description_source":"Kapitel Northside","description_kind":"Ortsprofil","description_has_more":true,"detail_plans":[],"alternate_locations":[],"sources":[{"bookId":"sr4-feral-cities","title":"Feral Cities","edition":"SR4","citation":"Kapitel Northside","purpose":"description"}],"map_sources":[],"editions":["SR4"],"edition_descriptions":{"SR4":{"kind":"Ortsprofil","preview":"Northside umfasst überlebende und neu organisierte Siedlungsräume nördlich des Kerns.","full":"Northside umfasst überlebende und neu organisierte Siedlungsräume nördlich des Kerns. Die Position ist auf den belegten Stadt- oder Teilraum angenähert; eine hausgenaue Lage und eine weitergehende eigene Fließtextbeschreibung sind aus dem zugeordneten Datenmaterial nicht sicher ableitbar.","hasMore":true,"hasExcerpt":true,"sources":[{"bookId":"sr4-feral-cities","title":"Feral Cities","edition":"SR4","citation":"Kapitel Northside","purpose":"description"}]}}}},{"type":"Feature","geometry":null,"properties":{"id":17,"global_id":"chicago:place:17-open-enclave","name":"Open Enclave","aliases":[],"category":"Stadtteile","detail_map":"Westside","source_pages":"Kapitel Westside","map_source":"Feral Cities","placement_note":"Keine belastbare Einzelposition; Eintrag bleibt im Katalog","accuracy":"Nur Stadt oder Lore-Teilraum belegt","source_map":"chicago-content","source_panel":"Westside","description_preview":"Die Open Enclave ist eine benannte Siedlung im Westside.","description_full":"Die Open Enclave ist eine benannte Siedlung im Westside. Die Position ist auf den belegten Stadt- oder Teilraum angenähert; eine hausgenaue Lage und eine weitergehende eigene Fließtextbeschreibung sind aus dem zugeordneten Datenmaterial nicht sicher ableitbar.","description_source":"Kapitel Westside","description_kind":"Ortsprofil","description_has_more":true,"detail_plans":[],"alternate_locations":[],"sources":[{"bookId":"sr4-feral-cities","title":"Feral Cities","edition":"SR4","citation":"Kapitel Westside","purpose":"description"}],"map_sources":[],"editions":["SR4"],"edition_descriptions":{"SR4":{"kind":"Ortsprofil","preview":"Die Open Enclave ist eine benannte Siedlung im Westside.","full":"Die Open Enclave ist eine benannte Siedlung im Westside. Die Position ist auf den belegten Stadt- oder Teilraum angenähert; eine hausgenaue Lage und eine weitergehende eigene Fließtextbeschreibung sind aus dem zugeordneten Datenmaterial nicht sicher ableitbar.","hasMore":true,"hasExcerpt":true,"sources":[{"bookId":"sr4-feral-cities","title":"Feral Cities","edition":"SR4","citation":"Kapitel Westside","purpose":"description"}]}}}},{"type":"Feature","geometry":{"type":"Point","coordinates":[-87.907,41.974]},"properties":{"id":5,"global_id":"chicago:place:5-ohare-sub-sprawl","name":"O’Hare Sub-Sprawl","aliases":[],"category":"Bezirke","detail_map":"O’Hare Sub-Sprawl","source_pages":"Kapitel O’Hare Sub-Sprawl","map_source":"Anarchy - Chicago Chaos","placement_note":"Geografischer Bezugspunkt des Lore-Distrikts O’Hare Sub-Sprawl","accuracy":"Lore-Bezirkszentrum; Grenzpolygon noch nicht georeferenziert","source_map":"chicago-content","source_panel":"O’Hare Sub-Sprawl","description_preview":"Der O’Hare-Teilplex bildet einen westlichen Verkehrs- und Siedlungsschwerpunkt.","description_full":"Der O’Hare-Teilplex bildet einen westlichen Verkehrs- und Siedlungsschwerpunkt. Die Position ist auf den belegten Stadt- oder Teilraum angenähert; eine hausgenaue Lage und eine weitergehende eigene Fließtextbeschreibung sind aus dem zugeordneten Datenmaterial nicht sicher ableitbar.","description_source":"Kapitel O’Hare Sub-Sprawl","description_kind":"Ortsprofil","description_has_more":true,"detail_plans":[],"alternate_locations":[],"sources":[{"bookId":"sr5-anarchy-chicago-chaos","title":"Anarchy - Chicago Chaos","edition":"SR5","citation":"Kapitel O’Hare Sub-Sprawl","purpose":"description"}],"map_sources":[],"editions":["SR5"],"edition_descriptions":{"SR5":{"kind":"Ortsprofil","preview":"Der O’Hare-Teilplex bildet einen westlichen Verkehrs- und Siedlungsschwerpunkt.","full":"Der O’Hare-Teilplex bildet einen westlichen Verkehrs- und Siedlungsschwerpunkt. Die Position ist auf den belegten Stadt- oder Teilraum angenähert; eine hausgenaue Lage und eine weitergehende eigene Fließtextbeschreibung sind aus dem zugeordneten Datenmaterial nicht sicher ableitbar.","hasMore":true,"hasExcerpt":true,"sources":[{"bookId":"sr5-anarchy-chicago-chaos","title":"Anarchy - Chicago Chaos","edition":"SR5","citation":"Kapitel O’Hare Sub-Sprawl","purpose":"description"}]}}}},{"type":"Feature","geometry":{"type":"Point","coordinates":[-87.6359,41.8789]},"properties":{"id":30,"global_id":"chicago:place:30-sears-tower-alchera","name":"Sears Tower Alchera","aliases":[],"category":"Magie und Erwachte","detail_map":"The Core","source_pages":"Sears-Tower, Chicago","map_source":"Strassengrimoire (Auflage 3)","placement_note":"Erhaltener geographischer Bezugspunkt","accuracy":"Geographischer Bezugspunkt","source_map":"chicago-content","source_panel":"The Core","description_preview":"Am Jahrestag der Zerstörung manifestiert sich der frühere Sears Tower für vierundzwanzig Stunden als weithin sichtbare Alchera.","description_full":"Am Jahrestag der Zerstörung manifestiert sich der frühere Sears Tower für vierundzwanzig Stunden als weithin sichtbare Alchera. Die Position folgt einem erhaltenen heutigen Bezugspunkt.","description_source":"Sears-Tower, Chicago","description_kind":"Ortsprofil","description_has_more":true,"detail_plans":[],"alternate_locations":[],"sources":[{"bookId":"sr5-strassengrimoire-auflage-3","title":"Strassengrimoire (Auflage 3)","edition":"SR5","citation":"Sears-Tower, Chicago","purpose":"description"}],"map_sources":[],"editions":["SR5"],"edition_descriptions":{"SR5":{"kind":"Ortsprofil","preview":"Am Jahrestag der Zerstörung manifestiert sich der frühere Sears Tower für vierundzwanzig Stunden als weithin sichtbare Alchera.","full":"Am Jahrestag der Zerstörung manifestiert sich der frühere Sears Tower für vierundzwanzig Stunden als weithin sichtbare Alchera. Die Position folgt einem erhaltenen heutigen Bezugspunkt.","hasMore":true,"hasExcerpt":true,"sources":[{"bookId":"sr5-strassengrimoire-auflage-3","title":"Strassengrimoire (Auflage 3)","edition":"SR5","citation":"Sears-Tower, Chicago","purpose":"description"}]}}}},{"type":"Feature","geometry":{"type":"Point","coordinates":[-87.625,41.765]},"properties":{"id":3,"global_id":"chicago:place:3-southside","name":"Southside","aliases":[],"category":"Bezirke","detail_map":"Southside","source_pages":"Kapitel Southside","map_source":"Feral Cities","placement_note":"Geografischer Bezugspunkt des Lore-Distrikts Southside","accuracy":"Lore-Bezirkszentrum; Grenzpolygon noch nicht georeferenziert","source_map":"chicago-content","source_panel":"Southside","description_preview":"Southside ist ein weitläufiger südlicher Teilraum mit wechselnder lokaler Kontrolle.","description_full":"Southside ist ein weitläufiger südlicher Teilraum mit wechselnder lokaler Kontrolle. Die Position ist auf den belegten Stadt- oder Teilraum angenähert; eine hausgenaue Lage und eine weitergehende eigene Fließtextbeschreibung sind aus dem zugeordneten Datenmaterial nicht sicher ableitbar.","description_source":"Kapitel Southside","description_kind":"Ortsprofil","description_has_more":true,"detail_plans":[],"alternate_locations":[],"sources":[{"bookId":"sr4-feral-cities","title":"Feral Cities","edition":"SR4","citation":"Kapitel Southside","purpose":"description"}],"map_sources":[],"editions":["SR4"],"edition_descriptions":{"SR4":{"kind":"Ortsprofil","preview":"Southside ist ein weitläufiger südlicher Teilraum mit wechselnder lokaler Kontrolle.","full":"Southside ist ein weitläufiger südlicher Teilraum mit wechselnder lokaler Kontrolle. Die Position ist auf den belegten Stadt- oder Teilraum angenähert; eine hausgenaue Lage und eine weitergehende eigene Fließtextbeschreibung sind aus dem zugeordneten Datenmaterial nicht sicher ableitbar.","hasMore":true,"hasExcerpt":true,"sources":[{"bookId":"sr4-feral-cities","title":"Feral Cities","edition":"SR4","citation":"Kapitel Southside","purpose":"description"}]}}}},{"type":"Feature","geometry":{"type":"Point","coordinates":[-87.632,41.883]},"properties":{"id":6,"global_id":"chicago:place:6-the-core","name":"The Core","aliases":[],"category":"Bezirke","detail_map":"The Core","source_pages":"Kapitel Der Kern","map_source":"Mission Chicago","placement_note":"Geografischer Bezugspunkt des Lore-Distrikts The Core","accuracy":"Lore-Bezirkszentrum; Grenzpolygon noch nicht georeferenziert","source_map":"chicago-content","source_panel":"The Core","description_preview":"Der Kern umfasst das verdichtete Zentrum Chicagos und zentrale Schauplätze der wechselnden Krisenstände.","description_full":"Der Kern umfasst das verdichtete Zentrum Chicagos und zentrale Schauplätze der wechselnden Krisenstände. Die Position ist auf den belegten Stadt- oder Teilraum angenähert; eine hausgenaue Lage und eine weitergehende eigene Fließtextbeschreibung sind aus dem zugeordneten Datenmaterial nicht sicher ableitbar.","description_source":"Kapitel Der Kern","description_kind":"Ortsprofil","description_has_more":true,"detail_plans":[],"alternate_locations":[],"sources":[{"bookId":"sr5-mission-chicago","title":"Mission Chicago","edition":"SR5","citation":"Kapitel Der Kern","purpose":"description"}],"map_sources":[],"editions":["SR5"],"edition_descriptions":{"SR5":{"kind":"Ortsprofil","preview":"Der Kern umfasst das verdichtete Zentrum Chicagos und zentrale Schauplätze der wechselnden Krisenstände.","full":"Der Kern umfasst das verdichtete Zentrum Chicagos und zentrale Schauplätze der wechselnden Krisenstände. Die Position ist auf den belegten Stadt- oder Teilraum angenähert; eine hausgenaue Lage und eine weitergehende eigene Fließtextbeschreibung sind aus dem zugeordneten Datenmaterial nicht sicher ableitbar.","hasMore":true,"hasExcerpt":true,"sources":[{"bookId":"sr5-mission-chicago","title":"Mission Chicago","edition":"SR5","citation":"Kapitel Der Kern","purpose":"description"}]}}}},{"type":"Feature","geometry":{"type":"Point","coordinates":[-87.71,41.905]},"properties":{"id":7,"global_id":"chicago:place:7-the-corridor","name":"The Corridor","aliases":[],"category":"Bezirke","detail_map":"The Corridor","source_pages":"Kapitel The Corridor","map_source":"Feral Cities","placement_note":"Geografischer Bezugspunkt des Lore-Distrikts The Corridor","accuracy":"Lore-Bezirkszentrum; Grenzpolygon noch nicht georeferenziert","source_map":"chicago-content","source_panel":"The Corridor","description_preview":"Der Corridor fasst drei vergleichsweise intakte Siedlungs- und Verkehrsbereiche um die frühere Containment Zone zusammen.","description_full":"Der Corridor fasst drei vergleichsweise intakte Siedlungs- und Verkehrsbereiche um die frühere Containment Zone zusammen. Die Position ist auf den belegten Stadt- oder Teilraum angenähert; eine hausgenaue Lage und eine weitergehende eigene Fließtextbeschreibung sind aus dem zugeordneten Datenmaterial nicht sicher ableitbar.","description_source":"Kapitel The Corridor","description_kind":"Ortsprofil","description_has_more":true,"detail_plans":[],"alternate_locations":[],"sources":[{"bookId":"sr4-feral-cities","title":"Feral Cities","edition":"SR4","citation":"Kapitel The Corridor","purpose":"description"}],"map_sources":[],"editions":["SR4"],"edition_descriptions":{"SR4":{"kind":"Ortsprofil","preview":"Der Corridor fasst drei vergleichsweise intakte Siedlungs- und Verkehrsbereiche um die frühere Containment Zone zusammen.","full":"Der Corridor fasst drei vergleichsweise intakte Siedlungs- und Verkehrsbereiche um die frühere Containment Zone zusammen. Die Position ist auf den belegten Stadt- oder Teilraum angenähert; eine hausgenaue Lage und eine weitergehende eigene Fließtextbeschreibung sind aus dem zugeordneten Datenmaterial nicht sicher ableitbar.","hasMore":true,"hasExcerpt":true,"sources":[{"bookId":"sr4-feral-cities","title":"Feral Cities","edition":"SR4","citation":"Kapitel The Corridor","purpose":"description"}]}}}},{"type":"Feature","geometry":null,"properties":{"id":18,"global_id":"chicago:place:18-the-maker-collective","name":"The Maker Collective","aliases":[],"category":"Organisationen","detail_map":"The Core","source_pages":"Kapitel Maker Collective","map_source":"Mission Chicago","placement_note":"Keine belastbare Einzelposition; Eintrag bleibt im Katalog","accuracy":"Nur Stadt oder Lore-Teilraum belegt","source_map":"chicago-content","source_panel":"The Core","description_preview":"Das Maker Collective ist ein wichtiger Anlaufpunkt des wiederaufgebauten Chicago.","description_full":"Das Maker Collective ist ein wichtiger Anlaufpunkt des wiederaufgebauten Chicago. Die Position ist auf den belegten Stadt- oder Teilraum angenähert; eine hausgenaue Lage und eine weitergehende eigene Fließtextbeschreibung sind aus dem zugeordneten Datenmaterial nicht sicher ableitbar.","description_source":"Kapitel Maker Collective","description_kind":"Ortsprofil","description_has_more":true,"detail_plans":[],"alternate_locations":[],"sources":[{"bookId":"sr5-mission-chicago","title":"Mission Chicago","edition":"SR5","citation":"Kapitel Maker Collective","purpose":"description"}],"map_sources":[],"editions":["SR5"],"edition_descriptions":{"SR5":{"kind":"Ortsprofil","preview":"Das Maker Collective ist ein wichtiger Anlaufpunkt des wiederaufgebauten Chicago.","full":"Das Maker Collective ist ein wichtiger Anlaufpunkt des wiederaufgebauten Chicago. Die Position ist auf den belegten Stadt- oder Teilraum angenähert; eine hausgenaue Lage und eine weitergehende eigene Fließtextbeschreibung sind aus dem zugeordneten Datenmaterial nicht sicher ableitbar.","hasMore":true,"hasExcerpt":true,"sources":[{"bookId":"sr5-mission-chicago","title":"Mission Chicago","edition":"SR5","citation":"Kapitel Maker Collective","purpose":"description"}]}}}},{"type":"Feature","geometry":{"type":"Point","coordinates":[-87.629,41.882]},"properties":{"id":8,"global_id":"chicago:place:8-the-noose","name":"The Noose","aliases":[],"category":"Bezirke","detail_map":"The Noose","source_pages":"Kapitel The Noose","map_source":"Mission Chicago","placement_note":"Geografischer Bezugspunkt des Lore-Distrikts The Noose","accuracy":"Lore-Bezirkszentrum; Grenzpolygon noch nicht georeferenziert","source_map":"chicago-content","source_panel":"The Noose","description_preview":"The Noose ist der weitgehend verlassene frühere Downtown-Kern mit ausgebrannten Hochhäusern und kaum passierbaren Straßen.","description_full":"The Noose ist der weitgehend verlassene frühere Downtown-Kern mit ausgebrannten Hochhäusern und kaum passierbaren Straßen. Die Position ist auf den belegten Stadt- oder Teilraum angenähert; eine hausgenaue Lage und eine weitergehende eigene Fließtextbeschreibung sind aus dem zugeordneten Datenmaterial nicht sicher ableitbar.","description_source":"Kapitel The Noose","description_kind":"Ortsprofil","description_has_more":true,"detail_plans":[],"alternate_locations":[],"sources":[{"bookId":"sr5-mission-chicago","title":"Mission Chicago","edition":"SR5","citation":"Kapitel The Noose","purpose":"description"}],"map_sources":[],"editions":["SR5"],"edition_descriptions":{"SR5":{"kind":"Ortsprofil","preview":"The Noose ist der weitgehend verlassene frühere Downtown-Kern mit ausgebrannten Hochhäusern und kaum passierbaren Straßen.","full":"The Noose ist der weitgehend verlassene frühere Downtown-Kern mit ausgebrannten Hochhäusern und kaum passierbaren Straßen. Die Position ist auf den belegten Stadt- oder Teilraum angenähert; eine hausgenaue Lage und eine weitergehende eigene Fließtextbeschreibung sind aus dem zugeordneten Datenmaterial nicht sicher ableitbar.","hasMore":true,"hasExcerpt":true,"sources":[{"bookId":"sr5-mission-chicago","title":"Mission Chicago","edition":"SR5","citation":"Kapitel The Noose","purpose":"description"}]}}}},{"type":"Feature","geometry":null,"properties":{"id":21,"global_id":"chicago:place:21-the-purple-pig","name":"The Purple Pig","aliases":[],"category":"Restaurants","detail_map":"The Core","source_pages":"Schauplatz Das Purple Pig","map_source":"Abenteuerband - Schatten über Chicago","placement_note":"Keine belastbare Einzelposition; Eintrag bleibt im Katalog","accuracy":"Nur Stadt oder Lore-Teilraum belegt","source_map":"chicago-content","source_panel":"The Core","description_preview":"The Purple Pig ist ein in Schatten über Chicago verwendeter Treffpunkt.","description_full":"The Purple Pig ist ein in Schatten über Chicago verwendeter Treffpunkt. Die Position ist auf den belegten Stadt- oder Teilraum angenähert; eine hausgenaue Lage und eine weitergehende eigene Fließtextbeschreibung sind aus dem zugeordneten Datenmaterial nicht sicher ableitbar.","description_source":"Schauplatz Das Purple Pig","description_kind":"Ortsprofil","description_has_more":true,"detail_plans":[],"alternate_locations":[],"sources":[{"bookId":"sr5-abenteuerband-schatten-uber-chicago","title":"Abenteuerband - Schatten über Chicago","edition":"SR5","citation":"Schauplatz Das Purple Pig","purpose":"description"}],"map_sources":[],"editions":["SR5"],"edition_descriptions":{"SR5":{"kind":"Ortsprofil","preview":"The Purple Pig ist ein in Schatten über Chicago verwendeter Treffpunkt.","full":"The Purple Pig ist ein in Schatten über Chicago verwendeter Treffpunkt. Die Position ist auf den belegten Stadt- oder Teilraum angenähert; eine hausgenaue Lage und eine weitergehende eigene Fließtextbeschreibung sind aus dem zugeordneten Datenmaterial nicht sicher ableitbar.","hasMore":true,"hasExcerpt":true,"sources":[{"bookId":"sr5-abenteuerband-schatten-uber-chicago","title":"Abenteuerband - Schatten über Chicago","edition":"SR5","citation":"Schauplatz Das Purple Pig","purpose":"description"}]}}}},{"type":"Feature","geometry":null,"properties":{"id":19,"global_id":"chicago:place:19-the-vault","name":"The Vault","aliases":[],"category":"Sicherheit und Justiz","detail_map":"The Core","source_pages":"Kapitel Die Vault","map_source":"Mission Chicago","placement_note":"Keine belastbare Einzelposition; Eintrag bleibt im Katalog","accuracy":"Nur Stadt oder Lore-Teilraum belegt","source_map":"chicago-content","source_panel":"The Core","description_preview":"The Vault ist ein gesicherter Schauplatz im Chicago-Quellenstand der fünften Edition.","description_full":"The Vault ist ein gesicherter Schauplatz im Chicago-Quellenstand der fünften Edition. Die Position ist auf den belegten Stadt- oder Teilraum angenähert; eine hausgenaue Lage und eine weitergehende eigene Fließtextbeschreibung sind aus dem zugeordneten Datenmaterial nicht sicher ableitbar.","description_source":"Kapitel Die Vault","description_kind":"Ortsprofil","description_has_more":true,"detail_plans":[],"alternate_locations":[],"sources":[{"bookId":"sr5-mission-chicago","title":"Mission Chicago","edition":"SR5","citation":"Kapitel Die Vault","purpose":"description"}],"map_sources":[],"editions":["SR5"],"edition_descriptions":{"SR5":{"kind":"Ortsprofil","preview":"The Vault ist ein gesicherter Schauplatz im Chicago-Quellenstand der fünften Edition.","full":"The Vault ist ein gesicherter Schauplatz im Chicago-Quellenstand der fünften Edition. Die Position ist auf den belegten Stadt- oder Teilraum angenähert; eine hausgenaue Lage und eine weitergehende eigene Fließtextbeschreibung sind aus dem zugeordneten Datenmaterial nicht sicher ableitbar.","hasMore":true,"hasExcerpt":true,"sources":[{"bookId":"sr5-mission-chicago","title":"Mission Chicago","edition":"SR5","citation":"Kapitel Die Vault","purpose":"description"}]}}}},{"type":"Feature","geometry":null,"properties":{"id":26,"global_id":"chicago:place:26-the-wall","name":"The Wall","aliases":[],"category":"Sondergebiete","detail_map":"The Zone","source_pages":"PDF-Seite 138","map_source":"Bug City","placement_note":"Keine belastbare Einzelposition; Eintrag bleibt im Katalog","accuracy":"Nur Stadt oder Lore-Teilraum belegt","source_map":"chicago-content","source_panel":"The Zone","description_preview":"The Wall bezeichnet die ehemalige Sperrbarriere um die Containment Zone und ihre befestigten Übergänge.","description_full":"The Wall bezeichnet die ehemalige Sperrbarriere um die Containment Zone und ihre befestigten Übergänge. Die Position ist auf den belegten Stadt- oder Teilraum angenähert; eine hausgenaue Lage und eine weitergehende eigene Fließtextbeschreibung sind aus dem zugeordneten Datenmaterial nicht sicher ableitbar.","description_source":"PDF-Seite 138","description_kind":"Ortsprofil","description_has_more":true,"detail_plans":[],"alternate_locations":[],"sources":[{"bookId":"sr2-bug-city","title":"Bug City","edition":"SR2","citation":"PDF-Seite 138","purpose":"description"}],"map_sources":[],"editions":["SR2"],"edition_descriptions":{"SR2":{"kind":"Ortsprofil","preview":"The Wall bezeichnet die ehemalige Sperrbarriere um die Containment Zone und ihre befestigten Übergänge.","full":"The Wall bezeichnet die ehemalige Sperrbarriere um die Containment Zone und ihre befestigten Übergänge. Die Position ist auf den belegten Stadt- oder Teilraum angenähert; eine hausgenaue Lage und eine weitergehende eigene Fließtextbeschreibung sind aus dem zugeordneten Datenmaterial nicht sicher ableitbar.","hasMore":true,"hasExcerpt":true,"sources":[{"bookId":"sr2-bug-city","title":"Bug City","edition":"SR2","citation":"PDF-Seite 138","purpose":"description"}]}}}},{"type":"Feature","geometry":{"type":"Point","coordinates":[-87.627,41.865]},"properties":{"id":1,"global_id":"chicago:place:1-the-zone","name":"The Zone","aliases":[],"category":"Bezirke","detail_map":"The Zone","source_pages":"Kapitel The Zone","map_source":"Feral Cities","placement_note":"Geografischer Bezugspunkt des Lore-Distrikts The Zone","accuracy":"Lore-Bezirkszentrum; Grenzpolygon noch nicht georeferenziert","source_map":"chicago-content","source_panel":"The Zone","description_preview":"Die frühere Containment Zone bildet den verwüsteten Kernraum mit Ruinen, Enklaven und Spuren der Insektengeist-Krise.","description_full":"Die frühere Containment Zone bildet den verwüsteten Kernraum mit Ruinen, Enklaven und Spuren der Insektengeist-Krise. Die Position ist auf den belegten Stadt- oder Teilraum angenähert; eine hausgenaue Lage und eine weitergehende eigene Fließtextbeschreibung sind aus dem zugeordneten Datenmaterial nicht sicher ableitbar.","description_source":"Kapitel The Zone","description_kind":"Ortsprofil","description_has_more":true,"detail_plans":[],"alternate_locations":[],"sources":[{"bookId":"sr4-feral-cities","title":"Feral Cities","edition":"SR4","citation":"Kapitel The Zone","purpose":"description"}],"map_sources":[],"editions":["SR4"],"edition_descriptions":{"SR4":{"kind":"Ortsprofil","preview":"Die frühere Containment Zone bildet den verwüsteten Kernraum mit Ruinen, Enklaven und Spuren der Insektengeist-Krise.","full":"Die frühere Containment Zone bildet den verwüsteten Kernraum mit Ruinen, Enklaven und Spuren der Insektengeist-Krise. Die Position ist auf den belegten Stadt- oder Teilraum angenähert; eine hausgenaue Lage und eine weitergehende eigene Fließtextbeschreibung sind aus dem zugeordneten Datenmaterial nicht sicher ableitbar.","hasMore":true,"hasExcerpt":true,"sources":[{"bookId":"sr4-feral-cities","title":"Feral Cities","edition":"SR4","citation":"Kapitel The Zone","purpose":"description"}]}}}},{"type":"Feature","geometry":null,"properties":{"id":27,"global_id":"chicago:place:27-truman-tower","name":"Truman Tower","aliases":[],"category":"Konzerne","detail_map":"The Core","source_pages":"Kapitel Chicago – Truman Technologies","map_source":"Shadowrun 2050","placement_note":"Keine belastbare Einzelposition; Eintrag bleibt im Katalog","accuracy":"Nur Stadt oder Lore-Teilraum belegt","source_map":"chicago-content","source_panel":"The Core","description_preview":"Der Truman Tower ist Hauptsitz und weithin sichtbares Downtown-Wahrzeichen des einheimischen Konzerns Truman Technologies.","description_full":"Der Truman Tower ist Hauptsitz und weithin sichtbares Downtown-Wahrzeichen des einheimischen Konzerns Truman Technologies. Die Position ist auf den belegten Stadt- oder Teilraum angenähert; eine hausgenaue Lage und eine weitergehende eigene Fließtextbeschreibung sind aus dem zugeordneten Datenmaterial nicht sicher ableitbar.","description_source":"Kapitel Chicago – Truman Technologies","description_kind":"Ortsprofil","description_has_more":true,"detail_plans":[],"alternate_locations":[],"sources":[{"bookId":"sr4-shadowrun-2050","title":"Shadowrun 2050","edition":"SR4","citation":"Kapitel Chicago – Truman Technologies","purpose":"description"}],"map_sources":[],"editions":["SR4"],"edition_descriptions":{"SR4":{"kind":"Ortsprofil","preview":"Der Truman Tower ist Hauptsitz und weithin sichtbares Downtown-Wahrzeichen des einheimischen Konzerns Truman Technologies.","full":"Der Truman Tower ist Hauptsitz und weithin sichtbares Downtown-Wahrzeichen des einheimischen Konzerns Truman Technologies. Die Position ist auf den belegten Stadt- oder Teilraum angenähert; eine hausgenaue Lage und eine weitergehende eigene Fließtextbeschreibung sind aus dem zugeordneten Datenmaterial nicht sicher ableitbar.","hasMore":true,"hasExcerpt":true,"sources":[{"bookId":"sr4-shadowrun-2050","title":"Shadowrun 2050","edition":"SR4","citation":"Kapitel Chicago – Truman Technologies","purpose":"description"}]}}}},{"type":"Feature","geometry":null,"properties":{"id":22,"global_id":"chicago:place:22-valley-rose-pharmaceuticals","name":"Valley Rose Pharmaceuticals","aliases":[],"category":"Konzerne","detail_map":"The Core","source_pages":"Kapitel Valley Rose","map_source":"Mission Chicago","placement_note":"Keine belastbare Einzelposition; Eintrag bleibt im Katalog","accuracy":"Nur Stadt oder Lore-Teilraum belegt","source_map":"chicago-content","source_panel":"The Core","description_preview":"Valley Rose Pharmaceuticals ist ein Konzernstandort im Chicago-Missionsmaterial.","description_full":"Valley Rose Pharmaceuticals ist ein Konzernstandort im Chicago-Missionsmaterial. Die Position ist auf den belegten Stadt- oder Teilraum angenähert; eine hausgenaue Lage und eine weitergehende eigene Fließtextbeschreibung sind aus dem zugeordneten Datenmaterial nicht sicher ableitbar.","description_source":"Kapitel Valley Rose","description_kind":"Ortsprofil","description_has_more":true,"detail_plans":[],"alternate_locations":[],"sources":[{"bookId":"sr5-mission-chicago","title":"Mission Chicago","edition":"SR5","citation":"Kapitel Valley Rose","purpose":"description"}],"map_sources":[],"editions":["SR5"],"edition_descriptions":{"SR5":{"kind":"Ortsprofil","preview":"Valley Rose Pharmaceuticals ist ein Konzernstandort im Chicago-Missionsmaterial.","full":"Valley Rose Pharmaceuticals ist ein Konzernstandort im Chicago-Missionsmaterial. Die Position ist auf den belegten Stadt- oder Teilraum angenähert; eine hausgenaue Lage und eine weitergehende eigene Fließtextbeschreibung sind aus dem zugeordneten Datenmaterial nicht sicher ableitbar.","hasMore":true,"hasExcerpt":true,"sources":[{"bookId":"sr5-mission-chicago","title":"Mission Chicago","edition":"SR5","citation":"Kapitel Valley Rose","purpose":"description"}]}}}},{"type":"Feature","geometry":{"type":"Point","coordinates":[-87.76,41.875]},"properties":{"id":4,"global_id":"chicago:place:4-westside","name":"Westside","aliases":[],"category":"Bezirke","detail_map":"Westside","source_pages":"Kapitel Westside","map_source":"Feral Cities","placement_note":"Geografischer Bezugspunkt des Lore-Distrikts Westside","accuracy":"Lore-Bezirkszentrum; Grenzpolygon noch nicht georeferenziert","source_map":"chicago-content","source_panel":"Westside","description_preview":"Westside verbindet Ruinenzonen, Enklaven und wichtige Zugänge in den Plex.","description_full":"Westside verbindet Ruinenzonen, Enklaven und wichtige Zugänge in den Plex. Die Position ist auf den belegten Stadt- oder Teilraum angenähert; eine hausgenaue Lage und eine weitergehende eigene Fließtextbeschreibung sind aus dem zugeordneten Datenmaterial nicht sicher ableitbar.","description_source":"Kapitel Westside","description_kind":"Ortsprofil","description_has_more":true,"detail_plans":[],"alternate_locations":[],"sources":[{"bookId":"sr4-feral-cities","title":"Feral Cities","edition":"SR4","citation":"Kapitel Westside","purpose":"description"}],"map_sources":[],"editions":["SR4"],"edition_descriptions":{"SR4":{"kind":"Ortsprofil","preview":"Westside verbindet Ruinenzonen, Enklaven und wichtige Zugänge in den Plex.","full":"Westside verbindet Ruinenzonen, Enklaven und wichtige Zugänge in den Plex. Die Position ist auf den belegten Stadt- oder Teilraum angenähert; eine hausgenaue Lage und eine weitergehende eigene Fließtextbeschreibung sind aus dem zugeordneten Datenmaterial nicht sicher ableitbar.","hasMore":true,"hasExcerpt":true,"sources":[{"bookId":"sr4-feral-cities","title":"Feral Cities","edition":"SR4","citation":"Kapitel Westside","purpose":"description"}]}}}}]}
