{"type":"FeatureCollection","name":"Chicago – geprüfte zusätzliche Quellenorte","features":[{"type":"Feature","geometry":null,"properties":{"id":31,"global_id":"chicago:source-place:alcohol-tobacco-and-firearms","name":"Alcohol, Tobacco, and Firearms","aliases":[],"category":"Bars und Kneipen","detail_map":"Southside","source_pages":"Kapitel Chicago – Alcohol, Tobacco, and Firearms","map_source":"Feral Cities","placement_note":"Keine belastbare Einzelposition; Eintrag bleibt im Katalog","accuracy":"Nur Stadt oder Lore-Teilraum belegt","source_map":"source-supplement","source_panel":"Southside","description_preview":"Die als ATF bekannte Bar ist ein benannter Treffpunkt im Southside.","description_full":"Die als ATF bekannte Bar ist ein benannter Treffpunkt im Southside. Das Dossier fasst den belegten Quellenstand redaktionell zusammen; eine nicht belegte Kartenposition wird nicht ergänzt.","description_source":"Kapitel Chicago – Alcohol, Tobacco, and Firearms","description_kind":"Ortsdossier","description_has_more":true,"detail_plans":[],"alternate_locations":[],"sources":[{"bookId":"sr4-feral-cities","title":"Feral Cities","edition":"SR4","citation":"Kapitel Chicago – Alcohol, Tobacco, and Firearms","purpose":"description"}],"map_sources":[],"editions":["SR4"],"edition_descriptions":{"SR4":{"kind":"Ortsdossier","preview":"Die als ATF bekannte Bar ist ein benannter Treffpunkt im Southside.","full":"Die als ATF bekannte Bar ist ein benannter Treffpunkt im Southside. Das Dossier fasst den belegten Quellenstand redaktionell zusammen; eine nicht belegte Kartenposition wird nicht ergänzt.","hasMore":true,"hasExcerpt":true,"sources":[{"bookId":"sr4-feral-cities","title":"Feral Cities","edition":"SR4","citation":"Kapitel Chicago – Alcohol, Tobacco, and Firearms","purpose":"description"}]}}}},{"type":"Feature","geometry":null,"properties":{"id":32,"global_id":"chicago:source-place:ammo-jims","name":"Ammo Jims","aliases":[],"category":"Einkaufen","detail_map":"Northside","source_pages":"Kapitel Chicago – Ammo Jims","map_source":"Feral Cities","placement_note":"Keine belastbare Einzelposition; Eintrag bleibt im Katalog","accuracy":"Nur Stadt oder Lore-Teilraum belegt","source_map":"source-supplement","source_panel":"Northside","description_preview":"Ammo Jims handelt im Northside mit gebrauchter und vor Ort gefertigter Munition.","description_full":"Ammo Jims handelt im Northside mit gebrauchter und vor Ort gefertigter Munition. Das Dossier fasst den belegten Quellenstand redaktionell zusammen; eine nicht belegte Kartenposition wird nicht ergänzt.","description_source":"Kapitel Chicago – Ammo Jims","description_kind":"Ortsdossier","description_has_more":true,"detail_plans":[],"alternate_locations":[],"sources":[{"bookId":"sr4-feral-cities","title":"Feral Cities","edition":"SR4","citation":"Kapitel Chicago – Ammo Jims","purpose":"description"}],"map_sources":[],"editions":["SR4"],"edition_descriptions":{"SR4":{"kind":"Ortsdossier","preview":"Ammo Jims handelt im Northside mit gebrauchter und vor Ort gefertigter Munition.","full":"Ammo Jims handelt im Northside mit gebrauchter und vor Ort gefertigter Munition. Das Dossier fasst den belegten Quellenstand redaktionell zusammen; eine nicht belegte Kartenposition wird nicht ergänzt.","hasMore":true,"hasExcerpt":true,"sources":[{"bookId":"sr4-feral-cities","title":"Feral Cities","edition":"SR4","citation":"Kapitel Chicago – Ammo Jims","purpose":"description"}]}}}},{"type":"Feature","geometry":null,"properties":{"id":33,"global_id":"chicago:source-place:anarchist-black-crescent-trinity","name":"Anarchist Black Crescent: Trinity","aliases":[],"category":"Medizin und Gesundheit","detail_map":"Northside","source_pages":"Kapitel Chicago – Anarchist Black Crescent: Trinity","map_source":"Feral Cities","placement_note":"Keine belastbare Einzelposition; Eintrag bleibt im Katalog","accuracy":"Nur Stadt oder Lore-Teilraum belegt","source_map":"source-supplement","source_panel":"Northside","description_preview":"Trinity ist ein medizinischer Anlaufpunkt des Anarchist Black Crescent im Northside.","description_full":"Trinity ist ein medizinischer Anlaufpunkt des Anarchist Black Crescent im Northside. Das Dossier fasst den belegten Quellenstand redaktionell zusammen; eine nicht belegte Kartenposition wird nicht ergänzt.","description_source":"Kapitel Chicago – Anarchist Black Crescent: Trinity","description_kind":"Ortsdossier","description_has_more":true,"detail_plans":[],"alternate_locations":[],"sources":[{"bookId":"sr4-feral-cities","title":"Feral Cities","edition":"SR4","citation":"Kapitel Chicago – Anarchist Black Crescent: Trinity","purpose":"description"}],"map_sources":[],"editions":["SR4"],"edition_descriptions":{"SR4":{"kind":"Ortsdossier","preview":"Trinity ist ein medizinischer Anlaufpunkt des Anarchist Black Crescent im Northside.","full":"Trinity ist ein medizinischer Anlaufpunkt des Anarchist Black Crescent im Northside. Das Dossier fasst den belegten Quellenstand redaktionell zusammen; eine nicht belegte Kartenposition wird nicht ergänzt.","hasMore":true,"hasExcerpt":true,"sources":[{"bookId":"sr4-feral-cities","title":"Feral Cities","edition":"SR4","citation":"Kapitel Chicago – Anarchist Black Crescent: Trinity","purpose":"description"}]}}}},{"type":"Feature","geometry":null,"properties":{"id":34,"global_id":"chicago:source-place:archangels-bounty-redemption-center","name":"Archangel’s Bounty Redemption Center","aliases":[],"category":"Einkaufen","detail_map":"Southside","source_pages":"Kapitel Chicago – Archangel’s Bounty Redemption Center","map_source":"Feral Cities","placement_note":"Keine belastbare Einzelposition; Eintrag bleibt im Katalog","accuracy":"Nur Stadt oder Lore-Teilraum belegt","source_map":"source-supplement","source_panel":"Southside","description_preview":"Das Redemption Center ist ein benannter Handels- und Versorgungsort im Southside.","description_full":"Das Redemption Center ist ein benannter Handels- und Versorgungsort im Southside. Das Dossier fasst den belegten Quellenstand redaktionell zusammen; eine nicht belegte Kartenposition wird nicht ergänzt.","description_source":"Kapitel Chicago – Archangel’s Bounty Redemption Center","description_kind":"Ortsdossier","description_has_more":true,"detail_plans":[],"alternate_locations":[],"sources":[{"bookId":"sr4-feral-cities","title":"Feral Cities","edition":"SR4","citation":"Kapitel Chicago – Archangel’s Bounty Redemption Center","purpose":"description"}],"map_sources":[],"editions":["SR4"],"edition_descriptions":{"SR4":{"kind":"Ortsdossier","preview":"Das Redemption Center ist ein benannter Handels- und Versorgungsort im Southside.","full":"Das Redemption Center ist ein benannter Handels- und Versorgungsort im Southside. Das Dossier fasst den belegten Quellenstand redaktionell zusammen; eine nicht belegte Kartenposition wird nicht ergänzt.","hasMore":true,"hasExcerpt":true,"sources":[{"bookId":"sr4-feral-cities","title":"Feral Cities","edition":"SR4","citation":"Kapitel Chicago – Archangel’s Bounty Redemption Center","purpose":"description"}]}}}},{"type":"Feature","geometry":null,"properties":{"id":35,"global_id":"chicago:source-place:business-village","name":"Business Village","aliases":[],"category":"Stadtteile","detail_map":"Westside","source_pages":"Kapitel Windy City – Westside","map_source":"Bug City","placement_note":"Keine belastbare Einzelposition; Eintrag bleibt im Katalog","accuracy":"Nur Stadt oder Lore-Teilraum belegt","source_map":"source-supplement","source_panel":"Westside","description_preview":"Business Village ist ein benannter Teilraum des Westside im Quellenstand von Bug City.","description_full":"Business Village ist ein benannter Teilraum des Westside im Quellenstand von Bug City. Das Dossier fasst den belegten Quellenstand redaktionell zusammen; eine nicht belegte Kartenposition wird nicht ergänzt.","description_source":"Kapitel Windy City – Westside","description_kind":"Ortsdossier","description_has_more":true,"detail_plans":[],"alternate_locations":[],"sources":[{"bookId":"sr2-bug-city","title":"Bug City","edition":"SR2","citation":"Kapitel Windy City – Westside","purpose":"description"}],"map_sources":[],"editions":["SR2"],"edition_descriptions":{"SR2":{"kind":"Ortsdossier","preview":"Business Village ist ein benannter Teilraum des Westside im Quellenstand von Bug City.","full":"Business Village ist ein benannter Teilraum des Westside im Quellenstand von Bug City. Das Dossier fasst den belegten Quellenstand redaktionell zusammen; eine nicht belegte Kartenposition wird nicht ergänzt.","hasMore":true,"hasExcerpt":true,"sources":[{"bookId":"sr2-bug-city","title":"Bug City","edition":"SR2","citation":"Kapitel Windy City – Westside","purpose":"description"}]}}}},{"type":"Feature","geometry":null,"properties":{"id":36,"global_id":"chicago:source-place:calumet-harbor","name":"Calumet Harbor","aliases":[],"category":"Sonstige Spots","detail_map":"Chicago","source_pages":"Textzeile 829","map_source":"SRM07-05 - A Little Wetwork","placement_note":"Keine belastbare Einzelposition; Eintrag bleibt im Katalog","accuracy":"Nur Stadt oder Lore-Teilraum belegt","source_map":"source-supplement","source_panel":"Chicago","description_preview":"Calumet Harbor ist in SRM07-05 - A Little Wetwork als benannter Schauplatz mit Bezug zu Chicago belegt.","description_full":"Calumet Harbor ist in SRM07-05 - A Little Wetwork als benannter Schauplatz mit Bezug zu Chicago belegt. Das Dossier fasst den belegten Quellenstand redaktionell zusammen; eine nicht belegte Kartenposition wird nicht ergänzt.","description_source":"Textzeile 829","description_kind":"Ortsdossier","description_has_more":true,"detail_plans":[],"alternate_locations":[],"sources":[{"bookId":"sr5-srm07-05-a-little-wetwork","title":"SRM07-05 - A Little Wetwork","edition":"SR5","citation":"Textzeile 829","purpose":"description"}],"map_sources":[],"editions":["SR5"],"edition_descriptions":{"SR5":{"kind":"Ortsdossier","preview":"Calumet Harbor ist in SRM07-05 - A Little Wetwork als benannter Schauplatz mit Bezug zu Chicago belegt.","full":"Calumet Harbor ist in SRM07-05 - A Little Wetwork als benannter Schauplatz mit Bezug zu Chicago belegt. Das Dossier fasst den belegten Quellenstand redaktionell zusammen; eine nicht belegte Kartenposition wird nicht ergänzt.","hasMore":true,"hasExcerpt":true,"sources":[{"bookId":"sr5-srm07-05-a-little-wetwork","title":"SRM07-05 - A Little Wetwork","edition":"SR5","citation":"Textzeile 829","purpose":"description"}]}}}},{"type":"Feature","geometry":null,"properties":{"id":37,"global_id":"chicago:source-place:camp-lincoln","name":"Camp Lincoln","aliases":[],"category":"Siedlungen","detail_map":"The Zone","source_pages":"Kapitel Chicago – Camp Lincoln","map_source":"Feral Cities","placement_note":"Keine belastbare Einzelposition; Eintrag bleibt im Katalog","accuracy":"Nur Stadt oder Lore-Teilraum belegt","source_map":"source-supplement","source_panel":"The Zone","description_preview":"Camp Lincoln ist eine kollektiv organisierte Zeltgemeinschaft im Lincoln Park.","description_full":"Camp Lincoln ist eine kollektiv organisierte Zeltgemeinschaft im Lincoln Park. Das Dossier fasst den belegten Quellenstand redaktionell zusammen; eine nicht belegte Kartenposition wird nicht ergänzt.","description_source":"Kapitel Chicago – Camp Lincoln","description_kind":"Ortsdossier","description_has_more":true,"detail_plans":[],"alternate_locations":[],"sources":[{"bookId":"sr4-feral-cities","title":"Feral Cities","edition":"SR4","citation":"Kapitel Chicago – Camp Lincoln","purpose":"description"}],"map_sources":[],"editions":["SR4"],"edition_descriptions":{"SR4":{"kind":"Ortsdossier","preview":"Camp Lincoln ist eine kollektiv organisierte Zeltgemeinschaft im Lincoln Park.","full":"Camp Lincoln ist eine kollektiv organisierte Zeltgemeinschaft im Lincoln Park. Das Dossier fasst den belegten Quellenstand redaktionell zusammen; eine nicht belegte Kartenposition wird nicht ergänzt.","hasMore":true,"hasExcerpt":true,"sources":[{"bookId":"sr4-feral-cities","title":"Feral Cities","edition":"SR4","citation":"Kapitel Chicago – Camp Lincoln","purpose":"description"}]}}}},{"type":"Feature","geometry":null,"properties":{"id":38,"global_id":"chicago:source-place:cermak-blast-zone","name":"Cermak Blast Zone","aliases":[],"category":"Bezirke und Lore-Gebiete","detail_map":"Chicago","source_pages":"Textzeile 2951","map_source":"Anarchy - Chicago Chaos","placement_note":"Keine belastbare Einzelposition; Eintrag bleibt im Katalog","accuracy":"Nur Stadt oder Lore-Teilraum belegt","source_map":"source-supplement","source_panel":"Chicago","description_preview":"Cermak Blast Zone ist in Anarchy - Chicago Chaos als benannter Schauplatz mit Bezug zu Chicago belegt.","description_full":"Cermak Blast Zone ist in Anarchy - Chicago Chaos als benannter Schauplatz mit Bezug zu Chicago belegt. Das Dossier fasst den belegten Quellenstand redaktionell zusammen; eine nicht belegte Kartenposition wird nicht ergänzt.","description_source":"Textzeile 2951","description_kind":"Ortsdossier","description_has_more":true,"detail_plans":[],"alternate_locations":[],"sources":[{"bookId":"sr5-anarchy-chicago-chaos","title":"Anarchy - Chicago Chaos","edition":"SR5","citation":"Textzeile 2951","purpose":"description"}],"map_sources":[],"editions":["SR5"],"edition_descriptions":{"SR5":{"kind":"Ortsdossier","preview":"Cermak Blast Zone ist in Anarchy - Chicago Chaos als benannter Schauplatz mit Bezug zu Chicago belegt.","full":"Cermak Blast Zone ist in Anarchy - Chicago Chaos als benannter Schauplatz mit Bezug zu Chicago belegt. Das Dossier fasst den belegten Quellenstand redaktionell zusammen; eine nicht belegte Kartenposition wird nicht ergänzt.","hasMore":true,"hasExcerpt":true,"sources":[{"bookId":"sr5-anarchy-chicago-chaos","title":"Anarchy - Chicago Chaos","edition":"SR5","citation":"Textzeile 2951","purpose":"description"}]}}}},{"type":"Feature","geometry":null,"properties":{"id":39,"global_id":"chicago:source-place:chicago-area-containment-zone-insect","name":"Chicago Area (Containment Zone), Insect","aliases":[],"category":"Bezirke und Lore-Gebiete","detail_map":"Chicago","source_pages":"Textzeile 3700","map_source":"SRM05-01 - Chasin' the Wind","placement_note":"Keine belastbare Einzelposition; Eintrag bleibt im Katalog","accuracy":"Nur Stadt oder Lore-Teilraum belegt","source_map":"source-supplement","source_panel":"Chicago","description_preview":"Chicago Area (Containment Zone), Insect ist in SRM05-01 - Chasin' the Wind als benannter Schauplatz mit Bezug zu Chicago belegt.","description_full":"Chicago Area (Containment Zone), Insect ist in SRM05-01 - Chasin' the Wind als benannter Schauplatz mit Bezug zu Chicago belegt. Das Dossier fasst den belegten Quellenstand redaktionell zusammen; eine nicht belegte Kartenposition wird nicht ergänzt.","description_source":"Textzeile 3700","description_kind":"Ortsdossier","description_has_more":true,"detail_plans":[],"alternate_locations":[],"sources":[{"bookId":"sr5-srm05-01-chasin-the-wind","title":"SRM05-01 - Chasin' the Wind","edition":"SR5","citation":"Textzeile 3700","purpose":"description"},{"bookId":"sr5-srm05-01-chasin-the-wind","title":"SRM05-01 - Chasin' the Wind","edition":"SR5","citation":"Textzeile 3707","purpose":"description"},{"bookId":"sr5-srm05-01-chasin-the-wind","title":"SRM05-01 - Chasin' the Wind","edition":"SR5","citation":"Textzeile 3714","purpose":"description"},{"bookId":"sr5-srm06-05-healing-the-sick","title":"SRM06-05 - Healing the Sick","edition":"SR5","citation":"Textzeile 4392","purpose":"description"},{"bookId":"sr5-srm06-05-healing-the-sick","title":"SRM06-05 - Healing the Sick","edition":"SR5","citation":"Textzeile 4399","purpose":"description"},{"bookId":"sr5-srm06-05-healing-the-sick","title":"SRM06-05 - Healing the Sick","edition":"SR5","citation":"Textzeile 4406","purpose":"description"},{"bookId":"sr5-srm07-02-collective-action","title":"SRM07-02 - Collective Action","edition":"SR5","citation":"Textzeile 5601","purpose":"description"},{"bookId":"sr5-srm07-02-collective-action","title":"SRM07-02 - Collective Action","edition":"SR5","citation":"Textzeile 5608","purpose":"description"},{"bookId":"sr5-srm07-02-collective-action","title":"SRM07-02 - Collective Action","edition":"SR5","citation":"Textzeile 5615","purpose":"description"}],"map_sources":[],"editions":["SR5"],"edition_descriptions":{"SR5":{"kind":"Ortsdossier","preview":"Chicago Area (Containment Zone), Insect ist in SRM05-01 - Chasin' the Wind als benannter Schauplatz mit Bezug zu Chicago belegt.","full":"Chicago Area (Containment Zone), Insect ist in SRM05-01 - Chasin' the Wind als benannter Schauplatz mit Bezug zu Chicago belegt. Das Dossier fasst den belegten Quellenstand redaktionell zusammen; eine nicht belegte Kartenposition wird nicht ergänzt.","hasMore":true,"hasExcerpt":true,"sources":[{"bookId":"sr5-srm05-01-chasin-the-wind","title":"SRM05-01 - Chasin' the Wind","edition":"SR5","citation":"Textzeile 3700","purpose":"description"},{"bookId":"sr5-srm05-01-chasin-the-wind","title":"SRM05-01 - Chasin' the Wind","edition":"SR5","citation":"Textzeile 3707","purpose":"description"},{"bookId":"sr5-srm05-01-chasin-the-wind","title":"SRM05-01 - Chasin' the Wind","edition":"SR5","citation":"Textzeile 3714","purpose":"description"},{"bookId":"sr5-srm06-05-healing-the-sick","title":"SRM06-05 - Healing the Sick","edition":"SR5","citation":"Textzeile 4392","purpose":"description"},{"bookId":"sr5-srm06-05-healing-the-sick","title":"SRM06-05 - Healing the Sick","edition":"SR5","citation":"Textzeile 4399","purpose":"description"},{"bookId":"sr5-srm06-05-healing-the-sick","title":"SRM06-05 - Healing the Sick","edition":"SR5","citation":"Textzeile 4406","purpose":"description"},{"bookId":"sr5-srm07-02-collective-action","title":"SRM07-02 - Collective Action","edition":"SR5","citation":"Textzeile 5601","purpose":"description"},{"bookId":"sr5-srm07-02-collective-action","title":"SRM07-02 - Collective Action","edition":"SR5","citation":"Textzeile 5608","purpose":"description"},{"bookId":"sr5-srm07-02-collective-action","title":"SRM07-02 - Collective Action","edition":"SR5","citation":"Textzeile 5615","purpose":"description"}]}}}},{"type":"Feature","geometry":null,"properties":{"id":40,"global_id":"chicago:source-place:chicago-ave-market","name":"Chicago Ave Market","aliases":[],"category":"Einkaufen","detail_map":"The Zone","source_pages":"Kapitel Chicago – Chicago Ave Market","map_source":"Feral Cities","placement_note":"Keine belastbare Einzelposition; Eintrag bleibt im Katalog","accuracy":"Nur Stadt oder Lore-Teilraum belegt","source_map":"source-supplement","source_panel":"The Zone","description_preview":"Der Chicago Ave Market ist ein benannter Markt- und Versorgungspunkt in der Zone.","description_full":"Der Chicago Ave Market ist ein benannter Markt- und Versorgungspunkt in der Zone. Das Dossier fasst den belegten Quellenstand redaktionell zusammen; eine nicht belegte Kartenposition wird nicht ergänzt.","description_source":"Kapitel Chicago – Chicago Ave Market","description_kind":"Ortsdossier","description_has_more":true,"detail_plans":[],"alternate_locations":[],"sources":[{"bookId":"sr4-feral-cities","title":"Feral Cities","edition":"SR4","citation":"Kapitel Chicago – Chicago Ave Market","purpose":"description"}],"map_sources":[],"editions":["SR4"],"edition_descriptions":{"SR4":{"kind":"Ortsdossier","preview":"Der Chicago Ave Market ist ein benannter Markt- und Versorgungspunkt in der Zone.","full":"Der Chicago Ave Market ist ein benannter Markt- und Versorgungspunkt in der Zone. Das Dossier fasst den belegten Quellenstand redaktionell zusammen; eine nicht belegte Kartenposition wird nicht ergänzt.","hasMore":true,"hasExcerpt":true,"sources":[{"bookId":"sr4-feral-cities","title":"Feral Cities","edition":"SR4","citation":"Kapitel Chicago – Chicago Ave Market","purpose":"description"}]}}}},{"type":"Feature","geometry":null,"properties":{"id":41,"global_id":"chicago:source-place:chicago-genesis","name":"Chicago Genesis","aliases":[],"category":"Konzerne","detail_map":"The Core","source_pages":"Kritikerpreis – Chicago Genesis","map_source":"Mission Chicago","placement_note":"Keine belastbare Einzelposition; Eintrag bleibt im Katalog","accuracy":"Nur Stadt oder Lore-Teilraum belegt","source_map":"source-supplement","source_panel":"The Core","description_preview":"Chicago Genesis ist der aufgegebene frühere Sitz von Brilliant Genesis und ein Missionsschauplatz.","description_full":"Chicago Genesis ist der aufgegebene frühere Sitz von Brilliant Genesis und ein Missionsschauplatz. Das Dossier fasst den belegten Quellenstand redaktionell zusammen; eine nicht belegte Kartenposition wird nicht ergänzt.","description_source":"Kritikerpreis – Chicago Genesis","description_kind":"Ortsdossier","description_has_more":true,"detail_plans":[],"alternate_locations":[],"sources":[{"bookId":"sr5-mission-chicago","title":"Mission Chicago","edition":"SR5","citation":"Kritikerpreis – Chicago Genesis","purpose":"description"}],"map_sources":[],"editions":["SR5"],"edition_descriptions":{"SR5":{"kind":"Ortsdossier","preview":"Chicago Genesis ist der aufgegebene frühere Sitz von Brilliant Genesis und ein Missionsschauplatz.","full":"Chicago Genesis ist der aufgegebene frühere Sitz von Brilliant Genesis und ein Missionsschauplatz. Das Dossier fasst den belegten Quellenstand redaktionell zusammen; eine nicht belegte Kartenposition wird nicht ergänzt.","hasMore":true,"hasExcerpt":true,"sources":[{"bookId":"sr5-mission-chicago","title":"Mission Chicago","edition":"SR5","citation":"Kritikerpreis – Chicago Genesis","purpose":"description"}]}}}},{"type":"Feature","geometry":null,"properties":{"id":42,"global_id":"chicago:source-place:chicagos-containment-zone","name":"Chicago’s Containment Zone","aliases":[],"category":"Bezirke und Lore-Gebiete","detail_map":"Chicago","source_pages":"Textzeile 19166","map_source":"No Future (Music)","placement_note":"Keine belastbare Einzelposition; Eintrag bleibt im Katalog","accuracy":"Nur Stadt oder Lore-Teilraum belegt","source_map":"source-supplement","source_panel":"Chicago","description_preview":"Chicago’s Containment Zone ist in No Future (Music) als benannter Schauplatz mit Bezug zu Chicago belegt.","description_full":"Chicago’s Containment Zone ist in No Future (Music) als benannter Schauplatz mit Bezug zu Chicago belegt. Das Dossier fasst den belegten Quellenstand redaktionell zusammen; eine nicht belegte Kartenposition wird nicht ergänzt.","description_source":"Textzeile 19166","description_kind":"Ortsdossier","description_has_more":true,"detail_plans":[],"alternate_locations":[],"sources":[{"bookId":"sr6-no-future-music","title":"No Future (Music)","edition":"SR6","citation":"Textzeile 19166","purpose":"description"}],"map_sources":[],"editions":["SR6"],"edition_descriptions":{"SR6":{"kind":"Ortsdossier","preview":"Chicago’s Containment Zone ist in No Future (Music) als benannter Schauplatz mit Bezug zu Chicago belegt.","full":"Chicago’s Containment Zone ist in No Future (Music) als benannter Schauplatz mit Bezug zu Chicago belegt. Das Dossier fasst den belegten Quellenstand redaktionell zusammen; eine nicht belegte Kartenposition wird nicht ergänzt.","hasMore":true,"hasExcerpt":true,"sources":[{"bookId":"sr6-no-future-music","title":"No Future (Music)","edition":"SR6","citation":"Textzeile 19166","purpose":"description"}]}}}},{"type":"Feature","geometry":null,"properties":{"id":43,"global_id":"chicago:source-place:chicagos-own-pizzeria","name":"Chicago’s Own Pizzeria","aliases":[],"category":"Restaurants","detail_map":"Northside","source_pages":"Kapitel Chicago – Chicago’s Own Pizzeria","map_source":"Feral Cities","placement_note":"Keine belastbare Einzelposition; Eintrag bleibt im Katalog","accuracy":"Nur Stadt oder Lore-Teilraum belegt","source_map":"source-supplement","source_panel":"Northside","description_preview":"Chicago’s Own Pizzeria ist ein lokaler Gastronomie- und Treffpunkt im Northside.","description_full":"Chicago’s Own Pizzeria ist ein lokaler Gastronomie- und Treffpunkt im Northside. Das Dossier fasst den belegten Quellenstand redaktionell zusammen; eine nicht belegte Kartenposition wird nicht ergänzt.","description_source":"Kapitel Chicago – Chicago’s Own Pizzeria","description_kind":"Ortsdossier","description_has_more":true,"detail_plans":[],"alternate_locations":[],"sources":[{"bookId":"sr4-feral-cities","title":"Feral Cities","edition":"SR4","citation":"Kapitel Chicago – Chicago’s Own Pizzeria","purpose":"description"}],"map_sources":[],"editions":["SR4"],"edition_descriptions":{"SR4":{"kind":"Ortsdossier","preview":"Chicago’s Own Pizzeria ist ein lokaler Gastronomie- und Treffpunkt im Northside.","full":"Chicago’s Own Pizzeria ist ein lokaler Gastronomie- und Treffpunkt im Northside. Das Dossier fasst den belegten Quellenstand redaktionell zusammen; eine nicht belegte Kartenposition wird nicht ergänzt.","hasMore":true,"hasExcerpt":true,"sources":[{"bookId":"sr4-feral-cities","title":"Feral Cities","edition":"SR4","citation":"Kapitel Chicago – Chicago’s Own Pizzeria","purpose":"description"}]}}}},{"type":"Feature","geometry":null,"properties":{"id":44,"global_id":"chicago:source-place:club-clusterfunk","name":"Club Clusterfunk","aliases":[],"category":"Bars, Clubs und Gastronomie","detail_map":"Chicago","source_pages":"Textzeile 2581","map_source":"E-CAT27M0805 Shadowrun 5e - Missions 08-05 Sleeping Giants","placement_note":"Keine belastbare Einzelposition; Eintrag bleibt im Katalog","accuracy":"Nur Stadt oder Lore-Teilraum belegt","source_map":"source-supplement","source_panel":"Chicago","description_preview":"Club Clusterfunk ist in E-CAT27M0805 Shadowrun 5e - Missions 08-05 Sleeping Giants als benannter Schauplatz mit Bezug zu Chicago belegt.","description_full":"Club Clusterfunk ist in E-CAT27M0805 Shadowrun 5e - Missions 08-05 Sleeping Giants als benannter Schauplatz mit Bezug zu Chicago belegt. Das Dossier fasst den belegten Quellenstand redaktionell zusammen; eine nicht belegte Kartenposition wird nicht ergänzt.","description_source":"Textzeile 2581","description_kind":"Ortsdossier","description_has_more":true,"detail_plans":[],"alternate_locations":[],"sources":[{"bookId":"sr5-e-cat27m0805-shadowrun-5e-missions-08-05-sleeping-giants","title":"E-CAT27M0805 Shadowrun 5e - Missions 08-05 Sleeping Giants","edition":"SR5","citation":"Textzeile 2581","purpose":"description"},{"bookId":"sr5-e-cat27m0805-shadowrun-5e-missions-08-05-sleeping-giants","title":"E-CAT27M0805 Shadowrun 5e - Missions 08-05 Sleeping Giants","edition":"SR5","citation":"Textzeile 3315","purpose":"description"}],"map_sources":[],"editions":["SR5"],"edition_descriptions":{"SR5":{"kind":"Ortsdossier","preview":"Club Clusterfunk ist in E-CAT27M0805 Shadowrun 5e - Missions 08-05 Sleeping Giants als benannter Schauplatz mit Bezug zu Chicago belegt.","full":"Club Clusterfunk ist in E-CAT27M0805 Shadowrun 5e - Missions 08-05 Sleeping Giants als benannter Schauplatz mit Bezug zu Chicago belegt. Das Dossier fasst den belegten Quellenstand redaktionell zusammen; eine nicht belegte Kartenposition wird nicht ergänzt.","hasMore":true,"hasExcerpt":true,"sources":[{"bookId":"sr5-e-cat27m0805-shadowrun-5e-missions-08-05-sleeping-giants","title":"E-CAT27M0805 Shadowrun 5e - Missions 08-05 Sleeping Giants","edition":"SR5","citation":"Textzeile 2581","purpose":"description"},{"bookId":"sr5-e-cat27m0805-shadowrun-5e-missions-08-05-sleeping-giants","title":"E-CAT27M0805 Shadowrun 5e - Missions 08-05 Sleeping Giants","edition":"SR5","citation":"Textzeile 3315","purpose":"description"}]}}}},{"type":"Feature","geometry":null,"properties":{"id":45,"global_id":"chicago:source-place:cook-county-hospital","name":"Cook County Hospital","aliases":["County Hospital"],"category":"Medizin und Gesundheit","detail_map":"The Core","source_pages":"Kapitel Bug City – County Hospital","map_source":"Bug City","placement_note":"Keine belastbare Einzelposition; Eintrag bleibt im Katalog","accuracy":"Nur Stadt oder Lore-Teilraum belegt","source_map":"source-supplement","source_panel":"The Core","description_preview":"Das Cook County Hospital ist ein zentraler medizinischer Schauplatz im zerstörten Kern Chicagos.","description_full":"Das Cook County Hospital ist ein zentraler medizinischer Schauplatz im zerstörten Kern Chicagos. Das Dossier fasst den belegten Quellenstand redaktionell zusammen; eine nicht belegte Kartenposition wird nicht ergänzt.","description_source":"Kapitel Bug City – County Hospital","description_kind":"Ortsdossier","description_has_more":true,"detail_plans":[],"alternate_locations":[],"sources":[{"bookId":"sr2-bug-city","title":"Bug City","edition":"SR2","citation":"Kapitel Bug City – County Hospital","purpose":"description"}],"map_sources":[],"editions":["SR2"],"edition_descriptions":{"SR2":{"kind":"Ortsdossier","preview":"Das Cook County Hospital ist ein zentraler medizinischer Schauplatz im zerstörten Kern Chicagos.","full":"Das Cook County Hospital ist ein zentraler medizinischer Schauplatz im zerstörten Kern Chicagos. Das Dossier fasst den belegten Quellenstand redaktionell zusammen; eine nicht belegte Kartenposition wird nicht ergänzt.","hasMore":true,"hasExcerpt":true,"sources":[{"bookId":"sr2-bug-city","title":"Bug City","edition":"SR2","citation":"Kapitel Bug City – County Hospital","purpose":"description"}]}}}},{"type":"Feature","geometry":null,"properties":{"id":46,"global_id":"chicago:source-place:daley-gardens","name":"Daley Gardens","aliases":[],"category":"Wohnorte","detail_map":"The Core","source_pages":"Kapitel Bug City – Daley Gardens","map_source":"Bug City","placement_note":"Keine belastbare Einzelposition; Eintrag bleibt im Katalog","accuracy":"Nur Stadt oder Lore-Teilraum belegt","source_map":"source-supplement","source_panel":"The Core","description_preview":"Daley Gardens ist ein benannter Wohn- und Gefahrenschauplatz im Kerngebiet von Bug City.","description_full":"Daley Gardens ist ein benannter Wohn- und Gefahrenschauplatz im Kerngebiet von Bug City. Das Dossier fasst den belegten Quellenstand redaktionell zusammen; eine nicht belegte Kartenposition wird nicht ergänzt.","description_source":"Kapitel Bug City – Daley Gardens","description_kind":"Ortsdossier","description_has_more":true,"detail_plans":[],"alternate_locations":[],"sources":[{"bookId":"sr2-bug-city","title":"Bug City","edition":"SR2","citation":"Kapitel Bug City – Daley Gardens","purpose":"description"}],"map_sources":[],"editions":["SR2"],"edition_descriptions":{"SR2":{"kind":"Ortsdossier","preview":"Daley Gardens ist ein benannter Wohn- und Gefahrenschauplatz im Kerngebiet von Bug City.","full":"Daley Gardens ist ein benannter Wohn- und Gefahrenschauplatz im Kerngebiet von Bug City. Das Dossier fasst den belegten Quellenstand redaktionell zusammen; eine nicht belegte Kartenposition wird nicht ergänzt.","hasMore":true,"hasExcerpt":true,"sources":[{"bookId":"sr2-bug-city","title":"Bug City","edition":"SR2","citation":"Kapitel Bug City – Daley Gardens","purpose":"description"}]}}}},{"type":"Feature","geometry":null,"properties":{"id":47,"global_id":"chicago:source-place:elegance-hotel","name":"Elegance Hotel","aliases":[],"category":"Sonstige Spots","detail_map":"Chicago","source_pages":"Textzeile 1739","map_source":"SRM07-03 - Special Investigation Unit","placement_note":"Keine belastbare Einzelposition; Eintrag bleibt im Katalog","accuracy":"Nur Stadt oder Lore-Teilraum belegt","source_map":"source-supplement","source_panel":"Chicago","description_preview":"Elegance Hotel ist in SRM07-03 - Special Investigation Unit als benannter Schauplatz mit Bezug zu Chicago belegt.","description_full":"Elegance Hotel ist in SRM07-03 - Special Investigation Unit als benannter Schauplatz mit Bezug zu Chicago belegt. Das Dossier fasst den belegten Quellenstand redaktionell zusammen; eine nicht belegte Kartenposition wird nicht ergänzt.","description_source":"Textzeile 1739","description_kind":"Ortsdossier","description_has_more":true,"detail_plans":[],"alternate_locations":[],"sources":[{"bookId":"sr5-srm07-03-special-investigation-unit","title":"SRM07-03 - Special Investigation Unit","edition":"SR5","citation":"Textzeile 1739","purpose":"description"}],"map_sources":[],"editions":["SR5"],"edition_descriptions":{"SR5":{"kind":"Ortsdossier","preview":"Elegance Hotel ist in SRM07-03 - Special Investigation Unit als benannter Schauplatz mit Bezug zu Chicago belegt.","full":"Elegance Hotel ist in SRM07-03 - Special Investigation Unit als benannter Schauplatz mit Bezug zu Chicago belegt. Das Dossier fasst den belegten Quellenstand redaktionell zusammen; eine nicht belegte Kartenposition wird nicht ergänzt.","hasMore":true,"hasExcerpt":true,"sources":[{"bookId":"sr5-srm07-03-special-investigation-unit","title":"SRM07-03 - Special Investigation Unit","edition":"SR5","citation":"Textzeile 1739","purpose":"description"}]}}}},{"type":"Feature","geometry":null,"properties":{"id":48,"global_id":"chicago:source-place:emotional-attachment-street-art","name":"Emotional Attachment (Street Art)","aliases":[],"category":"Sonstige Spots","detail_map":"Chicago","source_pages":"Textzeile 8138","map_source":"Anarchy - Chicago Chaos","placement_note":"Keine belastbare Einzelposition; Eintrag bleibt im Katalog","accuracy":"Nur Stadt oder Lore-Teilraum belegt","source_map":"source-supplement","source_panel":"Chicago","description_preview":"Emotional Attachment (Street Art) ist in Anarchy - Chicago Chaos als benannter Schauplatz mit Bezug zu Chicago belegt.","description_full":"Emotional Attachment (Street Art) ist in Anarchy - Chicago Chaos als benannter Schauplatz mit Bezug zu Chicago belegt. Das Dossier fasst den belegten Quellenstand redaktionell zusammen; eine nicht belegte Kartenposition wird nicht ergänzt.","description_source":"Textzeile 8138","description_kind":"Ortsdossier","description_has_more":true,"detail_plans":[],"alternate_locations":[],"sources":[{"bookId":"sr5-anarchy-chicago-chaos","title":"Anarchy - Chicago Chaos","edition":"SR5","citation":"Textzeile 8138","purpose":"description"}],"map_sources":[],"editions":["SR5"],"edition_descriptions":{"SR5":{"kind":"Ortsdossier","preview":"Emotional Attachment (Street Art) ist in Anarchy - Chicago Chaos als benannter Schauplatz mit Bezug zu Chicago belegt.","full":"Emotional Attachment (Street Art) ist in Anarchy - Chicago Chaos als benannter Schauplatz mit Bezug zu Chicago belegt. Das Dossier fasst den belegten Quellenstand redaktionell zusammen; eine nicht belegte Kartenposition wird nicht ergänzt.","hasMore":true,"hasExcerpt":true,"sources":[{"bookId":"sr5-anarchy-chicago-chaos","title":"Anarchy - Chicago Chaos","edition":"SR5","citation":"Textzeile 8138","purpose":"description"}]}}}},{"type":"Feature","geometry":null,"properties":{"id":49,"global_id":"chicago:source-place:fuchi-america-building","name":"Fuchi-America Building","aliases":[],"category":"Sonstige Spots","detail_map":"Chicago","source_pages":"Textzeile 3588","map_source":"SRM06-03 - Ancient Rumblings","placement_note":"Keine belastbare Einzelposition; Eintrag bleibt im Katalog","accuracy":"Nur Stadt oder Lore-Teilraum belegt","source_map":"source-supplement","source_panel":"Chicago","description_preview":"Fuchi-America Building ist in SRM06-03 - Ancient Rumblings als benannter Schauplatz mit Bezug zu Chicago belegt.","description_full":"Fuchi-America Building ist in SRM06-03 - Ancient Rumblings als benannter Schauplatz mit Bezug zu Chicago belegt. Das Dossier fasst den belegten Quellenstand redaktionell zusammen; eine nicht belegte Kartenposition wird nicht ergänzt.","description_source":"Textzeile 3588","description_kind":"Ortsdossier","description_has_more":true,"detail_plans":[],"alternate_locations":[],"sources":[{"bookId":"sr5-srm06-03-ancient-rumblings","title":"SRM06-03 - Ancient Rumblings","edition":"SR5","citation":"Textzeile 3588","purpose":"description"}],"map_sources":[],"editions":["SR5"],"edition_descriptions":{"SR5":{"kind":"Ortsdossier","preview":"Fuchi-America Building ist in SRM06-03 - Ancient Rumblings als benannter Schauplatz mit Bezug zu Chicago belegt.","full":"Fuchi-America Building ist in SRM06-03 - Ancient Rumblings als benannter Schauplatz mit Bezug zu Chicago belegt. Das Dossier fasst den belegten Quellenstand redaktionell zusammen; eine nicht belegte Kartenposition wird nicht ergänzt.","hasMore":true,"hasExcerpt":true,"sources":[{"bookId":"sr5-srm06-03-ancient-rumblings","title":"SRM06-03 - Ancient Rumblings","edition":"SR5","citation":"Textzeile 3588","purpose":"description"}]}}}},{"type":"Feature","geometry":null,"properties":{"id":50,"global_id":"chicago:source-place:ghoultown","name":"Ghoultown","aliases":["Cabrini Refuge"],"category":"Siedlungen","detail_map":"The Zone","source_pages":"Kapitel Bug City – Ghoultown","map_source":"Bug City","placement_note":"Keine belastbare Einzelposition; Eintrag bleibt im Katalog","accuracy":"Nur Stadt oder Lore-Teilraum belegt","source_map":"source-supplement","source_panel":"The Zone","description_preview":"Ghoultown ist die befestigte Ghoulgemeinschaft des früheren Cabrini Refuge.","description_full":"Ghoultown ist die befestigte Ghoulgemeinschaft des früheren Cabrini Refuge. Das Dossier fasst den belegten Quellenstand redaktionell zusammen; eine nicht belegte Kartenposition wird nicht ergänzt.","description_source":"Kapitel Bug City – Ghoultown","description_kind":"Ortsdossier","description_has_more":true,"detail_plans":[],"alternate_locations":[],"sources":[{"bookId":"sr2-bug-city","title":"Bug City","edition":"SR2","citation":"Kapitel Bug City – Ghoultown","purpose":"description"}],"map_sources":[],"editions":["SR2"],"edition_descriptions":{"SR2":{"kind":"Ortsdossier","preview":"Ghoultown ist die befestigte Ghoulgemeinschaft des früheren Cabrini Refuge.","full":"Ghoultown ist die befestigte Ghoulgemeinschaft des früheren Cabrini Refuge. Das Dossier fasst den belegten Quellenstand redaktionell zusammen; eine nicht belegte Kartenposition wird nicht ergänzt.","hasMore":true,"hasExcerpt":true,"sources":[{"bookId":"sr2-bug-city","title":"Bug City","edition":"SR2","citation":"Kapitel Bug City – Ghoultown","purpose":"description"}]}}}},{"type":"Feature","geometry":null,"properties":{"id":51,"global_id":"chicago:source-place:goobers-b-t","name":"Goober’s B&T","aliases":[],"category":"Einkaufen","detail_map":"The Zone","source_pages":"Verdammt lang her – Goober","map_source":"Mission Chicago","placement_note":"Keine belastbare Einzelposition; Eintrag bleibt im Katalog","accuracy":"Nur Stadt oder Lore-Teilraum belegt","source_map":"source-supplement","source_panel":"The Zone","description_preview":"Goober’s B&T dient dem Waffenbauer Goober als Laden und verborgene Operationsbasis.","description_full":"Goober’s B&T dient dem Waffenbauer Goober als Laden und verborgene Operationsbasis. Das Dossier fasst den belegten Quellenstand redaktionell zusammen; eine nicht belegte Kartenposition wird nicht ergänzt.","description_source":"Verdammt lang her – Goober","description_kind":"Ortsdossier","description_has_more":true,"detail_plans":[],"alternate_locations":[],"sources":[{"bookId":"sr5-mission-chicago","title":"Mission Chicago","edition":"SR5","citation":"Verdammt lang her – Goober","purpose":"description"}],"map_sources":[],"editions":["SR5"],"edition_descriptions":{"SR5":{"kind":"Ortsdossier","preview":"Goober’s B&T dient dem Waffenbauer Goober als Laden und verborgene Operationsbasis.","full":"Goober’s B&T dient dem Waffenbauer Goober als Laden und verborgene Operationsbasis. Das Dossier fasst den belegten Quellenstand redaktionell zusammen; eine nicht belegte Kartenposition wird nicht ergänzt.","hasMore":true,"hasExcerpt":true,"sources":[{"bookId":"sr5-mission-chicago","title":"Mission Chicago","edition":"SR5","citation":"Verdammt lang her – Goober","purpose":"description"}]}}}},{"type":"Feature","geometry":null,"properties":{"id":52,"global_id":"chicago:source-place:goose-island","name":"Goose Island","aliases":[],"category":"Sondergebiete","detail_map":"The Core","source_pages":"Kapitel Bug City – Goose Island","map_source":"Bug City","placement_note":"Keine belastbare Einzelposition; Eintrag bleibt im Katalog","accuracy":"Nur Stadt oder Lore-Teilraum belegt","source_map":"source-supplement","source_panel":"The Core","description_preview":"Goose Island ist ein eigenständig behandelter Schauplatz im Quellenstand der Containment Zone.","description_full":"Goose Island ist ein eigenständig behandelter Schauplatz im Quellenstand der Containment Zone. Das Dossier fasst den belegten Quellenstand redaktionell zusammen; eine nicht belegte Kartenposition wird nicht ergänzt.","description_source":"Kapitel Bug City – Goose Island","description_kind":"Ortsdossier","description_has_more":true,"detail_plans":[],"alternate_locations":[],"sources":[{"bookId":"sr2-bug-city","title":"Bug City","edition":"SR2","citation":"Kapitel Bug City – Goose Island","purpose":"description"}],"map_sources":[],"editions":["SR2"],"edition_descriptions":{"SR2":{"kind":"Ortsdossier","preview":"Goose Island ist ein eigenständig behandelter Schauplatz im Quellenstand der Containment Zone.","full":"Goose Island ist ein eigenständig behandelter Schauplatz im Quellenstand der Containment Zone. Das Dossier fasst den belegten Quellenstand redaktionell zusammen; eine nicht belegte Kartenposition wird nicht ergänzt.","hasMore":true,"hasExcerpt":true,"sources":[{"bookId":"sr2-bug-city","title":"Bug City","edition":"SR2","citation":"Kapitel Bug City – Goose Island","purpose":"description"}]}}}},{"type":"Feature","geometry":null,"properties":{"id":53,"global_id":"chicago:source-place:headquarters-turf","name":"Headquarters/ Turf","aliases":[],"category":"Konzerne und markante Bauwerke","detail_map":"Chicago","source_pages":"PDF-Seite 131","map_source":"Bug City","placement_note":"Keine belastbare Einzelposition; Eintrag bleibt im Katalog","accuracy":"Nur Stadt oder Lore-Teilraum belegt","source_map":"source-supplement","source_panel":"Chicago","description_preview":"Headquarters/ Turf ist in Bug City als benannter Schauplatz mit Bezug zu Chicago belegt.","description_full":"Headquarters/ Turf ist in Bug City als benannter Schauplatz mit Bezug zu Chicago belegt. Das Dossier fasst den belegten Quellenstand redaktionell zusammen; eine nicht belegte Kartenposition wird nicht ergänzt.","description_source":"PDF-Seite 131","description_kind":"Ortsdossier","description_has_more":true,"detail_plans":[],"alternate_locations":[],"sources":[{"bookId":"sr2-bug-city","title":"Bug City","edition":"SR2","citation":"PDF-Seite 131","purpose":"description"}],"map_sources":[],"editions":["SR2"],"edition_descriptions":{"SR2":{"kind":"Ortsdossier","preview":"Headquarters/ Turf ist in Bug City als benannter Schauplatz mit Bezug zu Chicago belegt.","full":"Headquarters/ Turf ist in Bug City als benannter Schauplatz mit Bezug zu Chicago belegt. Das Dossier fasst den belegten Quellenstand redaktionell zusammen; eine nicht belegte Kartenposition wird nicht ergänzt.","hasMore":true,"hasExcerpt":true,"sources":[{"bookId":"sr2-bug-city","title":"Bug City","edition":"SR2","citation":"PDF-Seite 131","purpose":"description"}]}}}},{"type":"Feature","geometry":null,"properties":{"id":54,"global_id":"chicago:source-place:high-school-mother-mcauley","name":"High School, Mother McAuley","aliases":[],"category":"Sonstige Spots","detail_map":"Chicago","source_pages":"Textzeile 3459","map_source":"SRM06-03 - Ancient Rumblings","placement_note":"Keine belastbare Einzelposition; Eintrag bleibt im Katalog","accuracy":"Nur Stadt oder Lore-Teilraum belegt","source_map":"source-supplement","source_panel":"Chicago","description_preview":"High School, Mother McAuley ist in SRM06-03 - Ancient Rumblings als benannter Schauplatz mit Bezug zu Chicago belegt.","description_full":"High School, Mother McAuley ist in SRM06-03 - Ancient Rumblings als benannter Schauplatz mit Bezug zu Chicago belegt. Das Dossier fasst den belegten Quellenstand redaktionell zusammen; eine nicht belegte Kartenposition wird nicht ergänzt.","description_source":"Textzeile 3459","description_kind":"Ortsdossier","description_has_more":true,"detail_plans":[],"alternate_locations":[],"sources":[{"bookId":"sr5-srm06-03-ancient-rumblings","title":"SRM06-03 - Ancient Rumblings","edition":"SR5","citation":"Textzeile 3459","purpose":"description"}],"map_sources":[],"editions":["SR5"],"edition_descriptions":{"SR5":{"kind":"Ortsdossier","preview":"High School, Mother McAuley ist in SRM06-03 - Ancient Rumblings als benannter Schauplatz mit Bezug zu Chicago belegt.","full":"High School, Mother McAuley ist in SRM06-03 - Ancient Rumblings als benannter Schauplatz mit Bezug zu Chicago belegt. Das Dossier fasst den belegten Quellenstand redaktionell zusammen; eine nicht belegte Kartenposition wird nicht ergänzt.","hasMore":true,"hasExcerpt":true,"sources":[{"bookId":"sr5-srm06-03-ancient-rumblings","title":"SRM06-03 - Ancient Rumblings","edition":"SR5","citation":"Textzeile 3459","purpose":"description"}]}}}},{"type":"Feature","geometry":null,"properties":{"id":55,"global_id":"chicago:source-place:leos-lunchbox","name":"Leo’s Lunchbox","aliases":[],"category":"Restaurants","detail_map":"The Core","source_pages":"Kapitel Bug City – Leo’s Lunchbox","map_source":"Bug City","placement_note":"Keine belastbare Einzelposition; Eintrag bleibt im Katalog","accuracy":"Nur Stadt oder Lore-Teilraum belegt","source_map":"source-supplement","source_panel":"The Core","description_preview":"Leo’s Lunchbox ist ein benannter Versorgungs- und Treffpunkt innerhalb der Containment Zone.","description_full":"Leo’s Lunchbox ist ein benannter Versorgungs- und Treffpunkt innerhalb der Containment Zone. Das Dossier fasst den belegten Quellenstand redaktionell zusammen; eine nicht belegte Kartenposition wird nicht ergänzt.","description_source":"Kapitel Bug City – Leo’s Lunchbox","description_kind":"Ortsdossier","description_has_more":true,"detail_plans":[],"alternate_locations":[],"sources":[{"bookId":"sr2-bug-city","title":"Bug City","edition":"SR2","citation":"Kapitel Bug City – Leo’s Lunchbox","purpose":"description"}],"map_sources":[],"editions":["SR2"],"edition_descriptions":{"SR2":{"kind":"Ortsdossier","preview":"Leo’s Lunchbox ist ein benannter Versorgungs- und Treffpunkt innerhalb der Containment Zone.","full":"Leo’s Lunchbox ist ein benannter Versorgungs- und Treffpunkt innerhalb der Containment Zone. Das Dossier fasst den belegten Quellenstand redaktionell zusammen; eine nicht belegte Kartenposition wird nicht ergänzt.","hasMore":true,"hasExcerpt":true,"sources":[{"bookId":"sr2-bug-city","title":"Bug City","edition":"SR2","citation":"Kapitel Bug City – Leo’s Lunchbox","purpose":"description"}]}}}},{"type":"Feature","geometry":null,"properties":{"id":56,"global_id":"chicago:source-place:long-pig-farms","name":"Long Pig Farms","aliases":[],"category":"Sondergebiete","detail_map":"Northside","source_pages":"Kapitel Chicago – Long Pig Farms","map_source":"Feral Cities","placement_note":"Keine belastbare Einzelposition; Eintrag bleibt im Katalog","accuracy":"Nur Stadt oder Lore-Teilraum belegt","source_map":"source-supplement","source_panel":"Northside","description_preview":"Long Pig Farms ist ein berüchtigter und gefährlicher Schauplatz im Northside.","description_full":"Long Pig Farms ist ein berüchtigter und gefährlicher Schauplatz im Northside. Das Dossier fasst den belegten Quellenstand redaktionell zusammen; eine nicht belegte Kartenposition wird nicht ergänzt.","description_source":"Kapitel Chicago – Long Pig Farms","description_kind":"Ortsdossier","description_has_more":true,"detail_plans":[],"alternate_locations":[],"sources":[{"bookId":"sr4-feral-cities","title":"Feral Cities","edition":"SR4","citation":"Kapitel Chicago – Long Pig Farms","purpose":"description"}],"map_sources":[],"editions":["SR4"],"edition_descriptions":{"SR4":{"kind":"Ortsdossier","preview":"Long Pig Farms ist ein berüchtigter und gefährlicher Schauplatz im Northside.","full":"Long Pig Farms ist ein berüchtigter und gefährlicher Schauplatz im Northside. Das Dossier fasst den belegten Quellenstand redaktionell zusammen; eine nicht belegte Kartenposition wird nicht ergänzt.","hasMore":true,"hasExcerpt":true,"sources":[{"bookId":"sr4-feral-cities","title":"Feral Cities","edition":"SR4","citation":"Kapitel Chicago – Long Pig Farms","purpose":"description"}]}}}},{"type":"Feature","geometry":null,"properties":{"id":57,"global_id":"chicago:source-place:midway-airport","name":"Midway Airport","aliases":[],"category":"Verkehr und Infrastruktur","detail_map":"Chicago","source_pages":"Textzeile 12857","map_source":"Dawn of the Artifacts 5 - Artifacts Unbound","placement_note":"Keine belastbare Einzelposition; Eintrag bleibt im Katalog","accuracy":"Nur Stadt oder Lore-Teilraum belegt","source_map":"source-supplement","source_panel":"Chicago","description_preview":"Midway Airport ist in Dawn of the Artifacts 5 - Artifacts Unbound als benannter Schauplatz mit Bezug zu Chicago belegt.","description_full":"Midway Airport ist in Dawn of the Artifacts 5 - Artifacts Unbound als benannter Schauplatz mit Bezug zu Chicago belegt. Das Dossier fasst den belegten Quellenstand redaktionell zusammen; eine nicht belegte Kartenposition wird nicht ergänzt.","description_source":"Textzeile 12857","description_kind":"Ortsdossier","description_has_more":true,"detail_plans":[],"alternate_locations":[],"sources":[{"bookId":"sr4-dawn-of-the-artifacts-5-artifacts-unbound","title":"Dawn of the Artifacts 5 - Artifacts Unbound","edition":"SR4","citation":"Textzeile 12857","purpose":"description"}],"map_sources":[],"editions":["SR4"],"edition_descriptions":{"SR4":{"kind":"Ortsdossier","preview":"Midway Airport ist in Dawn of the Artifacts 5 - Artifacts Unbound als benannter Schauplatz mit Bezug zu Chicago belegt.","full":"Midway Airport ist in Dawn of the Artifacts 5 - Artifacts Unbound als benannter Schauplatz mit Bezug zu Chicago belegt. Das Dossier fasst den belegten Quellenstand redaktionell zusammen; eine nicht belegte Kartenposition wird nicht ergänzt.","hasMore":true,"hasExcerpt":true,"sources":[{"bookId":"sr4-dawn-of-the-artifacts-5-artifacts-unbound","title":"Dawn of the Artifacts 5 - Artifacts Unbound","edition":"SR4","citation":"Textzeile 12857","purpose":"description"}]}}}},{"type":"Feature","geometry":null,"properties":{"id":58,"global_id":"chicago:source-place:museum-of-science-and-industry","name":"Museum of Science and Industry","aliases":[],"category":"Kultur","detail_map":"The Zone","source_pages":"Kapitel Chicago – Museum of Science and Industry","map_source":"Feral Cities","placement_note":"Keine belastbare Einzelposition; Eintrag bleibt im Katalog","accuracy":"Nur Stadt oder Lore-Teilraum belegt","source_map":"source-supplement","source_panel":"The Zone","description_preview":"Das Museum of Science and Industry ist ein benannter Landmarken- und Abenteuerschauplatz in der Zone.","description_full":"Das Museum of Science and Industry ist ein benannter Landmarken- und Abenteuerschauplatz in der Zone. Das Dossier fasst den belegten Quellenstand redaktionell zusammen; eine nicht belegte Kartenposition wird nicht ergänzt.","description_source":"Kapitel Chicago – Museum of Science and Industry","description_kind":"Ortsdossier","description_has_more":true,"detail_plans":[],"alternate_locations":[],"sources":[{"bookId":"sr4-feral-cities","title":"Feral Cities","edition":"SR4","citation":"Kapitel Chicago – Museum of Science and Industry","purpose":"description"}],"map_sources":[],"editions":["SR4"],"edition_descriptions":{"SR4":{"kind":"Ortsdossier","preview":"Das Museum of Science and Industry ist ein benannter Landmarken- und Abenteuerschauplatz in der Zone.","full":"Das Museum of Science and Industry ist ein benannter Landmarken- und Abenteuerschauplatz in der Zone. Das Dossier fasst den belegten Quellenstand redaktionell zusammen; eine nicht belegte Kartenposition wird nicht ergänzt.","hasMore":true,"hasExcerpt":true,"sources":[{"bookId":"sr4-feral-cities","title":"Feral Cities","edition":"SR4","citation":"Kapitel Chicago – Museum of Science and Industry","purpose":"description"}]}}}},{"type":"Feature","geometry":null,"properties":{"id":59,"global_id":"chicago:source-place:old-s-mart-building","name":"Old S-Mart Building","aliases":[],"category":"Sonstige Spots","detail_map":"Chicago","source_pages":"Textzeile 1453","map_source":"SRM06-06 - Falling Angels","placement_note":"Keine belastbare Einzelposition; Eintrag bleibt im Katalog","accuracy":"Nur Stadt oder Lore-Teilraum belegt","source_map":"source-supplement","source_panel":"Chicago","description_preview":"Old S-Mart Building ist in SRM06-06 - Falling Angels als benannter Schauplatz mit Bezug zu Chicago belegt.","description_full":"Old S-Mart Building ist in SRM06-06 - Falling Angels als benannter Schauplatz mit Bezug zu Chicago belegt. Das Dossier fasst den belegten Quellenstand redaktionell zusammen; eine nicht belegte Kartenposition wird nicht ergänzt.","description_source":"Textzeile 1453","description_kind":"Ortsdossier","description_has_more":true,"detail_plans":[],"alternate_locations":[],"sources":[{"bookId":"sr5-srm06-06-falling-angels","title":"SRM06-06 - Falling Angels","edition":"SR5","citation":"Textzeile 1453","purpose":"description"}],"map_sources":[],"editions":["SR5"],"edition_descriptions":{"SR5":{"kind":"Ortsdossier","preview":"Old S-Mart Building ist in SRM06-06 - Falling Angels als benannter Schauplatz mit Bezug zu Chicago belegt.","full":"Old S-Mart Building ist in SRM06-06 - Falling Angels als benannter Schauplatz mit Bezug zu Chicago belegt. Das Dossier fasst den belegten Quellenstand redaktionell zusammen; eine nicht belegte Kartenposition wird nicht ergänzt.","hasMore":true,"hasExcerpt":true,"sources":[{"bookId":"sr5-srm06-06-falling-angels","title":"SRM06-06 - Falling Angels","edition":"SR5","citation":"Textzeile 1453","purpose":"description"}]}}}},{"type":"Feature","geometry":null,"properties":{"id":60,"global_id":"chicago:source-place:park-lone-star-station","name":"Park Lone Star Station","aliases":[],"category":"Verkehr und Infrastruktur","detail_map":"Chicago","source_pages":"Textzeile 795","map_source":"SRM07-03 - Special Investigation Unit","placement_note":"Keine belastbare Einzelposition; Eintrag bleibt im Katalog","accuracy":"Nur Stadt oder Lore-Teilraum belegt","source_map":"source-supplement","source_panel":"Chicago","description_preview":"Park Lone Star Station ist in SRM07-03 - Special Investigation Unit als benannter Schauplatz mit Bezug zu Chicago belegt.","description_full":"Park Lone Star Station ist in SRM07-03 - Special Investigation Unit als benannter Schauplatz mit Bezug zu Chicago belegt. Das Dossier fasst den belegten Quellenstand redaktionell zusammen; eine nicht belegte Kartenposition wird nicht ergänzt.","description_source":"Textzeile 795","description_kind":"Ortsdossier","description_has_more":true,"detail_plans":[],"alternate_locations":[],"sources":[{"bookId":"sr5-srm07-03-special-investigation-unit","title":"SRM07-03 - Special Investigation Unit","edition":"SR5","citation":"Textzeile 795","purpose":"description"}],"map_sources":[],"editions":["SR5"],"edition_descriptions":{"SR5":{"kind":"Ortsdossier","preview":"Park Lone Star Station ist in SRM07-03 - Special Investigation Unit als benannter Schauplatz mit Bezug zu Chicago belegt.","full":"Park Lone Star Station ist in SRM07-03 - Special Investigation Unit als benannter Schauplatz mit Bezug zu Chicago belegt. Das Dossier fasst den belegten Quellenstand redaktionell zusammen; eine nicht belegte Kartenposition wird nicht ergänzt.","hasMore":true,"hasExcerpt":true,"sources":[{"bookId":"sr5-srm07-03-special-investigation-unit","title":"SRM07-03 - Special Investigation Unit","edition":"SR5","citation":"Textzeile 795","purpose":"description"}]}}}},{"type":"Feature","geometry":null,"properties":{"id":61,"global_id":"chicago:source-place:park-woods-tavern","name":"Park Woods Tavern","aliases":[],"category":"Sonstige Spots","detail_map":"Chicago","source_pages":"Textzeile 532","map_source":"SRM06-04 - Tick Tock","placement_note":"Keine belastbare Einzelposition; Eintrag bleibt im Katalog","accuracy":"Nur Stadt oder Lore-Teilraum belegt","source_map":"source-supplement","source_panel":"Chicago","description_preview":"Park Woods Tavern ist in SRM06-04 - Tick Tock als benannter Schauplatz mit Bezug zu Chicago belegt.","description_full":"Park Woods Tavern ist in SRM06-04 - Tick Tock als benannter Schauplatz mit Bezug zu Chicago belegt. Das Dossier fasst den belegten Quellenstand redaktionell zusammen; eine nicht belegte Kartenposition wird nicht ergänzt.","description_source":"Textzeile 532","description_kind":"Ortsdossier","description_has_more":true,"detail_plans":[],"alternate_locations":[],"sources":[{"bookId":"sr5-srm06-04-tick-tock","title":"SRM06-04 - Tick Tock","edition":"SR5","citation":"Textzeile 532","purpose":"description"}],"map_sources":[],"editions":["SR5"],"edition_descriptions":{"SR5":{"kind":"Ortsdossier","preview":"Park Woods Tavern ist in SRM06-04 - Tick Tock als benannter Schauplatz mit Bezug zu Chicago belegt.","full":"Park Woods Tavern ist in SRM06-04 - Tick Tock als benannter Schauplatz mit Bezug zu Chicago belegt. Das Dossier fasst den belegten Quellenstand redaktionell zusammen; eine nicht belegte Kartenposition wird nicht ergänzt.","hasMore":true,"hasExcerpt":true,"sources":[{"bookId":"sr5-srm06-04-tick-tock","title":"SRM06-04 - Tick Tock","edition":"SR5","citation":"Textzeile 532","purpose":"description"}]}}}},{"type":"Feature","geometry":null,"properties":{"id":62,"global_id":"chicago:source-place:pog-mo-thoin","name":"Póg mo Thóin","aliases":[],"category":"Bars und Kneipen","detail_map":"Southside","source_pages":"Kapitel Chicago – Póg mo Thóin","map_source":"Feral Cities","placement_note":"Keine belastbare Einzelposition; Eintrag bleibt im Katalog","accuracy":"Nur Stadt oder Lore-Teilraum belegt","source_map":"source-supplement","source_panel":"Southside","description_preview":"Póg mo Thóin ist ein benannter Gastronomie- und Szenetreffpunkt im Southside.","description_full":"Póg mo Thóin ist ein benannter Gastronomie- und Szenetreffpunkt im Southside. Das Dossier fasst den belegten Quellenstand redaktionell zusammen; eine nicht belegte Kartenposition wird nicht ergänzt.","description_source":"Kapitel Chicago – Póg mo Thóin","description_kind":"Ortsdossier","description_has_more":true,"detail_plans":[],"alternate_locations":[],"sources":[{"bookId":"sr4-feral-cities","title":"Feral Cities","edition":"SR4","citation":"Kapitel Chicago – Póg mo Thóin","purpose":"description"}],"map_sources":[],"editions":["SR4"],"edition_descriptions":{"SR4":{"kind":"Ortsdossier","preview":"Póg mo Thóin ist ein benannter Gastronomie- und Szenetreffpunkt im Southside.","full":"Póg mo Thóin ist ein benannter Gastronomie- und Szenetreffpunkt im Southside. Das Dossier fasst den belegten Quellenstand redaktionell zusammen; eine nicht belegte Kartenposition wird nicht ergänzt.","hasMore":true,"hasExcerpt":true,"sources":[{"bookId":"sr4-feral-cities","title":"Feral Cities","edition":"SR4","citation":"Kapitel Chicago – Póg mo Thóin","purpose":"description"}]}}}},{"type":"Feature","geometry":null,"properties":{"id":63,"global_id":"chicago:source-place:quinn-chapel","name":"Quinn Chapel","aliases":[],"category":"Magie und Religion","detail_map":"The Zone","source_pages":"Kapitel Chicago – Quinn Chapel","map_source":"Feral Cities","placement_note":"Keine belastbare Einzelposition; Eintrag bleibt im Katalog","accuracy":"Nur Stadt oder Lore-Teilraum belegt","source_map":"source-supplement","source_panel":"The Zone","description_preview":"Quinn Chapel ist ein religiöser und gemeinschaftlicher Anlaufpunkt in der Zone.","description_full":"Quinn Chapel ist ein religiöser und gemeinschaftlicher Anlaufpunkt in der Zone. Das Dossier fasst den belegten Quellenstand redaktionell zusammen; eine nicht belegte Kartenposition wird nicht ergänzt.","description_source":"Kapitel Chicago – Quinn Chapel","description_kind":"Ortsdossier","description_has_more":true,"detail_plans":[],"alternate_locations":[],"sources":[{"bookId":"sr4-feral-cities","title":"Feral Cities","edition":"SR4","citation":"Kapitel Chicago – Quinn Chapel","purpose":"description"}],"map_sources":[],"editions":["SR4"],"edition_descriptions":{"SR4":{"kind":"Ortsdossier","preview":"Quinn Chapel ist ein religiöser und gemeinschaftlicher Anlaufpunkt in der Zone.","full":"Quinn Chapel ist ein religiöser und gemeinschaftlicher Anlaufpunkt in der Zone. Das Dossier fasst den belegten Quellenstand redaktionell zusammen; eine nicht belegte Kartenposition wird nicht ergänzt.","hasMore":true,"hasExcerpt":true,"sources":[{"bookId":"sr4-feral-cities","title":"Feral Cities","edition":"SR4","citation":"Kapitel Chicago – Quinn Chapel","purpose":"description"}]}}}},{"type":"Feature","geometry":null,"properties":{"id":64,"global_id":"chicago:source-place:shattergraves","name":"Shattergraves","aliases":[],"category":"Magie und Religion","detail_map":"The Zone","source_pages":"Kapitel Bug City – Shattergraves","map_source":"Bug City","placement_note":"Keine belastbare Einzelposition; Eintrag bleibt im Katalog","accuracy":"Nur Stadt oder Lore-Teilraum belegt","source_map":"source-supplement","source_panel":"The Zone","description_preview":"Die Shattergraves sind ein astral und physisch gefährlicher Schauplatz der Containment Zone.","description_full":"Die Shattergraves sind ein astral und physisch gefährlicher Schauplatz der Containment Zone. Das Dossier fasst den belegten Quellenstand redaktionell zusammen; eine nicht belegte Kartenposition wird nicht ergänzt.","description_source":"Kapitel Bug City – Shattergraves","description_kind":"Ortsdossier","description_has_more":true,"detail_plans":[],"alternate_locations":[],"sources":[{"bookId":"sr2-bug-city","title":"Bug City","edition":"SR2","citation":"Kapitel Bug City – Shattergraves","purpose":"description"}],"map_sources":[],"editions":["SR2"],"edition_descriptions":{"SR2":{"kind":"Ortsdossier","preview":"Die Shattergraves sind ein astral und physisch gefährlicher Schauplatz der Containment Zone.","full":"Die Shattergraves sind ein astral und physisch gefährlicher Schauplatz der Containment Zone. Das Dossier fasst den belegten Quellenstand redaktionell zusammen; eine nicht belegte Kartenposition wird nicht ergänzt.","hasMore":true,"hasExcerpt":true,"sources":[{"bookId":"sr2-bug-city","title":"Bug City","edition":"SR2","citation":"Kapitel Bug City – Shattergraves","purpose":"description"}]}}}},{"type":"Feature","geometry":null,"properties":{"id":65,"global_id":"chicago:source-place:star-station","name":"Star Station","aliases":[],"category":"Verkehr und Infrastruktur","detail_map":"Chicago","source_pages":"Textzeile 4287","map_source":"SRM07-03 - Special Investigation Unit","placement_note":"Keine belastbare Einzelposition; Eintrag bleibt im Katalog","accuracy":"Nur Stadt oder Lore-Teilraum belegt","source_map":"source-supplement","source_panel":"Chicago","description_preview":"Star Station ist in SRM07-03 - Special Investigation Unit als benannter Schauplatz mit Bezug zu Chicago belegt.","description_full":"Star Station ist in SRM07-03 - Special Investigation Unit als benannter Schauplatz mit Bezug zu Chicago belegt. Das Dossier fasst den belegten Quellenstand redaktionell zusammen; eine nicht belegte Kartenposition wird nicht ergänzt.","description_source":"Textzeile 4287","description_kind":"Ortsdossier","description_has_more":true,"detail_plans":[],"alternate_locations":[],"sources":[{"bookId":"sr5-srm07-03-special-investigation-unit","title":"SRM07-03 - Special Investigation Unit","edition":"SR5","citation":"Textzeile 4287","purpose":"description"}],"map_sources":[],"editions":["SR5"],"edition_descriptions":{"SR5":{"kind":"Ortsdossier","preview":"Star Station ist in SRM07-03 - Special Investigation Unit als benannter Schauplatz mit Bezug zu Chicago belegt.","full":"Star Station ist in SRM07-03 - Special Investigation Unit als benannter Schauplatz mit Bezug zu Chicago belegt. Das Dossier fasst den belegten Quellenstand redaktionell zusammen; eine nicht belegte Kartenposition wird nicht ergänzt.","hasMore":true,"hasExcerpt":true,"sources":[{"bookId":"sr5-srm07-03-special-investigation-unit","title":"SRM07-03 - Special Investigation Unit","edition":"SR5","citation":"Textzeile 4287","purpose":"description"}]}}}},{"type":"Feature","geometry":null,"properties":{"id":66,"global_id":"chicago:source-place:the-coffee-shop","name":"The Coffee Shop","aliases":[],"category":"Sonstige Spots","detail_map":"Chicago","source_pages":"Textzeile 671","map_source":"SRM07-03 - Special Investigation Unit","placement_note":"Keine belastbare Einzelposition; Eintrag bleibt im Katalog","accuracy":"Nur Stadt oder Lore-Teilraum belegt","source_map":"source-supplement","source_panel":"Chicago","description_preview":"The Coffee Shop ist in SRM07-03 - Special Investigation Unit als benannter Schauplatz mit Bezug zu Chicago belegt.","description_full":"The Coffee Shop ist in SRM07-03 - Special Investigation Unit als benannter Schauplatz mit Bezug zu Chicago belegt. Das Dossier fasst den belegten Quellenstand redaktionell zusammen; eine nicht belegte Kartenposition wird nicht ergänzt.","description_source":"Textzeile 671","description_kind":"Ortsdossier","description_has_more":true,"detail_plans":[],"alternate_locations":[],"sources":[{"bookId":"sr5-srm07-03-special-investigation-unit","title":"SRM07-03 - Special Investigation Unit","edition":"SR5","citation":"Textzeile 671","purpose":"description"}],"map_sources":[],"editions":["SR5"],"edition_descriptions":{"SR5":{"kind":"Ortsdossier","preview":"The Coffee Shop ist in SRM07-03 - Special Investigation Unit als benannter Schauplatz mit Bezug zu Chicago belegt.","full":"The Coffee Shop ist in SRM07-03 - Special Investigation Unit als benannter Schauplatz mit Bezug zu Chicago belegt. Das Dossier fasst den belegten Quellenstand redaktionell zusammen; eine nicht belegte Kartenposition wird nicht ergänzt.","hasMore":true,"hasExcerpt":true,"sources":[{"bookId":"sr5-srm07-03-special-investigation-unit","title":"SRM07-03 - Special Investigation Unit","edition":"SR5","citation":"Textzeile 671","purpose":"description"}]}}}},{"type":"Feature","geometry":null,"properties":{"id":67,"global_id":"chicago:source-place:the-dancer-on-archer","name":"The Dancer on Archer","aliases":[],"category":"Bars und Kneipen","detail_map":"Southside","source_pages":"Kapitel Chicago – The Dancer on Archer","map_source":"Feral Cities","placement_note":"Keine belastbare Einzelposition; Eintrag bleibt im Katalog","accuracy":"Nur Stadt oder Lore-Teilraum belegt","source_map":"source-supplement","source_panel":"Southside","description_preview":"The Dancer on Archer ist ein benannter Nachtleben- und Treffpunkt im Southside.","description_full":"The Dancer on Archer ist ein benannter Nachtleben- und Treffpunkt im Southside. Das Dossier fasst den belegten Quellenstand redaktionell zusammen; eine nicht belegte Kartenposition wird nicht ergänzt.","description_source":"Kapitel Chicago – The Dancer on Archer","description_kind":"Ortsdossier","description_has_more":true,"detail_plans":[],"alternate_locations":[],"sources":[{"bookId":"sr4-feral-cities","title":"Feral Cities","edition":"SR4","citation":"Kapitel Chicago – The Dancer on Archer","purpose":"description"}],"map_sources":[],"editions":["SR4"],"edition_descriptions":{"SR4":{"kind":"Ortsdossier","preview":"The Dancer on Archer ist ein benannter Nachtleben- und Treffpunkt im Southside.","full":"The Dancer on Archer ist ein benannter Nachtleben- und Treffpunkt im Southside. Das Dossier fasst den belegten Quellenstand redaktionell zusammen; eine nicht belegte Kartenposition wird nicht ergänzt.","hasMore":true,"hasExcerpt":true,"sources":[{"bookId":"sr4-feral-cities","title":"Feral Cities","edition":"SR4","citation":"Kapitel Chicago – The Dancer on Archer","purpose":"description"}]}}}},{"type":"Feature","geometry":null,"properties":{"id":68,"global_id":"chicago:source-place:the-ghoultown-memorial","name":"The Ghoultown Memorial","aliases":["Tamir Grey Memorial"],"category":"Monumente","detail_map":"The Zone","source_pages":"Kapitel Chicago – Ghoultown Memorial","map_source":"Feral Cities","placement_note":"Keine belastbare Einzelposition; Eintrag bleibt im Katalog","accuracy":"Nur Stadt oder Lore-Teilraum belegt","source_map":"source-supplement","source_panel":"The Zone","description_preview":"Das Ghoultown Memorial erinnert an die zerstörte Ghoulgemeinschaft und Tamir Greys Einsatz für Ghoulrechte.","description_full":"Das Ghoultown Memorial erinnert an die zerstörte Ghoulgemeinschaft und Tamir Greys Einsatz für Ghoulrechte. Das Dossier fasst den belegten Quellenstand redaktionell zusammen; eine nicht belegte Kartenposition wird nicht ergänzt.","description_source":"Kapitel Chicago – Ghoultown Memorial","description_kind":"Ortsdossier","description_has_more":true,"detail_plans":[],"alternate_locations":[],"sources":[{"bookId":"sr4-feral-cities","title":"Feral Cities","edition":"SR4","citation":"Kapitel Chicago – Ghoultown Memorial","purpose":"description"}],"map_sources":[],"editions":["SR4"],"edition_descriptions":{"SR4":{"kind":"Ortsdossier","preview":"Das Ghoultown Memorial erinnert an die zerstörte Ghoulgemeinschaft und Tamir Greys Einsatz für Ghoulrechte.","full":"Das Ghoultown Memorial erinnert an die zerstörte Ghoulgemeinschaft und Tamir Greys Einsatz für Ghoulrechte. Das Dossier fasst den belegten Quellenstand redaktionell zusammen; eine nicht belegte Kartenposition wird nicht ergänzt.","hasMore":true,"hasExcerpt":true,"sources":[{"bookId":"sr4-feral-cities","title":"Feral Cities","edition":"SR4","citation":"Kapitel Chicago – Ghoultown Memorial","purpose":"description"}]}}}},{"type":"Feature","geometry":null,"properties":{"id":69,"global_id":"chicago:source-place:the-hangman","name":"The Hangman","aliases":[],"category":"Bars und Kneipen","detail_map":"The Zone","source_pages":"Kapitel Chicago – The Hangman","map_source":"Feral Cities","placement_note":"Keine belastbare Einzelposition; Eintrag bleibt im Katalog","accuracy":"Nur Stadt oder Lore-Teilraum belegt","source_map":"source-supplement","source_panel":"The Zone","description_preview":"The Hangman ist eine schlichte, in das lokale NooseNet eingebundene Bar der Zone.","description_full":"The Hangman ist eine schlichte, in das lokale NooseNet eingebundene Bar der Zone. Das Dossier fasst den belegten Quellenstand redaktionell zusammen; eine nicht belegte Kartenposition wird nicht ergänzt.","description_source":"Kapitel Chicago – The Hangman","description_kind":"Ortsdossier","description_has_more":true,"detail_plans":[],"alternate_locations":[],"sources":[{"bookId":"sr4-feral-cities","title":"Feral Cities","edition":"SR4","citation":"Kapitel Chicago – The Hangman","purpose":"description"}],"map_sources":[],"editions":["SR4"],"edition_descriptions":{"SR4":{"kind":"Ortsdossier","preview":"The Hangman ist eine schlichte, in das lokale NooseNet eingebundene Bar der Zone.","full":"The Hangman ist eine schlichte, in das lokale NooseNet eingebundene Bar der Zone. Das Dossier fasst den belegten Quellenstand redaktionell zusammen; eine nicht belegte Kartenposition wird nicht ergänzt.","hasMore":true,"hasExcerpt":true,"sources":[{"bookId":"sr4-feral-cities","title":"Feral Cities","edition":"SR4","citation":"Kapitel Chicago – The Hangman","purpose":"description"}]}}}},{"type":"Feature","geometry":null,"properties":{"id":70,"global_id":"chicago:source-place:the-headshop-on-east-79th-street","name":"The Headshop on East 79th Street","aliases":[],"category":"Einkaufen","detail_map":"Southside","source_pages":"Kapitel Chicago – Headshop on East 79th Street","map_source":"Feral Cities","placement_note":"Keine belastbare Einzelposition; Eintrag bleibt im Katalog","accuracy":"Nur Stadt oder Lore-Teilraum belegt","source_map":"source-supplement","source_panel":"Southside","description_preview":"Der Headshop an der East 79th Street ist ein benannter Handelsplatz im Southside.","description_full":"Der Headshop an der East 79th Street ist ein benannter Handelsplatz im Southside. Das Dossier fasst den belegten Quellenstand redaktionell zusammen; eine nicht belegte Kartenposition wird nicht ergänzt.","description_source":"Kapitel Chicago – Headshop on East 79th Street","description_kind":"Ortsdossier","description_has_more":true,"detail_plans":[],"alternate_locations":[],"sources":[{"bookId":"sr4-feral-cities","title":"Feral Cities","edition":"SR4","citation":"Kapitel Chicago – Headshop on East 79th Street","purpose":"description"}],"map_sources":[],"editions":["SR4"],"edition_descriptions":{"SR4":{"kind":"Ortsdossier","preview":"Der Headshop an der East 79th Street ist ein benannter Handelsplatz im Southside.","full":"Der Headshop an der East 79th Street ist ein benannter Handelsplatz im Southside. Das Dossier fasst den belegten Quellenstand redaktionell zusammen; eine nicht belegte Kartenposition wird nicht ergänzt.","hasMore":true,"hasExcerpt":true,"sources":[{"bookId":"sr4-feral-cities","title":"Feral Cities","edition":"SR4","citation":"Kapitel Chicago – Headshop on East 79th Street","purpose":"description"}]}}}},{"type":"Feature","geometry":null,"properties":{"id":71,"global_id":"chicago:source-place:the-landing-strip","name":"The Landing Strip","aliases":[],"category":"Bars und Kneipen","detail_map":"Northside","source_pages":"Kapitel Chicago – The Landing Strip","map_source":"Feral Cities","placement_note":"Keine belastbare Einzelposition; Eintrag bleibt im Katalog","accuracy":"Nur Stadt oder Lore-Teilraum belegt","source_map":"source-supplement","source_panel":"Northside","description_preview":"The Landing Strip ist ein etablierter Treffpunkt im Northside.","description_full":"The Landing Strip ist ein etablierter Treffpunkt im Northside. Das Dossier fasst den belegten Quellenstand redaktionell zusammen; eine nicht belegte Kartenposition wird nicht ergänzt.","description_source":"Kapitel Chicago – The Landing Strip","description_kind":"Ortsdossier","description_has_more":true,"detail_plans":[],"alternate_locations":[],"sources":[{"bookId":"sr4-feral-cities","title":"Feral Cities","edition":"SR4","citation":"Kapitel Chicago – The Landing Strip","purpose":"description"}],"map_sources":[],"editions":["SR4"],"edition_descriptions":{"SR4":{"kind":"Ortsdossier","preview":"The Landing Strip ist ein etablierter Treffpunkt im Northside.","full":"The Landing Strip ist ein etablierter Treffpunkt im Northside. Das Dossier fasst den belegten Quellenstand redaktionell zusammen; eine nicht belegte Kartenposition wird nicht ergänzt.","hasMore":true,"hasExcerpt":true,"sources":[{"bookId":"sr4-feral-cities","title":"Feral Cities","edition":"SR4","citation":"Kapitel Chicago – The Landing Strip","purpose":"description"}]}}}},{"type":"Feature","geometry":null,"properties":{"id":72,"global_id":"chicago:source-place:the-makers-bazaar","name":"The Makers Bazaar","aliases":[],"category":"Sonstige Spots","detail_map":"Chicago","source_pages":"Textzeile 5419","map_source":"Feral Cities","placement_note":"Keine belastbare Einzelposition; Eintrag bleibt im Katalog","accuracy":"Nur Stadt oder Lore-Teilraum belegt","source_map":"source-supplement","source_panel":"Chicago","description_preview":"The Makers Bazaar ist in Feral Cities als benannter Schauplatz mit Bezug zu Chicago belegt.","description_full":"The Makers Bazaar ist in Feral Cities als benannter Schauplatz mit Bezug zu Chicago belegt. Das Dossier fasst den belegten Quellenstand redaktionell zusammen; eine nicht belegte Kartenposition wird nicht ergänzt.","description_source":"Textzeile 5419","description_kind":"Ortsdossier","description_has_more":true,"detail_plans":[],"alternate_locations":[],"sources":[{"bookId":"sr4-feral-cities","title":"Feral Cities","edition":"SR4","citation":"Textzeile 5419","purpose":"description"}],"map_sources":[],"editions":["SR4"],"edition_descriptions":{"SR4":{"kind":"Ortsdossier","preview":"The Makers Bazaar ist in Feral Cities als benannter Schauplatz mit Bezug zu Chicago belegt.","full":"The Makers Bazaar ist in Feral Cities als benannter Schauplatz mit Bezug zu Chicago belegt. Das Dossier fasst den belegten Quellenstand redaktionell zusammen; eine nicht belegte Kartenposition wird nicht ergänzt.","hasMore":true,"hasExcerpt":true,"sources":[{"bookId":"sr4-feral-cities","title":"Feral Cities","edition":"SR4","citation":"Textzeile 5419","purpose":"description"}]}}}},{"type":"Feature","geometry":null,"properties":{"id":73,"global_id":"chicago:source-place:the-sanctum","name":"The Sanctum","aliases":[],"category":"Siedlungen","detail_map":"The Zone","source_pages":"Kapitel Bug City – The Sanctum","map_source":"Bug City","placement_note":"Keine belastbare Einzelposition; Eintrag bleibt im Katalog","accuracy":"Nur Stadt oder Lore-Teilraum belegt","source_map":"source-supplement","source_panel":"The Zone","description_preview":"The Sanctum ist eine befestigte Zuflucht innerhalb der Containment Zone.","description_full":"The Sanctum ist eine befestigte Zuflucht innerhalb der Containment Zone. Das Dossier fasst den belegten Quellenstand redaktionell zusammen; eine nicht belegte Kartenposition wird nicht ergänzt.","description_source":"Kapitel Bug City – The Sanctum","description_kind":"Ortsdossier","description_has_more":true,"detail_plans":[],"alternate_locations":[],"sources":[{"bookId":"sr2-bug-city","title":"Bug City","edition":"SR2","citation":"Kapitel Bug City – The Sanctum","purpose":"description"}],"map_sources":[],"editions":["SR2"],"edition_descriptions":{"SR2":{"kind":"Ortsdossier","preview":"The Sanctum ist eine befestigte Zuflucht innerhalb der Containment Zone.","full":"The Sanctum ist eine befestigte Zuflucht innerhalb der Containment Zone. Das Dossier fasst den belegten Quellenstand redaktionell zusammen; eine nicht belegte Kartenposition wird nicht ergänzt.","hasMore":true,"hasExcerpt":true,"sources":[{"bookId":"sr2-bug-city","title":"Bug City","edition":"SR2","citation":"Kapitel Bug City – The Sanctum","purpose":"description"}]}}}},{"type":"Feature","geometry":null,"properties":{"id":74,"global_id":"chicago:source-place:the-shadow-market","name":"The Shadow Market","aliases":[],"category":"Einkaufen","detail_map":"The Zone","source_pages":"Spielleiterinformationen – The Shadow Market","map_source":"Bug City","placement_note":"Keine belastbare Einzelposition; Eintrag bleibt im Katalog","accuracy":"Nur Stadt oder Lore-Teilraum belegt","source_map":"source-supplement","source_panel":"The Zone","description_preview":"Der Shadow Market ist ein zentraler Schwarzmarkt für knappe Güter der eingeschlossenen Zone.","description_full":"Der Shadow Market ist ein zentraler Schwarzmarkt für knappe Güter der eingeschlossenen Zone. Das Dossier fasst den belegten Quellenstand redaktionell zusammen; eine nicht belegte Kartenposition wird nicht ergänzt.","description_source":"Spielleiterinformationen – The Shadow Market","description_kind":"Ortsdossier","description_has_more":true,"detail_plans":[],"alternate_locations":[],"sources":[{"bookId":"sr2-bug-city","title":"Bug City","edition":"SR2","citation":"Spielleiterinformationen – The Shadow Market","purpose":"description"}],"map_sources":[],"editions":["SR2"],"edition_descriptions":{"SR2":{"kind":"Ortsdossier","preview":"Der Shadow Market ist ein zentraler Schwarzmarkt für knappe Güter der eingeschlossenen Zone.","full":"Der Shadow Market ist ein zentraler Schwarzmarkt für knappe Güter der eingeschlossenen Zone. Das Dossier fasst den belegten Quellenstand redaktionell zusammen; eine nicht belegte Kartenposition wird nicht ergänzt.","hasMore":true,"hasExcerpt":true,"sources":[{"bookId":"sr2-bug-city","title":"Bug City","edition":"SR2","citation":"Spielleiterinformationen – The Shadow Market","purpose":"description"}]}}}},{"type":"Feature","geometry":null,"properties":{"id":75,"global_id":"chicago:source-place:the-spire","name":"The Spire","aliases":[],"category":"Sondergebiete","detail_map":"The Zone","source_pages":"Kapitel Chicago – The Spire","map_source":"Feral Cities","placement_note":"Keine belastbare Einzelposition; Eintrag bleibt im Katalog","accuracy":"Nur Stadt oder Lore-Teilraum belegt","source_map":"source-supplement","source_panel":"The Zone","description_preview":"The Spire ist ein weithin sichtbarer und gefährlicher Schauplatz in der Zone.","description_full":"The Spire ist ein weithin sichtbarer und gefährlicher Schauplatz in der Zone. Das Dossier fasst den belegten Quellenstand redaktionell zusammen; eine nicht belegte Kartenposition wird nicht ergänzt.","description_source":"Kapitel Chicago – The Spire","description_kind":"Ortsdossier","description_has_more":true,"detail_plans":[],"alternate_locations":[],"sources":[{"bookId":"sr4-feral-cities","title":"Feral Cities","edition":"SR4","citation":"Kapitel Chicago – The Spire","purpose":"description"}],"map_sources":[],"editions":["SR4"],"edition_descriptions":{"SR4":{"kind":"Ortsdossier","preview":"The Spire ist ein weithin sichtbarer und gefährlicher Schauplatz in der Zone.","full":"The Spire ist ein weithin sichtbarer und gefährlicher Schauplatz in der Zone. Das Dossier fasst den belegten Quellenstand redaktionell zusammen; eine nicht belegte Kartenposition wird nicht ergänzt.","hasMore":true,"hasExcerpt":true,"sources":[{"bookId":"sr4-feral-cities","title":"Feral Cities","edition":"SR4","citation":"Kapitel Chicago – The Spire","purpose":"description"}]}}}},{"type":"Feature","geometry":null,"properties":{"id":76,"global_id":"chicago:source-place:the-terminal","name":"The Terminal","aliases":[],"category":"Verkehr","detail_map":"Gary","source_pages":"Kapitel Chicago – The Terminal","map_source":"Feral Cities","placement_note":"Keine belastbare Einzelposition; Eintrag bleibt im Katalog","accuracy":"Nur Stadt oder Lore-Teilraum belegt","source_map":"source-supplement","source_panel":"Gary","description_preview":"The Terminal ist ein Verkehrsknoten und Anlaufpunkt im Raum Gary.","description_full":"The Terminal ist ein Verkehrsknoten und Anlaufpunkt im Raum Gary. Das Dossier fasst den belegten Quellenstand redaktionell zusammen; eine nicht belegte Kartenposition wird nicht ergänzt.","description_source":"Kapitel Chicago – The Terminal","description_kind":"Ortsdossier","description_has_more":true,"detail_plans":[],"alternate_locations":[],"sources":[{"bookId":"sr4-feral-cities","title":"Feral Cities","edition":"SR4","citation":"Kapitel Chicago – The Terminal","purpose":"description"}],"map_sources":[],"editions":["SR4"],"edition_descriptions":{"SR4":{"kind":"Ortsdossier","preview":"The Terminal ist ein Verkehrsknoten und Anlaufpunkt im Raum Gary.","full":"The Terminal ist ein Verkehrsknoten und Anlaufpunkt im Raum Gary. Das Dossier fasst den belegten Quellenstand redaktionell zusammen; eine nicht belegte Kartenposition wird nicht ergänzt.","hasMore":true,"hasExcerpt":true,"sources":[{"bookId":"sr4-feral-cities","title":"Feral Cities","edition":"SR4","citation":"Kapitel Chicago – The Terminal","purpose":"description"}]}}}},{"type":"Feature","geometry":null,"properties":{"id":77,"global_id":"chicago:source-place:union-station","name":"Union Station","aliases":[],"category":"Verkehr","detail_map":"Southside","source_pages":"Kapitel Chicago – Union Station","map_source":"Feral Cities","placement_note":"Keine belastbare Einzelposition; Eintrag bleibt im Katalog","accuracy":"Nur Stadt oder Lore-Teilraum belegt","source_map":"source-supplement","source_panel":"Southside","description_preview":"Union Station ist ein benannter Verkehrs- und Abenteuerschauplatz im Southside.","description_full":"Union Station ist ein benannter Verkehrs- und Abenteuerschauplatz im Southside. Das Dossier fasst den belegten Quellenstand redaktionell zusammen; eine nicht belegte Kartenposition wird nicht ergänzt.","description_source":"Kapitel Chicago – Union Station","description_kind":"Ortsdossier","description_has_more":true,"detail_plans":[],"alternate_locations":[],"sources":[{"bookId":"sr4-feral-cities","title":"Feral Cities","edition":"SR4","citation":"Kapitel Chicago – Union Station","purpose":"description"}],"map_sources":[],"editions":["SR4"],"edition_descriptions":{"SR4":{"kind":"Ortsdossier","preview":"Union Station ist ein benannter Verkehrs- und Abenteuerschauplatz im Southside.","full":"Union Station ist ein benannter Verkehrs- und Abenteuerschauplatz im Southside. Das Dossier fasst den belegten Quellenstand redaktionell zusammen; eine nicht belegte Kartenposition wird nicht ergänzt.","hasMore":true,"hasExcerpt":true,"sources":[{"bookId":"sr4-feral-cities","title":"Feral Cities","edition":"SR4","citation":"Kapitel Chicago – Union Station","purpose":"description"}]}}}},{"type":"Feature","geometry":null,"properties":{"id":78,"global_id":"chicago:source-place:united-center-malcolm-x-college","name":"United Center/Malcolm X College","aliases":[],"category":"Sonstige Spots","detail_map":"Chicago","source_pages":"Textzeile 7757","map_source":"Shadowrun 2050","placement_note":"Keine belastbare Einzelposition; Eintrag bleibt im Katalog","accuracy":"Nur Stadt oder Lore-Teilraum belegt","source_map":"source-supplement","source_panel":"Chicago","description_preview":"United Center/Malcolm X College ist in Shadowrun 2050 als benannter Schauplatz mit Bezug zu Chicago belegt.","description_full":"United Center/Malcolm X College ist in Shadowrun 2050 als benannter Schauplatz mit Bezug zu Chicago belegt. Das Dossier fasst den belegten Quellenstand redaktionell zusammen; eine nicht belegte Kartenposition wird nicht ergänzt.","description_source":"Textzeile 7757","description_kind":"Ortsdossier","description_has_more":true,"detail_plans":[],"alternate_locations":[],"sources":[{"bookId":"sr4-shadowrun-2050","title":"Shadowrun 2050","edition":"SR4","citation":"Textzeile 7757","purpose":"description"}],"map_sources":[],"editions":["SR4"],"edition_descriptions":{"SR4":{"kind":"Ortsdossier","preview":"United Center/Malcolm X College ist in Shadowrun 2050 als benannter Schauplatz mit Bezug zu Chicago belegt.","full":"United Center/Malcolm X College ist in Shadowrun 2050 als benannter Schauplatz mit Bezug zu Chicago belegt. Das Dossier fasst den belegten Quellenstand redaktionell zusammen; eine nicht belegte Kartenposition wird nicht ergänzt.","hasMore":true,"hasExcerpt":true,"sources":[{"bookId":"sr4-shadowrun-2050","title":"Shadowrun 2050","edition":"SR4","citation":"Textzeile 7757","purpose":"description"}]}}}},{"type":"Feature","geometry":null,"properties":{"id":79,"global_id":"chicago:source-place:university-of-chicago-little-earth","name":"University of Chicago/Little Earth","aliases":[],"category":"Sonstige Spots","detail_map":"Chicago","source_pages":"Textzeile 10565","map_source":"The Neo-Anarchist's Guide to North America","placement_note":"Keine belastbare Einzelposition; Eintrag bleibt im Katalog","accuracy":"Nur Stadt oder Lore-Teilraum belegt","source_map":"source-supplement","source_panel":"Chicago","description_preview":"University of Chicago/Little Earth ist in The Neo-Anarchist's Guide to North America als benannter Schauplatz mit Bezug zu Chicago belegt.","description_full":"University of Chicago/Little Earth ist in The Neo-Anarchist's Guide to North America als benannter Schauplatz mit Bezug zu Chicago belegt. Das Dossier fasst den belegten Quellenstand redaktionell zusammen; eine nicht belegte Kartenposition wird nicht ergänzt.","description_source":"Textzeile 10565","description_kind":"Ortsdossier","description_has_more":true,"detail_plans":[],"alternate_locations":[],"sources":[{"bookId":"sr1-the-neo-anarchist-s-guide-to-north-america","title":"The Neo-Anarchist's Guide to North America","edition":"SR1","citation":"Textzeile 10565","purpose":"description"}],"map_sources":[],"editions":["SR1"],"edition_descriptions":{"SR1":{"kind":"Ortsdossier","preview":"University of Chicago/Little Earth ist in The Neo-Anarchist's Guide to North America als benannter Schauplatz mit Bezug zu Chicago belegt.","full":"University of Chicago/Little Earth ist in The Neo-Anarchist's Guide to North America als benannter Schauplatz mit Bezug zu Chicago belegt. Das Dossier fasst den belegten Quellenstand redaktionell zusammen; eine nicht belegte Kartenposition wird nicht ergänzt.","hasMore":true,"hasExcerpt":true,"sources":[{"bookId":"sr1-the-neo-anarchist-s-guide-to-north-america","title":"The Neo-Anarchist's Guide to North America","edition":"SR1","citation":"Textzeile 10565","purpose":"description"}]}}}},{"type":"Feature","geometry":null,"properties":{"id":80,"global_id":"chicago:source-place:volksville","name":"Volksville","aliases":[],"category":"Siedlungen","detail_map":"The Zone","source_pages":"Kapitel Bug City – Volksville","map_source":"Bug City","placement_note":"Keine belastbare Einzelposition; Eintrag bleibt im Katalog","accuracy":"Nur Stadt oder Lore-Teilraum belegt","source_map":"source-supplement","source_panel":"The Zone","description_preview":"Volksville ist eine benannte Gemeinschaft innerhalb der Containment Zone.","description_full":"Volksville ist eine benannte Gemeinschaft innerhalb der Containment Zone. Das Dossier fasst den belegten Quellenstand redaktionell zusammen; eine nicht belegte Kartenposition wird nicht ergänzt.","description_source":"Kapitel Bug City – Volksville","description_kind":"Ortsdossier","description_has_more":true,"detail_plans":[],"alternate_locations":[],"sources":[{"bookId":"sr2-bug-city","title":"Bug City","edition":"SR2","citation":"Kapitel Bug City – Volksville","purpose":"description"}],"map_sources":[],"editions":["SR2"],"edition_descriptions":{"SR2":{"kind":"Ortsdossier","preview":"Volksville ist eine benannte Gemeinschaft innerhalb der Containment Zone.","full":"Volksville ist eine benannte Gemeinschaft innerhalb der Containment Zone. Das Dossier fasst den belegten Quellenstand redaktionell zusammen; eine nicht belegte Kartenposition wird nicht ergänzt.","hasMore":true,"hasExcerpt":true,"sources":[{"bookId":"sr2-bug-city","title":"Bug City","edition":"SR2","citation":"Kapitel Bug City – Volksville","purpose":"description"}]}}}},{"type":"Feature","geometry":null,"properties":{"id":81,"global_id":"chicago:source-place:wind-transit-terminal","name":"Wind Transit Terminal","aliases":[],"category":"Verkehr","detail_map":"The Core","source_pages":"Kapitel Bug City – Wind Transit Terminal","map_source":"Bug City","placement_note":"Keine belastbare Einzelposition; Eintrag bleibt im Katalog","accuracy":"Nur Stadt oder Lore-Teilraum belegt","source_map":"source-supplement","source_panel":"The Core","description_preview":"Das Wind Transit Terminal ist ein zentraler Verkehrsschauplatz des Bug-City-Kerns.","description_full":"Das Wind Transit Terminal ist ein zentraler Verkehrsschauplatz des Bug-City-Kerns. Das Dossier fasst den belegten Quellenstand redaktionell zusammen; eine nicht belegte Kartenposition wird nicht ergänzt.","description_source":"Kapitel Bug City – Wind Transit Terminal","description_kind":"Ortsdossier","description_has_more":true,"detail_plans":[],"alternate_locations":[],"sources":[{"bookId":"sr2-bug-city","title":"Bug City","edition":"SR2","citation":"Kapitel Bug City – Wind Transit Terminal","purpose":"description"}],"map_sources":[],"editions":["SR2"],"edition_descriptions":{"SR2":{"kind":"Ortsdossier","preview":"Das Wind Transit Terminal ist ein zentraler Verkehrsschauplatz des Bug-City-Kerns.","full":"Das Wind Transit Terminal ist ein zentraler Verkehrsschauplatz des Bug-City-Kerns. Das Dossier fasst den belegten Quellenstand redaktionell zusammen; eine nicht belegte Kartenposition wird nicht ergänzt.","hasMore":true,"hasExcerpt":true,"sources":[{"bookId":"sr2-bug-city","title":"Bug City","edition":"SR2","citation":"Kapitel Bug City – Wind Transit Terminal","purpose":"description"}]}}}},{"type":"Feature","geometry":null,"properties":{"id":82,"global_id":"chicago:source-place:wrigley-dome","name":"Wrigley Dome","aliases":[],"category":"Siedlungen","detail_map":"The Zone","source_pages":"Kapitel Bug City – Wrigley Dome","map_source":"Bug City","placement_note":"Keine belastbare Einzelposition; Eintrag bleibt im Katalog","accuracy":"Nur Stadt oder Lore-Teilraum belegt","source_map":"source-supplement","source_panel":"The Zone","description_preview":"Wrigley Dome ist eine befestigte Zuflucht und wiederkehrender Großschauplatz der Containment Zone.","description_full":"Wrigley Dome ist eine befestigte Zuflucht und wiederkehrender Großschauplatz der Containment Zone. Das Dossier fasst den belegten Quellenstand redaktionell zusammen; eine nicht belegte Kartenposition wird nicht ergänzt.","description_source":"Kapitel Bug City – Wrigley Dome","description_kind":"Ortsdossier","description_has_more":true,"detail_plans":[],"alternate_locations":[],"sources":[{"bookId":"sr2-bug-city","title":"Bug City","edition":"SR2","citation":"Kapitel Bug City – Wrigley Dome","purpose":"description"}],"map_sources":[],"editions":["SR2"],"edition_descriptions":{"SR2":{"kind":"Ortsdossier","preview":"Wrigley Dome ist eine befestigte Zuflucht und wiederkehrender Großschauplatz der Containment Zone.","full":"Wrigley Dome ist eine befestigte Zuflucht und wiederkehrender Großschauplatz der Containment Zone. Das Dossier fasst den belegten Quellenstand redaktionell zusammen; eine nicht belegte Kartenposition wird nicht ergänzt.","hasMore":true,"hasExcerpt":true,"sources":[{"bookId":"sr2-bug-city","title":"Bug City","edition":"SR2","citation":"Kapitel Bug City – Wrigley Dome","purpose":"description"}]}}}}]}
