{"type":"FeatureCollection","name":"Chicago Gebietsstatus","topology":{"model":"exclusive-partition","priority":["barrens","normal"],"unresolved_overlap_area_degrees_squared":0,"basis":"Mission Chicago, Bug City und heutige Community-Area-Uferkante"},"features":[{"type":"Feature","geometry":{"type":"Polygon","coordinates":[[[-87.70055819327283,41.6844],[-87.73948070724958,41.6844],[-87.739739,41.69086],[-87.720317,41.691285],[-87.721125,41.71317],[-87.712578,41.713297],[-87.712525,41.711474],[-87.711298,41.711491],[-87.711124,41.706074],[-87.701325,41.706178],[-87.701375,41.707052],[-87.691519,41.707203],[-87.691729,41.713566],[-87.681842,41.713662],[-87.68251295540796,41.73549301189755],[-87.741067,41.734524],[-87.740933,41.736865],[-87.742165,41.77478],[-87.800806,41.773697],[-87.801626,41.797995],[-87.797187,41.799402],[-87.752736,41.800187],[-87.753077,41.81331],[-87.744655,41.815963],[-87.744763,41.822032],[-87.738649,41.822118],[-87.73856134565922,41.81901378901345],[-87.738811,41.836696],[-87.739109,41.838548],[-87.7399819947976,41.86595883922314],[-87.774139,41.865459],[-87.775599,41.909254],[-87.805745,41.908839],[-87.8065,41.93100355899418],[-87.8065,41.9401],[-87.63734570725035,41.9401],[-87.637115,41.939826],[-87.637011221709,41.9401],[-87.63675658474577,41.9401],[-87.636816,41.939758],[-87.635841,41.939777],[-87.6358,41.939611],[-87.6350445203837,41.9401],[-87.6337001746802,41.9401],[-87.632985,41.938076],[-87.632292,41.937235],[-87.632426,41.937182],[-87.632101,41.93584],[-87.630443,41.933666],[-87.630713,41.933062],[-87.630664,41.932534],[-87.630731,41.933063],[-87.631384,41.93297],[-87.6314,41.93269],[-87.631821,41.932444],[-87.631254,41.932394],[-87.631072,41.932592],[-87.631239,41.932386],[-87.63085,41.932167],[-87.630674,41.931775],[-87.63101,41.930084],[-87.630834,41.929013],[-87.630396,41.928082],[-87.630611,41.927996],[-87.629791,41.927079],[-87.629598,41.926584],[-87.629706,41.926092],[-87.629876,41.92616],[-87.630275,41.925748],[-87.629979,41.923678],[-87.629003,41.92275],[-87.628336,41.923074],[-87.62948,41.922397],[-87.628536,41.921033],[-87.62771,41.921376],[-87.628917,41.920729],[-87.627956,41.919505],[-87.627325,41.919747],[-87.628419,41.919259],[-87.627354,41.918003],[-87.6268,41.918251],[-87.627909,41.9176],[-87.626705,41.916435],[-87.626093,41.916836],[-87.626813,41.916286],[-87.624867,41.914725],[-87.623194,41.913776],[-87.621732,41.913528],[-87.620616,41.913793],[-87.620572,41.91337],[-87.620212,41.913907],[-87.620208,41.914556],[-87.620467,41.914794],[-87.620989,41.914785],[-87.620477,41.914847],[-87.620146,41.914538],[-87.620221,41.913716],[-87.620442,41.913413],[-87.620779,41.913176],[-87.622934,41.912674],[-87.624663,41.911416],[-87.624725,41.910741],[-87.625095,41.910265],[-87.624809,41.907527],[-87.623572,41.904077],[-87.623723,41.904049],[-87.622591,41.903188],[-87.621909,41.902336],[-87.621868,41.902046],[-87.619876,41.901546],[-87.619125,41.900974],[-87.614907,41.894671],[-87.613686,41.893129],[-87.612623,41.893409],[-87.61203,41.893327],[-87.610154,41.896228],[-87.602426,41.896371],[-87.602352,41.893265],[-87.609822,41.893146],[-87.609796,41.892221],[-87.600715,41.892443],[-87.600582,41.89224],[-87.598549,41.892274],[-87.598524,41.89145],[-87.600567,41.891415],[-87.600561,41.891112],[-87.600719,41.891075],[-87.609535,41.891013],[-87.609486,41.88939],[-87.607665,41.889369],[-87.607653,41.888674],[-87.604676,41.888643],[-87.605202,41.888469],[-87.602456,41.888329],[-87.609846,41.88797],[-87.609986,41.88408],[-87.612736,41.884059],[-87.612878,41.883391],[-87.613506,41.88286],[-87.614461,41.882543],[-87.61579,41.882436],[-87.616399,41.882023],[-87.616498,41.881414],[-87.615754,41.881417],[-87.615722,41.880567],[-87.616478,41.880557],[-87.616183,41.875668],[-87.616212,41.868899],[-87.61540678632227,41.86834190449041],[-87.613972,41.868503],[-87.612773,41.868308],[-87.612418,41.867942],[-87.612347,41.867473],[-87.612688,41.866753],[-87.607749,41.866859],[-87.606759,41.867242],[-87.606002,41.867021],[-87.605611,41.866424],[-87.605715,41.866001],[-87.606051,41.865681],[-87.606045,41.864794],[-87.606293,41.864785],[-87.606586,41.865213],[-87.606832,41.865194],[-87.607358,41.864812],[-87.607579,41.864274],[-87.606955,41.862374],[-87.606021,41.862005],[-87.605965,41.86008],[-87.607072,41.859958],[-87.606511,41.853359],[-87.609004,41.853181],[-87.609588,41.853393],[-87.609897,41.85377],[-87.609335,41.856817],[-87.609925,41.857656],[-87.609885,41.858643],[-87.610476,41.859281],[-87.610363,41.859864],[-87.610668,41.860206],[-87.610675,41.860651],[-87.610348,41.860848],[-87.610361,41.861396],[-87.609898,41.862109],[-87.609605,41.863405],[-87.609955,41.864634],[-87.610448,41.865319],[-87.61048,41.865865],[-87.612669,41.865843],[-87.61265,41.865279],[-87.613131,41.864449],[-87.61344,41.863371],[-87.61326,41.862376],[-87.612561,41.861373],[-87.612548,41.860825],[-87.612203,41.860634],[-87.612393,41.860354],[-87.61215,41.860346],[-87.612443,41.859988],[-87.612187,41.858584],[-87.612725,41.858359],[-87.613042,41.857611],[-87.612853,41.856356],[-87.612476,41.855843],[-87.611175,41.854884],[-87.610717,41.853078],[-87.609222,41.850909],[-87.60949,41.848074],[-87.608538,41.846576],[-87.608408,41.846066],[-87.609141,41.844693],[-87.609406,41.845267],[-87.608771,41.843365],[-87.60802,41.842306],[-87.607849,41.841031],[-87.607528,41.84056],[-87.606678,41.840561],[-87.607501,41.840503],[-87.607211,41.839652],[-87.606156,41.838635],[-87.60471,41.83896],[-87.604185,41.839829],[-87.604667,41.83888],[-87.606135,41.838551],[-87.606072,41.837293],[-87.605655,41.836121],[-87.604558,41.834992],[-87.604544,41.834811],[-87.605033,41.834422],[-87.604868,41.833796],[-87.604352,41.833196],[-87.603012,41.832732],[-87.602704,41.832332],[-87.60271,41.831366],[-87.602395,41.830693],[-87.599972,41.82793],[-87.597755,41.826344],[-87.597482,41.825641],[-87.597662,41.824198],[-87.597271,41.822618],[-87.595115,41.819814],[-87.594621,41.819696],[-87.592616,41.818343],[-87.592191,41.817681],[-87.591989,41.816289],[-87.591456,41.815958],[-87.590891,41.815004],[-87.590398,41.814553],[-87.590346,41.814376],[-87.590517,41.814349],[-87.590036,41.813516],[-87.588626,41.81219],[-87.587337,41.811838],[-87.586934,41.811175],[-87.586925,41.810107],[-87.585158,41.807215],[-87.581269,41.804311],[-87.580115,41.803927],[-87.580017,41.803587],[-87.580448,41.802931],[-87.580289,41.802865],[-87.580474,41.800861],[-87.580283,41.799626],[-87.579788,41.798441],[-87.579937,41.798369],[-87.57821,41.797013],[-87.577351,41.796857],[-87.576447,41.797052],[-87.575883,41.796977],[-87.575272,41.796608],[-87.575164,41.79624],[-87.575444,41.79544],[-87.576166,41.795086],[-87.577388,41.795039],[-87.578304,41.794729],[-87.579012,41.7942],[-87.579301,41.793487],[-87.586638,41.793384],[-87.579302,41.793395],[-87.579325,41.792572],[-87.579628,41.792036],[-87.579449,41.791713],[-87.578272,41.789936],[-87.57632,41.78857],[-87.577759,41.788298],[-87.577639,41.788153],[-87.57715,41.788183],[-87.57733,41.787572],[-87.577242,41.786484],[-87.576046,41.783598],[-87.572479,41.781896],[-87.569683,41.781297],[-87.568397,41.781608],[-87.567532,41.784597],[-87.568306,41.781539],[-87.57308,41.780251],[-87.572954,41.779824],[-87.57411,41.779528],[-87.574735,41.779111],[-87.57528,41.777867],[-87.575191,41.777005],[-87.574608,41.776154],[-87.575079,41.775931],[-87.575043,41.775785],[-87.573367,41.775377],[-87.573216,41.775586],[-87.571936,41.775878],[-87.571773,41.776664],[-87.572315,41.777336],[-87.572646,41.777335],[-87.573361,41.778306],[-87.573259,41.779144],[-87.572477,41.779307],[-87.569898,41.776998],[-87.568813,41.776404],[-87.566826,41.77397],[-87.565652,41.772923],[-87.563581,41.772026],[-87.563276,41.770444],[-87.562338,41.769001],[-87.560527,41.768397],[-87.559536,41.769179],[-87.559392,41.766783],[-87.560516,41.766171],[-87.560514,41.76539],[-87.560122,41.764941],[-87.559842,41.764958],[-87.559602,41.76473],[-87.559517,41.764517],[-87.559742,41.764391],[-87.558979,41.763753],[-87.558456,41.764018],[-87.557572,41.763115],[-87.557641,41.762846],[-87.555593,41.761579],[-87.554802,41.761771],[-87.554033,41.760761],[-87.549545,41.758956],[-87.548401,41.758692],[-87.54659,41.758878],[-87.544319,41.760167],[-87.543853,41.760112],[-87.544417,41.760616],[-87.546492,41.760646],[-87.544365,41.760666],[-87.542563,41.759131],[-87.542627,41.758739],[-87.541649,41.757824],[-87.541148,41.757794],[-87.540597,41.757269],[-87.543762,41.755383],[-87.544946,41.754435],[-87.543978,41.755152],[-87.544413,41.754132],[-87.543716,41.752534],[-87.543188,41.751989],[-87.540434,41.751846],[-87.530948,41.748026],[-87.529877,41.741477],[-87.524462,41.741469],[-87.529887,41.741329],[-87.530687,41.741117],[-87.539855,41.741013],[-87.53983,41.740497],[-87.529857,41.740607],[-87.528958,41.733748],[-87.529495,41.732367],[-87.529135,41.732087],[-87.525263,41.731531],[-87.524688,41.731093],[-87.524467,41.721898],[-87.525003,41.721523],[-87.5247,41.721254],[-87.525093,41.721415],[-87.525408,41.72092],[-87.525081,41.720848],[-87.525485,41.720722],[-87.525609,41.719436],[-87.525294,41.718487],[-87.524905,41.71805],[-87.524505,41.717988],[-87.524468,41.717403],[-87.525813,41.717331],[-87.526421,41.717114],[-87.526605,41.717236],[-87.526519,41.717085],[-87.526791,41.716882],[-87.527301,41.716825],[-87.528189,41.716229],[-87.528704,41.715423],[-87.527712,41.713422],[-87.526486,41.712355],[-87.525167,41.713327],[-87.528408,41.710803],[-87.526648,41.709849],[-87.526243,41.70982],[-87.5259,41.710145],[-87.525997,41.71035],[-87.52575,41.710411],[-87.52414,41.70936],[-87.52476,41.709334],[-87.52553,41.709937],[-87.52622,41.709539],[-87.525769,41.709157],[-87.525261,41.709473],[-87.52513,41.709344],[-87.525679,41.709085],[-87.525374,41.708827],[-87.524862,41.709153],[-87.524942,41.708727],[-87.524535,41.708482],[-87.52477265998843,41.6844],[-87.60192691129133,41.6844],[-87.601936,41.684742],[-87.60192715141473,41.6844],[-87.69562768294021,41.6844],[-87.6957748705542,41.688075657812455],[-87.699473,41.687933],[-87.699398,41.686147],[-87.700624,41.686136],[-87.70055819327283,41.6844]],[[-87.627511,41.900758],[-87.624504,41.900806],[-87.619125,41.900974],[-87.627511,41.900758]],[[-87.628661,41.903264],[-87.628321,41.902373],[-87.625505,41.896713],[-87.627511,41.900758],[-87.628661,41.903264]],[[-87.625481,41.895722],[-87.625202,41.888867],[-87.625505,41.896713],[-87.625481,41.895722]],[[-87.627617,41.887512],[-87.62515769582384,41.888869832230434],[-87.625202,41.888867],[-87.627617,41.887512]],[[-87.611411,41.845267],[-87.616008,41.845093],[-87.609406,41.845267],[-87.611411,41.845267]],[[-87.613979,41.851617],[-87.61850784691306,41.86187996648384],[-87.611411,41.845267],[-87.613979,41.851617]],[[-87.58629602734527,41.77334017099944],[-87.58629601998055,41.77334017108215],[-87.586638,41.793384],[-87.58629602734527,41.77334017099944]],[[-87.61576,41.785699],[-87.586595,41.786143],[-87.606037,41.785874],[-87.61576,41.785699]],[[-87.66382371054718,41.91581771054718],[-87.6645879533507,41.91776297854559],[-87.663896,41.91589],[-87.66382371054718,41.91581771054718]],[[-87.663029,41.915488],[-87.66365405434783,41.91564805434783],[-87.663621,41.915615],[-87.663029,41.915488]],[[-87.661132,41.916177],[-87.66124287325628,41.91613673027222],[-87.66108000623888,41.91614621449613],[-87.661132,41.916177]],[[-87.658651,41.914708],[-87.65892951843308,41.91487291075299],[-87.65830007897554,41.914308154624855],[-87.658651,41.914708]],[[-87.657862,41.913809],[-87.65804309245074,41.91401533981396],[-87.656861,41.910785],[-87.657862,41.913809]],[[-87.649501,41.9109],[-87.648272,41.91092],[-87.656861,41.910785],[-87.649501,41.9109]],[[-87.641506,41.891969],[-87.64153492632141,41.89199657806066],[-87.64145971201977,41.89189566922127],[-87.641506,41.891969]],[[-87.639435,41.889228],[-87.63968492422663,41.88951458248029],[-87.639407031409,41.88914175655369],[-87.639435,41.889228]],[[-87.65867,41.875599],[-87.65935169795307,41.87558967339314],[-87.651365,41.875295],[-87.65867,41.875599]],[[-87.64558253271709,41.87541688338088],[-87.645579,41.875498],[-87.651365,41.875295],[-87.64558253271709,41.87541688338088]],[[-87.644792,41.867525],[-87.645657,41.873707],[-87.64477626541567,41.867157325500195],[-87.644792,41.867525]],[[-87.639014,41.860018],[-87.644468,41.859954],[-87.674273,41.859546],[-87.639014,41.860018]],[[-87.64264,41.850024],[-87.64244765306917,41.8502764923821],[-87.64306489043248,41.849861735000395],[-87.64264,41.850024]],[[-87.643999,41.849505],[-87.64361470823901,41.84965176042969],[-87.64528811403535,41.84942073052497],[-87.643999,41.849505]],[[-87.649637,41.848396],[-87.64618251114585,41.84929725032688],[-87.6468,41.849212],[-87.649637,41.848396]],[[-87.66362395633145,41.84437130301339],[-87.660773,41.845839],[-87.663607,41.844406],[-87.66362395633145,41.84437130301339]],[[-87.66431,41.842801],[-87.66408989470457,41.84341787405166],[-87.664969,41.841619],[-87.66431,41.842801]],[[-87.66344,41.837805],[-87.664538,41.839555],[-87.664285,41.839065],[-87.66344,41.837805]],[[-87.661287,41.834863],[-87.663078,41.836823],[-87.662487,41.836141],[-87.661287,41.834863]],[[-87.678806,41.7935],[-87.678815,41.793868],[-87.679413,41.797034],[-87.678806,41.7935]],[[-87.679123,41.786564],[-87.679672,41.786557],[-87.689725344449,41.786417399216624],[-87.679123,41.786564]],[[-87.669692,41.757784],[-87.678151,41.75766],[-87.67832593630666,41.75765685907642],[-87.669692,41.757784]],[[-87.678114,41.744296],[-87.67810919945984,41.74425843148713],[-87.67858796977158,41.75765215435214],[-87.678114,41.744296]],[[-87.67785915130679,41.742468050927194],[-87.67799846326278,41.74339182187341],[-87.67789,41.742543],[-87.67785915130679,41.742468050927194]],[[-87.696016,41.698806],[-87.6958487448217,41.69162740774734],[-87.69209,41.69176],[-87.692105,41.692202],[-87.691009,41.692283],[-87.691238,41.698982],[-87.642608,41.699641],[-87.696148,41.698941],[-87.696016,41.698806]],[[-87.642152,41.685082],[-87.642834,41.706917],[-87.642608,41.699641],[-87.642152,41.685082]],[[-87.661599,41.68482],[-87.61543066535222,41.685394763939044],[-87.642152,41.685082],[-87.661599,41.68482]],[[-87.7138294891933,41.80592261472422],[-87.71432228984646,41.80470080896688],[-87.714189,41.80484],[-87.7138294891933,41.80592261472422]],[[-87.688182,41.863057],[-87.688215,41.859507],[-87.68816940104887,41.859452730825765],[-87.688182,41.863057]],[[-87.6880739576132,41.859339139694576],[-87.688073,41.859338],[-87.685834,41.859366],[-87.6880739576132,41.859339139694576]],[[-87.68798981421851,41.85697977228041],[-87.68803399532604,41.856969879946085],[-87.68756,41.844795],[-87.68798981421851,41.85697977228041]],[[-87.73146,41.931734],[-87.7352218309152,41.93898567367984],[-87.727702,41.924473],[-87.73146,41.931734]],[[-87.6674950638295,41.90334599898662],[-87.69193308383419,41.902968292362544],[-87.69193308370431,41.90296828707867],[-87.6674950638295,41.90334599898662]],[[-87.69157,41.888196],[-87.703868,41.888164],[-87.68873105843171,41.88817495724909],[-87.69157,41.888196]],[[-87.68867345710036,41.888174530297555],[-87.690327,41.887677],[-87.69041994924308,41.88761154119972],[-87.68867345710036,41.888174530297555]],[[-87.69085151908367,41.88730761140896],[-87.691152,41.887096],[-87.69118669171519,41.8870309043097],[-87.69085151908367,41.88730761140896]],[[-87.691325,41.875256],[-87.691505,41.881113],[-87.69113790990096,41.86884135683875],[-87.691325,41.875256]],[[-87.69097469462581,41.867497349573064],[-87.69095,41.867294],[-87.69088218246364,41.86719034624968],[-87.69097469462581,41.867497349573064]],[[-87.78897830775061,41.917313403455715],[-87.789935,41.918005],[-87.7889825574945,41.91731494618607],[-87.78897830775061,41.917313403455715]],[[-87.787834,41.916898],[-87.78759538223434,41.916857101939705],[-87.78876144144934,41.91723467724685],[-87.787834,41.916898]],[[-87.785226,41.916451],[-87.78493225058119,41.91645515555303],[-87.78523385335987,41.91645234603216],[-87.785226,41.916451]],[[-87.759246,41.916087],[-87.764123,41.916649],[-87.76431262433788,41.91664723359209],[-87.759246,41.916087]],[[-87.741335,41.913898],[-87.755087,41.915471],[-87.75570521876459,41.915418187341714],[-87.741335,41.913898]],[[-87.78611134209781,41.9383014931669],[-87.742175,41.938891],[-87.74069863211861,41.93891117186088],[-87.78611134209781,41.9383014931669]],[[-87.77525378975412,41.90979229394272],[-87.775245,41.909806],[-87.77546953962569,41.916543303560324],[-87.77525378975412,41.90979229394272]],[[-87.741342,41.899853],[-87.741021,41.89651],[-87.741119,41.898777],[-87.741342,41.899853]],[[-87.741163,41.895915],[-87.74114830070076,41.89580255793776],[-87.741021,41.89651],[-87.741163,41.895915]],[[-87.740749,41.891464],[-87.740212,41.876907],[-87.740596,41.887823],[-87.740749,41.891464]],[[-87.70820912245256,41.87003075336935],[-87.717969,41.869941],[-87.720239,41.869869],[-87.70820912245256,41.87003075336935]],[[-87.739894,41.868963],[-87.740085,41.873252],[-87.739766,41.865962],[-87.739894,41.868963]],[[-87.739515,41.876909],[-87.73948858358754,41.876221747204866],[-87.739502,41.876624],[-87.739515,41.876909]],[[-87.736724,41.913466],[-87.73397428082727,41.91350282021253],[-87.73677690896648,41.9134709569884],[-87.736724,41.913466]],[[-87.68439391999505,41.80455461094692],[-87.694095,41.804409],[-87.684394,41.804554],[-87.68439391999505,41.80455461094692]],[[-87.687399,41.834801],[-87.6873985441811,41.8347100696864],[-87.68546552700056,41.83537594460735],[-87.687399,41.834801]],[[-87.670561,41.837136],[-87.670044,41.837142],[-87.66990009405278,41.837156382604384],[-87.670561,41.837136]],[[-87.66896784359608,41.83724955588712],[-87.668243,41.837322],[-87.666506,41.837861],[-87.66896784359608,41.83724955588712]],[[-87.687883,41.932179],[-87.68731642088687,41.91400886794025],[-87.68798697094147,41.93610304254058],[-87.687883,41.932179]],[[-87.66612840549655,41.91452230111411],[-87.66652546633033,41.91444908422278],[-87.666214,41.914485],[-87.66612840549655,41.91452230111411]],[[-87.685968,41.934033],[-87.687673,41.935899],[-87.68798450298102,41.93610143866948],[-87.685968,41.934033]],[[-87.68346937243635,41.93340513974042],[-87.68348,41.933425],[-87.68374050405369,41.933473270249394],[-87.68346937243635,41.93340513974042]],[[-87.688487,41.936428],[-87.6885005713173,41.93643021289229],[-87.68805088355512,41.93614457788778],[-87.688487,41.936428]],[[-87.630226,41.857779],[-87.635158,41.857722],[-87.630224,41.857695],[-87.630061,41.852877],[-87.630226,41.857779]],[[-87.638089,41.932932],[-87.66878169958434,41.93241951240099],[-87.65871,41.932556],[-87.638089,41.932932]],[[-87.632822,41.932933],[-87.632506,41.932601],[-87.63245365908338,41.93259955453864],[-87.632822,41.932933]],[[-87.618962,41.867503],[-87.61886760577715,41.86761219236704],[-87.62372724369811,41.867467039748],[-87.618962,41.867503]],[[-87.61910891273747,41.863418917770275],[-87.61895,41.862915],[-87.61888733683378,41.86276831216908],[-87.61910891273747,41.863418917770275]],[[-87.61784,41.845726],[-87.629168,41.845557],[-87.629965,41.845545],[-87.61784,41.845726]],[[-87.62826566133737,41.78325318660336],[-87.62897,41.783147],[-87.625404,41.78321],[-87.62826566133737,41.78325318660336]],[[-87.639335,41.756157],[-87.64034821599934,41.75613993171616],[-87.6399,41.756146],[-87.639335,41.756157]],[[-87.639759,41.750705],[-87.639369,41.750711],[-87.63932712514058,41.75071165353425],[-87.639759,41.750705]],[[-87.604492,41.722548],[-87.604482,41.722044],[-87.604507,41.723614],[-87.604492,41.722548]],[[-87.603182,41.722048],[-87.586704,41.722322],[-87.604482,41.722044],[-87.603182,41.722048]],[[-87.611351,41.686246],[-87.61136065015823,41.68606966529035],[-87.603182,41.722048],[-87.611351,41.686246]],[[-87.58668832508052,41.722307261434125],[-87.587374,41.723256],[-87.586704,41.722322],[-87.58668832508052,41.722307261434125]],[[-87.634734,41.867315],[-87.6348333312106,41.8678975097249],[-87.63472693400638,41.86706593157614],[-87.634734,41.867315]],[[-87.62413208365004,41.867461447567834],[-87.624335,41.880827],[-87.624452,41.884471],[-87.62413208365004,41.867461447567834]],[[-87.617429,41.881872],[-87.617488,41.880918],[-87.617224,41.869971],[-87.617429,41.881872]],[[-87.61687422582666,41.88266208339561],[-87.617043,41.882562],[-87.617429,41.881872],[-87.61687422582666,41.88266208339561]],[[-87.6150249230769,41.88375872333193],[-87.61494,41.883804],[-87.61492724201197,41.88381664838332],[-87.6150249230769,41.88375872333193]],[[-87.64408490159262,41.75608934166844],[-87.644235,41.758144],[-87.644184,41.756088],[-87.64408490159262,41.75608934166844]],[[-87.633734,41.728853],[-87.633133,41.707043],[-87.633742,41.729921],[-87.634128,41.735942],[-87.633734,41.728853]],[[-87.63749355268072,41.886292423989275],[-87.637588,41.886234],[-87.63764101088914,41.88594114129481],[-87.63749355268072,41.886292423989275]],[[-87.62450258747874,41.89928132455654],[-87.62450096954132,41.897534922896604],[-87.624451,41.897889],[-87.62450258747874,41.89928132455654]],[[-87.638139,41.88319],[-87.638278,41.88037],[-87.63822912420042,41.8801580321625],[-87.638139,41.88319]],[[-87.637429,41.876688],[-87.63615913635284,41.8748106887388],[-87.636294,41.875201],[-87.637429,41.876688]],[[-87.63598820934713,41.87431600587524],[-87.63571053622458,41.873041718159264],[-87.635869,41.873971],[-87.63598820934713,41.87431600587524]],[[-87.61734033044108,41.869590412754484],[-87.61757248265944,41.86905951728669],[-87.617467,41.869176],[-87.61734033044108,41.869590412754484]],[[-87.631682,41.911181],[-87.6316860282707,41.91118762325817],[-87.631445,41.903901],[-87.631682,41.911181]],[[-87.626458,41.911471],[-87.62645760358096,41.91147101909495],[-87.626566,41.911673],[-87.626458,41.911471]],[[-87.58582100875324,41.7516715156537],[-87.585821,41.751672],[-87.58596100161753,41.751772251948374],[-87.58582100875324,41.7516715156537]],[[-87.58558662100332,41.75150285453254],[-87.552287,41.751919],[-87.5855949127945,41.75150882115323],[-87.58558662100332,41.75150285453254]],[[-87.5431355851969,41.7229287459893],[-87.543144,41.722862],[-87.542692,41.720816],[-87.5431355851969,41.7229287459893]],[[-87.542211,41.714622],[-87.54218,41.715643],[-87.54234523815549,41.71416342245016],[-87.542211,41.714622]],[[-87.542674,41.71095],[-87.54264496787947,41.7114795788229],[-87.54271065566658,41.71089139642137],[-87.542674,41.71095]],[[-87.60143169809297,41.68646776253527],[-87.60157,41.686209],[-87.60158067842511,41.68616619877149],[-87.60143169809297,41.68646776253527]],[[-87.5430517903965,41.7235934040658],[-87.542252,41.726579],[-87.542997,41.724028],[-87.5430517903965,41.7235934040658]],[[-87.59785,41.741693],[-87.597486,41.74043],[-87.59785346632276,41.74202049817478],[-87.59785,41.741693]],[[-87.5873982003468,41.77332779290974],[-87.605769,41.773141],[-87.592099,41.773275],[-87.5873982003468,41.77332779290974]],[[-87.606407,41.802251],[-87.606708,41.816814],[-87.606859,41.823166],[-87.606407,41.802251]]]},"properties":{"status":"barrens","zone_type":"barrens","label":"Containment Zone · Chicago","basis":"Ehemalige Sperrzone innerhalb der publizierten Belmont–Harlem–115th–Lake-Michigan-Grenzen","topology":"disjoint","source":"Code for Germany / Click That Hood","boundary_review_status":"source-aligned","source_url":"https://github.com/codeforgermany/click_that_hood"}},{"type":"Feature","geometry":{"type":"MultiPolygon","coordinates":[[[[-87.700553,41.684263],[-87.705417,41.684187],[-87.705285,41.680579],[-87.711357,41.680441],[-87.711391,41.681271],[-87.71158,41.681267],[-87.711597,41.681833],[-87.711414,41.681836],[-87.711507,41.684094],[-87.73945,41.683632],[-87.739739,41.69086],[-87.73948070724958,41.6844],[-87.70055819327283,41.6844],[-87.700624,41.686136],[-87.700553,41.684263]]],[[[-87.806747,41.937996],[-87.806624,41.934511],[-87.81639,41.934313],[-87.816519,41.937939],[-87.849621,41.937285],[-87.851806,41.93917],[-87.853076,41.942601],[-87.853013,41.943351],[-87.853822,41.945843],[-87.854976,41.948034],[-87.854936,41.949484],[-87.854073,41.951449],[-87.846612,41.951639],[-87.846605,41.955687],[-87.858079,41.955445],[-87.858513,41.955985],[-87.858775,41.956933],[-87.858718,41.957541],[-87.857577,41.95919],[-87.85582,41.962415],[-87.855506,41.964456],[-87.854867,41.966359],[-87.854777,41.9672],[-87.855029,41.968708],[-87.854323,41.970298],[-87.854135,41.971168],[-87.854467,41.971895],[-87.855362,41.972517],[-87.856592,41.97246],[-87.858922,41.971422],[-87.860426,41.971929],[-87.861338,41.972609],[-87.861902,41.973321],[-87.880773,41.972855],[-87.880788,41.9572],[-87.883846,41.9573],[-87.890266,41.958096],[-87.892899,41.958051],[-87.892877,41.950794],[-87.903776,41.950618],[-87.912298,41.952371],[-87.912282,41.951433],[-87.914731,41.952026],[-87.914798,41.954713],[-87.915228,41.956845],[-87.916557,41.957405],[-87.92,41.958012],[-87.920055,41.958158],[-87.922171,41.958384],[-87.922169,41.953873],[-87.926353,41.954864],[-87.926357,41.959017],[-87.932082,41.959942],[-87.932254,41.964799],[-87.934771,41.9648],[-87.934764,41.966825],[-87.938126,41.964279],[-87.939718,41.964285],[-87.93993,41.993491],[-87.938801,41.993533],[-87.938347,41.995302],[-87.937615,41.997031],[-87.935525,42.00004],[-87.933769,42.001665],[-87.930403,42.004126],[-87.930363,42.002206],[-87.925463,42.00226],[-87.925445,42.001045],[-87.920516,42.001131],[-87.920511,42.004953],[-87.913771,42.005075],[-87.91377,42.008705],[-87.91331,42.008721],[-87.913306,42.006258],[-87.91303,42.006268],[-87.913027,42.005088],[-87.907674,42.005249],[-87.90768,42.008922],[-87.90575,42.008991],[-87.898354,42.006793],[-87.895983,42.005785],[-87.895983,42.005647],[-87.895763,42.005654],[-87.895763,42.005877],[-87.895309,42.005669],[-87.894295,42.005702],[-87.894346,42.002708],[-87.893547,42.002737],[-87.893578,42.003332],[-87.893229,42.003344],[-87.893265,42.003942],[-87.89189,42.003987],[-87.889997,42.003227],[-87.890382,42.00285],[-87.890385,42.0023],[-87.899236,42.001899],[-87.902406,42.003615],[-87.902404,42.004027],[-87.90406,42.003973],[-87.904062,42.00356],[-87.903115,42.00342],[-87.899543,42.001477],[-87.897441,42.001546],[-87.897458,42.000532],[-87.889398,41.999388],[-87.88496,41.998463],[-87.884955,41.998297],[-87.884533,41.998195],[-87.884543,41.995099],[-87.880355,41.99523],[-87.876911,41.985669],[-87.875857,41.985701],[-87.875863,41.982939],[-87.873731,41.976657],[-87.875883,41.976603],[-87.875893,41.973881],[-87.868605,41.974054],[-87.868607,41.973798],[-87.867492,41.973991],[-87.867493,41.973728],[-87.862009,41.973864],[-87.861758,41.975168],[-87.861245,41.976001],[-87.856274,41.980462],[-87.855877,41.981099],[-87.85578,41.982163],[-87.856648,41.984432],[-87.85636,41.985994],[-87.855537,41.987943],[-87.855835,41.989052],[-87.854122,41.988648],[-87.849904,41.988348],[-87.823327,41.984509],[-87.822164,41.993112],[-87.821414,41.996851],[-87.821253,42.011357],[-87.819729,42.011386],[-87.819731,42.011933],[-87.820098,42.011926],[-87.820069,42.01557],[-87.821231,42.015541],[-87.82121,42.018642],[-87.806547,42.018965],[-87.80675540250948,42.00083705772778],[-87.805388,42.000859],[-87.805295,42.001498],[-87.801079,42.00154],[-87.801086,42.000872],[-87.799659,42.000869],[-87.799481,41.999985],[-87.797142,42.000005],[-87.797124,42.00094],[-87.791166,42.00098],[-87.790648,42.000399],[-87.782003,42.004498],[-87.783103,42.005423],[-87.788723,42.011997],[-87.779266,42.011992],[-87.779104,42.015442],[-87.776972,42.015386],[-87.777053,42.011982],[-87.773349,42.011958],[-87.770359,42.006194],[-87.769949,42.006376],[-87.769185,42.004889],[-87.765795,42.003325],[-87.765467,42.003735],[-87.767543,42.004706],[-87.767462,42.008322],[-87.761664,42.008272],[-87.761885,42.00324],[-87.76227,42.001687],[-87.7529,41.997301],[-87.71065820716983,41.99729483500085],[-87.709454,41.997388],[-87.709472,42.004672],[-87.709014,42.019131],[-87.690359,42.019526],[-87.673118,42.019386],[-87.676241,42.021928],[-87.677056,42.023039],[-87.665126,42.022948],[-87.665267,42.022618],[-87.664793,42.022225],[-87.664645,42.02161],[-87.664186,42.021252],[-87.664009,42.021332],[-87.663729,42.020361],[-87.664008,42.020177],[-87.663928,42.019603],[-87.663638,42.019373],[-87.663856,42.019348],[-87.66398,42.019076],[-87.663282,42.018434],[-87.663412,42.018149],[-87.663143,42.017723],[-87.663184,42.017211],[-87.662999,42.017139],[-87.663094,42.016855],[-87.662805,42.016648],[-87.662465,42.015427],[-87.661572,42.013731],[-87.661621,42.01332],[-87.660934,42.012227],[-87.661017,42.01203],[-87.659217,42.01024],[-87.658953,42.00976],[-87.65646,42.007422],[-87.655371,42.006709],[-87.655062,42.006899],[-87.655844,42.006307],[-87.657394,42.006279],[-87.657421,42.005616],[-87.656968,42.004418],[-87.656712,42.004296],[-87.657287,42.004212],[-87.656897,42.002599],[-87.656042,42.00122],[-87.655622,41.99955],[-87.654556,41.998166],[-87.654262,41.995993],[-87.654664,41.995943],[-87.654485,41.99537],[-87.6546,41.994531],[-87.654391,41.994533],[-87.654266,41.994108],[-87.654527,41.993392],[-87.654093,41.993006],[-87.654413,41.990993],[-87.654238,41.990867],[-87.654189,41.990292],[-87.654308,41.988406],[-87.653542,41.987569],[-87.650977,41.985723],[-87.649894,41.985422],[-87.649352,41.986393],[-87.650342,41.984395],[-87.650683,41.983192],[-87.650669,41.980661],[-87.650221,41.979723],[-87.650475,41.979457],[-87.648774,41.978153],[-87.648604,41.97784],[-87.64729,41.977748],[-87.646691,41.977471],[-87.646145,41.977837],[-87.646662,41.977443],[-87.646366,41.976919],[-87.646131,41.972818],[-87.645027,41.970799],[-87.643973,41.969542],[-87.642628,41.968354],[-87.643013,41.968494],[-87.643272,41.968306],[-87.642965,41.968055],[-87.642558,41.968296],[-87.640486,41.966925],[-87.637426,41.966035],[-87.631995,41.965068],[-87.631841,41.966695],[-87.630962,41.968421],[-87.631184,41.968739],[-87.631632,41.96876],[-87.631888,41.968507],[-87.63182,41.968146],[-87.631969,41.968541],[-87.631775,41.968769],[-87.631399,41.968858],[-87.631055,41.968754],[-87.630872,41.968498],[-87.631638,41.967015],[-87.631907,41.965923],[-87.631674,41.964038],[-87.63122,41.963685],[-87.630996,41.963232],[-87.631074,41.962835],[-87.631454,41.962453],[-87.634224,41.961384],[-87.636639,41.959541],[-87.638167,41.95935],[-87.640099,41.95967],[-87.6403,41.959192],[-87.640161,41.959689],[-87.640803,41.959977],[-87.640938,41.960227],[-87.640735,41.960786],[-87.640264,41.960894],[-87.638822,41.960287],[-87.637319,41.960493],[-87.63583,41.961384],[-87.635347,41.962038],[-87.635407,41.962486],[-87.635923,41.962845],[-87.636846,41.962876],[-87.64125,41.962338],[-87.642123,41.961832],[-87.642282,41.961185],[-87.641525,41.960183],[-87.641613,41.959396],[-87.641022,41.959351],[-87.641629,41.959331],[-87.641745,41.958364],[-87.641024,41.954803],[-87.639204,41.950625],[-87.637546,41.947433],[-87.635062,41.944476],[-87.633051,41.94262],[-87.633028,41.942335],[-87.633369,41.942149],[-87.633715,41.942222],[-87.634056,41.942913],[-87.634493,41.943191],[-87.635424,41.942911],[-87.635922,41.942979],[-87.636965,41.944897],[-87.636822,41.945045],[-87.637363,41.945793],[-87.638887,41.946311],[-87.640021,41.946397],[-87.640265,41.946519],[-87.6401,41.946716],[-87.640304,41.94672],[-87.641105,41.947604],[-87.64187,41.948005],[-87.642134,41.947858],[-87.640049,41.945947],[-87.640124,41.945381],[-87.640448,41.945187],[-87.64046,41.944832],[-87.639586,41.943596],[-87.638718,41.942939],[-87.638346,41.941288],[-87.637115,41.939826],[-87.63734570725035,41.9401],[-87.8065,41.9401],[-87.8065,41.93100355899418],[-87.806747,41.937996]],[[-87.66160770618754,41.954390860400935],[-87.654545,41.954488],[-87.641024,41.954803],[-87.66160770618754,41.954390860400935]],[[-87.841555,41.97469],[-87.84155,41.973788],[-87.837934,41.973844],[-87.837951,41.971347],[-87.836649,41.971366],[-87.83665,41.970232],[-87.841589,41.970143],[-87.841575,41.971975],[-87.846534,41.97189],[-87.84657,41.966407],[-87.836682,41.966597],[-87.8366883455342,41.959360206677026],[-87.832678,41.959438],[-87.831821,41.955701],[-87.831793,41.952164],[-87.807269,41.952765],[-87.807291,41.953866],[-87.794328,41.96003],[-87.78680646899427,41.96021696348505],[-87.787048,41.963304],[-87.786769,41.96355],[-87.786772,41.968427],[-87.767505,41.96869],[-87.788014,41.968411],[-87.787735,41.982899],[-87.788009,41.968888],[-87.802525,41.968773],[-87.802542,41.968297],[-87.807156,41.96827],[-87.807067,41.974538],[-87.816917,41.974289],[-87.816953,41.97066],[-87.818987,41.970608],[-87.818968,41.973219],[-87.819433,41.97322],[-87.819398,41.974223],[-87.826735,41.974034],[-87.826743,41.973143],[-87.831729,41.973056],[-87.831723,41.973949],[-87.833418,41.97392],[-87.833414,41.974917],[-87.83363,41.974913],[-87.833627,41.975368],[-87.836627,41.97531],[-87.836581,41.986396],[-87.836631,41.974771],[-87.841555,41.97469]],[[-87.78800135426629,41.99966414711169],[-87.790194,42.000613],[-87.78807,41.999653],[-87.78800135426629,41.99966414711169]],[[-87.706902,41.98308],[-87.707822,41.986028],[-87.70584140955253,41.97949791373609],[-87.706902,41.98308]],[[-87.67501261564617,41.997975949309335],[-87.67485,41.990762],[-87.689673,41.9905],[-87.67481337651526,41.990761095736005],[-87.67501261564617,41.997975949309335]],[[-87.65126,41.97646],[-87.65116318707842,41.97647545862618],[-87.65867161498169,41.97634569437756],[-87.65126,41.97646]],[[-87.70403478997729,41.97354128512182],[-87.703532,41.971863],[-87.70329444112,41.97145372152235],[-87.70403478997729,41.97354128512182]],[[-87.7030348880195,41.97100655028701],[-87.702648,41.97034],[-87.701083,41.968521],[-87.7030348880195,41.97100655028701]],[[-87.69589209990892,41.963474101100346],[-87.69573289228599,41.963265799837586],[-87.695784,41.963369],[-87.69589209990892,41.963474101100346]],[[-87.696864,41.950006],[-87.696204,41.946696],[-87.69576048262685,41.94481165051194],[-87.696864,41.950006]],[[-87.836693,41.954052],[-87.836433,41.944761],[-87.83668883490256,41.95880210429562],[-87.836693,41.954052]],[[-87.74769402522573,41.9692202414121],[-87.7475312059706,41.968527666213184],[-87.747502,41.968604],[-87.74769402522573,41.9692202414121]],[[-87.747993,41.975341],[-87.74826,41.983677],[-87.747863,41.969939],[-87.747993,41.975341]],[[-87.77975304456525,41.996866155946776],[-87.78002194297271,41.99741783138917],[-87.780022,41.997414],[-87.77975304456525,41.996866155946776]],[[-87.77960523799952,41.9967815420432],[-87.779489,41.996715],[-87.77888,41.996765],[-87.77960523799952,41.9967815420432]],[[-87.77727610149132,41.996999193469435],[-87.77828645664381,41.99712169672848],[-87.777306,41.996986],[-87.77727610149132,41.996999193469435]],[[-87.773495,41.997055],[-87.77173825518669,41.996555010354214],[-87.772009,41.996733],[-87.773495,41.997055]],[[-87.77150008698014,41.99639843681102],[-87.77128075095143,41.99596087531576],[-87.771361,41.996307],[-87.77150008698014,41.99639843681102]],[[-87.77119219789968,41.99557893437539],[-87.77130361171483,41.99515140385031],[-87.771163,41.995453],[-87.77119219789968,41.99557893437539]],[[-87.77145601368797,41.99482451893632],[-87.77204796237297,41.99424922531397],[-87.771515,41.994698],[-87.77145601368797,41.99482451893632]],[[-87.77226467589944,41.99406674424264],[-87.773534,41.993615],[-87.7723,41.994037],[-87.77226467589944,41.99406674424264]],[[-87.77368374033314,41.993178183525195],[-87.773703,41.993122],[-87.773453,41.992401],[-87.77368374033314,41.993178183525195]],[[-87.771741,41.990182],[-87.77144,41.989584],[-87.7711769329153,41.98939248716234],[-87.771741,41.990182]],[[-87.77100677992681,41.98926861578672],[-87.77094,41.98922],[-87.77083272460497,41.98920385101581],[-87.77100677992681,41.98926861578672]],[[-87.78549022026151,41.999760666175725],[-87.786863,41.999849],[-87.78559,41.999721],[-87.78549022026151,41.999760666175725]],[[-87.78428,42.000189],[-87.7843379274052,42.000165063958974],[-87.78394739130432,42.00013813043478],[-87.78428,42.000189]],[[-87.782035,42.002593],[-87.78314711412669,42.00008293890529],[-87.783061,42.000077],[-87.782035,42.002593]],[[-87.78152842105263,42.002943263157896],[-87.781592,42.002952],[-87.782035,42.002593],[-87.78152842105263,42.002943263157896]],[[-87.780581,42.002467],[-87.78065403169045,42.00253913449523],[-87.780289,42.001607],[-87.780581,42.002467]],[[-87.835096,41.980835],[-87.8351,41.980495],[-87.828859,41.9806],[-87.828861,41.980325],[-87.828691,41.980328],[-87.828696,41.979286],[-87.828082,41.979291],[-87.828082,41.979123],[-87.828696,41.97912],[-87.828639,41.97844],[-87.829717,41.978423],[-87.829711,41.978131],[-87.830023,41.978126],[-87.83004,41.977329],[-87.829607,41.977336],[-87.829604,41.976959],[-87.833619,41.976891],[-87.833622,41.975918],[-87.824426,41.976075],[-87.82352,41.983093],[-87.825299,41.983068],[-87.825271,41.981963],[-87.828136,41.981919],[-87.828178,41.983842],[-87.833584,41.983571],[-87.833596,41.982667],[-87.835072,41.982675],[-87.835092,41.981149],[-87.83435,41.981156],[-87.834355,41.980846],[-87.835096,41.980835]],[[-87.693633,41.940255],[-87.69533264019866,41.942993898357564],[-87.695279,41.942766],[-87.693633,41.940255]],[[-87.681761,42.00865],[-87.676837,41.997959],[-87.68181614142252,42.00880480942758],[-87.681761,42.00865]]],[[[-87.637011221709,41.9401],[-87.636734,41.94023],[-87.636816,41.939758],[-87.63675658474577,41.9401],[-87.637011221709,41.9401]]],[[[-87.634988,41.940149],[-87.634783,41.940688],[-87.63517,41.940711],[-87.635153,41.940859],[-87.634764,41.940742],[-87.634453,41.941861],[-87.634,41.941624],[-87.63370017468019,41.94009999999998],[-87.634988,41.940149]]],[[[-87.525166,41.644543],[-87.578377,41.644695],[-87.617216,41.644584],[-87.61723,41.650276],[-87.620316,41.650888],[-87.619249,41.653133],[-87.618482,41.655553],[-87.61771,41.659105],[-87.619684,41.659062],[-87.619386,41.660061],[-87.619512,41.660787],[-87.619857,41.661141],[-87.622024,41.66213],[-87.622035,41.662414],[-87.624423,41.662259],[-87.626274,41.661662],[-87.629147,41.659317],[-87.63076,41.658274],[-87.630819,41.657958],[-87.631075,41.657833],[-87.63139,41.657997],[-87.632327,41.657876],[-87.633004,41.657527],[-87.63556,41.657345],[-87.638561,41.657712],[-87.64105,41.657774],[-87.641062,41.658096],[-87.641428,41.658094],[-87.641416,41.657771],[-87.645911,41.65778],[-87.646988,41.65763],[-87.647217,41.663159],[-87.641421,41.663245],[-87.641665,41.67054],[-87.66115,41.670335],[-87.66137345644115,41.677543834187425],[-87.666771,41.677438],[-87.667316,41.675963],[-87.668404,41.676188],[-87.667951,41.677417],[-87.686205,41.677208],[-87.68558,41.679146],[-87.68572000150122,41.6844],[-87.60192715141473,41.6844],[-87.60172634035855,41.67685269471254],[-87.60192691129133,41.6844],[-87.52477265998843,41.6844],[-87.524535,41.708482],[-87.525166,41.644543]],[[-87.578834,41.647248],[-87.5788674034365,41.64732321003398],[-87.578377,41.644695],[-87.578834,41.647248]],[[-87.600954,41.67421],[-87.600195,41.673091],[-87.60097946905549,41.67427289561669],[-87.600954,41.67421]],[[-87.596633,41.668941],[-87.592124,41.663709],[-87.600195,41.673091],[-87.596633,41.668941]],[[-87.589,41.660392],[-87.59038068903196,41.66198486844938],[-87.58071503237952,41.65070213676886],[-87.589,41.660392]],[[-87.57975118399912,41.6493131000899],[-87.579792,41.649405],[-87.58014047323232,41.64989470919401],[-87.57975118399912,41.6493131000899]]],[[[-87.695625,41.684333],[-87.6957748705542,41.688075657812455],[-87.69562768294021,41.6844],[-87.69095245774677,41.6844],[-87.695625,41.684333]]],[[[-87.618891,41.867587],[-87.62372724369811,41.867467039748],[-87.61886760577715,41.86761219236704],[-87.618891,41.867587]]],[[[-87.940013,41.998108],[-87.940114,42.000789],[-87.935144,42.000889],[-87.93708,41.998586],[-87.940013,41.998108]]],[[[-87.933485,42.005424],[-87.933613,42.004882],[-87.934373,42.004983],[-87.934303,42.001963],[-87.933889,42.001972],[-87.935095,42.000938],[-87.935288,42.008151],[-87.93358,42.008174],[-87.933485,42.005424]]]]},"properties":{"status":"normal","zone_type":"magenta","label":"Normal / Stadt · Chicago außerhalb der Zone","basis":"Heutiger Stadtumriss abzüglich der quellenabgeglichenen Containment Zone; keine Behauptung über den gesamten Chicagoland-Sprawl","topology":"disjoint","boundary_review_status":"contextual","source":"Code for Germany / Click That Hood","source_url":"https://github.com/codeforgermany/click_that_hood"}}]}
