{"type":"FeatureCollection","name":"Berlin – geprüfte zusätzliche Quellenorte","features":[{"type":"Feature","geometry":null,"properties":{"id":505,"global_id":"berlin-2080:source-place:am-tegeler-hafen-reinickendorf","name":"Am Tegeler Hafen (Reinickendorf)","aliases":[],"category":"Sonstige Spots","detail_map":"Berlin","source_pages":"Textzeile 5463","map_source":"Berlin","placement_note":"Keine belastbare Einzelposition; Eintrag bleibt im Katalog","accuracy":"Nur Stadt oder Lore-Teilraum belegt","source_map":"source-supplement","source_panel":"Berlin","description_preview":"Am Tegeler Hafen (Reinickendorf) ist in Berlin als benannter Schauplatz mit Bezug zu Berlin belegt.","description_full":"Am Tegeler Hafen (Reinickendorf) ist in Berlin als benannter Schauplatz mit Bezug zu Berlin belegt. Das Dossier fasst den belegten Quellenstand redaktionell zusammen; eine nicht belegte Kartenposition wird nicht ergänzt.","description_source":"Textzeile 5463","description_kind":"Ortsdossier","description_has_more":true,"detail_plans":[],"alternate_locations":[],"sources":[{"bookId":"sr4-berlin","title":"Berlin","edition":"SR4","citation":"Textzeile 5463","purpose":"description"}],"map_sources":[],"editions":["SR4"],"edition_descriptions":{"SR4":{"kind":"Ortsdossier","preview":"Am Tegeler Hafen (Reinickendorf) ist in Berlin als benannter Schauplatz mit Bezug zu Berlin belegt.","full":"Am Tegeler Hafen (Reinickendorf) ist in Berlin als benannter Schauplatz mit Bezug zu Berlin belegt. Das Dossier fasst den belegten Quellenstand redaktionell zusammen; eine nicht belegte Kartenposition wird nicht ergänzt.","hasMore":true,"hasExcerpt":true,"sources":[{"bookId":"sr4-berlin","title":"Berlin","edition":"SR4","citation":"Textzeile 5463","purpose":"description"}]}}}},{"type":"Feature","geometry":null,"properties":{"id":506,"global_id":"berlin-2080:source-place:bar-ahegao-j","name":"Bar Ahegao (J)","aliases":[],"category":"Bars, Clubs und Gastronomie","detail_map":"Berlin","source_pages":"Textzeile 5846","map_source":"Netzgewitter","placement_note":"Keine belastbare Einzelposition; Eintrag bleibt im Katalog","accuracy":"Nur Stadt oder Lore-Teilraum belegt","source_map":"source-supplement","source_panel":"Berlin","description_preview":"Bar Ahegao (J) ist in Netzgewitter als benannter Schauplatz mit Bezug zu Berlin belegt.","description_full":"Bar Ahegao (J) ist in Netzgewitter als benannter Schauplatz mit Bezug zu Berlin belegt. Das Dossier fasst den belegten Quellenstand redaktionell zusammen; eine nicht belegte Kartenposition wird nicht ergänzt.","description_source":"Textzeile 5846","description_kind":"Ortsdossier","description_has_more":true,"detail_plans":[],"alternate_locations":[],"sources":[{"bookId":"sr6-netzgewitter","title":"Netzgewitter","edition":"SR6","citation":"Textzeile 5846","purpose":"description"},{"bookId":"sr6-sr6-46121p-netzgewitter","title":"SR6 [46121P] Netzgewitter","edition":"SR6","citation":"Textzeile 5846","purpose":"description"}],"map_sources":[],"editions":["SR6"],"edition_descriptions":{"SR6":{"kind":"Ortsdossier","preview":"Bar Ahegao (J) ist in Netzgewitter als benannter Schauplatz mit Bezug zu Berlin belegt.","full":"Bar Ahegao (J) ist in Netzgewitter als benannter Schauplatz mit Bezug zu Berlin belegt. Das Dossier fasst den belegten Quellenstand redaktionell zusammen; eine nicht belegte Kartenposition wird nicht ergänzt.","hasMore":true,"hasExcerpt":true,"sources":[{"bookId":"sr6-netzgewitter","title":"Netzgewitter","edition":"SR6","citation":"Textzeile 5846","purpose":"description"},{"bookId":"sr6-sr6-46121p-netzgewitter","title":"SR6 [46121P] Netzgewitter","edition":"SR6","citation":"Textzeile 5846","purpose":"description"}]}}}},{"type":"Feature","geometry":null,"properties":{"id":507,"global_id":"berlin-2080:source-place:batus-taverne-restaurant-bar-in-mitte","name":"Batus Taverne Restaurant/Bar in Mitte","aliases":[],"category":"Bars, Clubs und Gastronomie","detail_map":"Berlin","source_pages":"Textzeile 8345","map_source":"Berlin 2080","placement_note":"Keine belastbare Einzelposition; Eintrag bleibt im Katalog","accuracy":"Nur Stadt oder Lore-Teilraum belegt","source_map":"source-supplement","source_panel":"Berlin","description_preview":"Batus Taverne Restaurant/Bar in Mitte ist in Berlin 2080 als benannter Schauplatz mit Bezug zu Berlin belegt.","description_full":"Batus Taverne Restaurant/Bar in Mitte ist in Berlin 2080 als benannter Schauplatz mit Bezug zu Berlin belegt. Das Dossier fasst den belegten Quellenstand redaktionell zusammen; eine nicht belegte Kartenposition wird nicht ergänzt.","description_source":"Textzeile 8345","description_kind":"Ortsdossier","description_has_more":true,"detail_plans":[],"alternate_locations":[],"sources":[{"bookId":"sr6-berlin-2080","title":"Berlin 2080","edition":"SR6","citation":"Textzeile 8345","purpose":"description"}],"map_sources":[],"editions":["SR6"],"edition_descriptions":{"SR6":{"kind":"Ortsdossier","preview":"Batus Taverne Restaurant/Bar in Mitte ist in Berlin 2080 als benannter Schauplatz mit Bezug zu Berlin belegt.","full":"Batus Taverne Restaurant/Bar in Mitte ist in Berlin 2080 als benannter Schauplatz mit Bezug zu Berlin belegt. Das Dossier fasst den belegten Quellenstand redaktionell zusammen; eine nicht belegte Kartenposition wird nicht ergänzt.","hasMore":true,"hasExcerpt":true,"sources":[{"bookId":"sr6-berlin-2080","title":"Berlin 2080","edition":"SR6","citation":"Textzeile 8345","purpose":"description"}]}}}},{"type":"Feature","geometry":null,"properties":{"id":508,"global_id":"berlin-2080:source-place:der-arlebnis-club","name":"Der Arlebnis Club","aliases":[],"category":"Bars, Clubs und Gastronomie","detail_map":"Berlin","source_pages":"Textzeile 7191","map_source":"Berlin","placement_note":"Keine belastbare Einzelposition; Eintrag bleibt im Katalog","accuracy":"Nur Stadt oder Lore-Teilraum belegt","source_map":"source-supplement","source_panel":"Berlin","description_preview":"Der Arlebnis Club ist in Berlin als benannter Schauplatz mit Bezug zu Berlin belegt.","description_full":"Der Arlebnis Club ist in Berlin als benannter Schauplatz mit Bezug zu Berlin belegt. Das Dossier fasst den belegten Quellenstand redaktionell zusammen; eine nicht belegte Kartenposition wird nicht ergänzt.","description_source":"Textzeile 7191","description_kind":"Ortsdossier","description_has_more":true,"detail_plans":[],"alternate_locations":[],"sources":[{"bookId":"sr4-berlin","title":"Berlin","edition":"SR4","citation":"Textzeile 7191","purpose":"description"}],"map_sources":[],"editions":["SR4"],"edition_descriptions":{"SR4":{"kind":"Ortsdossier","preview":"Der Arlebnis Club ist in Berlin als benannter Schauplatz mit Bezug zu Berlin belegt.","full":"Der Arlebnis Club ist in Berlin als benannter Schauplatz mit Bezug zu Berlin belegt. Das Dossier fasst den belegten Quellenstand redaktionell zusammen; eine nicht belegte Kartenposition wird nicht ergänzt.","hasMore":true,"hasExcerpt":true,"sources":[{"bookId":"sr4-berlin","title":"Berlin","edition":"SR4","citation":"Textzeile 7191","purpose":"description"}]}}}},{"type":"Feature","geometry":null,"properties":{"id":509,"global_id":"berlin-2080:source-place:die-anarcho-bar","name":"Die Anarcho-Bar","aliases":[],"category":"Bars, Clubs und Gastronomie","detail_map":"Berlin","source_pages":"Textzeile 15535","map_source":"Berlin","placement_note":"Keine belastbare Einzelposition; Eintrag bleibt im Katalog","accuracy":"Nur Stadt oder Lore-Teilraum belegt","source_map":"source-supplement","source_panel":"Berlin","description_preview":"Die Anarcho-Bar ist in Berlin als benannter Schauplatz mit Bezug zu Berlin belegt.","description_full":"Die Anarcho-Bar ist in Berlin als benannter Schauplatz mit Bezug zu Berlin belegt. Das Dossier fasst den belegten Quellenstand redaktionell zusammen; eine nicht belegte Kartenposition wird nicht ergänzt.","description_source":"Textzeile 15535","description_kind":"Ortsdossier","description_has_more":true,"detail_plans":[],"alternate_locations":[],"sources":[{"bookId":"sr4-berlin","title":"Berlin","edition":"SR4","citation":"Textzeile 15535","purpose":"description"}],"map_sources":[],"editions":["SR4"],"edition_descriptions":{"SR4":{"kind":"Ortsdossier","preview":"Die Anarcho-Bar ist in Berlin als benannter Schauplatz mit Bezug zu Berlin belegt.","full":"Die Anarcho-Bar ist in Berlin als benannter Schauplatz mit Bezug zu Berlin belegt. Das Dossier fasst den belegten Quellenstand redaktionell zusammen; eine nicht belegte Kartenposition wird nicht ergänzt.","hasMore":true,"hasExcerpt":true,"sources":[{"bookId":"sr4-berlin","title":"Berlin","edition":"SR4","citation":"Textzeile 15535","purpose":"description"}]}}}},{"type":"Feature","geometry":null,"properties":{"id":510,"global_id":"berlin-2080:source-place:domhotel-cathedral-hotel","name":"Domhotel (Cathedral Hotel)","aliases":[],"category":"Sonstige Spots","detail_map":"Berlin","source_pages":"PDF-Seite 133","map_source":"Germany Sourcebook","placement_note":"Keine belastbare Einzelposition; Eintrag bleibt im Katalog","accuracy":"Nur Stadt oder Lore-Teilraum belegt","source_map":"source-supplement","source_panel":"Berlin","description_preview":"Domhotel (Cathedral Hotel) ist in Germany Sourcebook als benannter Schauplatz mit Bezug zu Berlin belegt.","description_full":"Domhotel (Cathedral Hotel) ist in Germany Sourcebook als benannter Schauplatz mit Bezug zu Berlin belegt. Das Dossier fasst den belegten Quellenstand redaktionell zusammen; eine nicht belegte Kartenposition wird nicht ergänzt.","description_source":"PDF-Seite 133","description_kind":"Ortsdossier","description_has_more":true,"detail_plans":[],"alternate_locations":[],"sources":[{"bookId":"sr2-germany-sourcebook","title":"Germany Sourcebook","edition":"SR2","citation":"PDF-Seite 133","purpose":"description"}],"map_sources":[],"editions":["SR2"],"edition_descriptions":{"SR2":{"kind":"Ortsdossier","preview":"Domhotel (Cathedral Hotel) ist in Germany Sourcebook als benannter Schauplatz mit Bezug zu Berlin belegt.","full":"Domhotel (Cathedral Hotel) ist in Germany Sourcebook als benannter Schauplatz mit Bezug zu Berlin belegt. Das Dossier fasst den belegten Quellenstand redaktionell zusammen; eine nicht belegte Kartenposition wird nicht ergänzt.","hasMore":true,"hasExcerpt":true,"sources":[{"bookId":"sr2-germany-sourcebook","title":"Germany Sourcebook","edition":"SR2","citation":"PDF-Seite 133","purpose":"description"}]}}}},{"type":"Feature","geometry":null,"properties":{"id":511,"global_id":"berlin-2080:source-place:fort-gorgast","name":"Fort Gorgast","aliases":[],"category":"Sonstige Spots","detail_map":"Berlin","source_pages":"Textzeile 5076","map_source":"Berlin 2080","placement_note":"Keine belastbare Einzelposition; Eintrag bleibt im Katalog","accuracy":"Nur Stadt oder Lore-Teilraum belegt","source_map":"source-supplement","source_panel":"Berlin","description_preview":"Fort Gorgast ist in Berlin 2080 als benannter Schauplatz mit Bezug zu Berlin belegt.","description_full":"Fort Gorgast ist in Berlin 2080 als benannter Schauplatz mit Bezug zu Berlin belegt. Das Dossier fasst den belegten Quellenstand redaktionell zusammen; eine nicht belegte Kartenposition wird nicht ergänzt.","description_source":"Textzeile 5076","description_kind":"Ortsdossier","description_has_more":true,"detail_plans":[],"alternate_locations":[],"sources":[{"bookId":"sr6-berlin-2080","title":"Berlin 2080","edition":"SR6","citation":"Textzeile 5076","purpose":"description"}],"map_sources":[],"editions":["SR6"],"edition_descriptions":{"SR6":{"kind":"Ortsdossier","preview":"Fort Gorgast ist in Berlin 2080 als benannter Schauplatz mit Bezug zu Berlin belegt.","full":"Fort Gorgast ist in Berlin 2080 als benannter Schauplatz mit Bezug zu Berlin belegt. Das Dossier fasst den belegten Quellenstand redaktionell zusammen; eine nicht belegte Kartenposition wird nicht ergänzt.","hasMore":true,"hasExcerpt":true,"sources":[{"bookId":"sr6-berlin-2080","title":"Berlin 2080","edition":"SR6","citation":"Textzeile 5076","purpose":"description"}]}}}},{"type":"Feature","geometry":null,"properties":{"id":512,"global_id":"berlin-2080:source-place:gro-siemensstadt-ag-chemie-bezirk","name":"Groß-Siemensstadt (AG Chemie Bezirk)","aliases":[],"category":"Bezirke und Lore-Gebiete","detail_map":"Berlin","source_pages":"Textzeile 2710","map_source":"Berlin","placement_note":"Keine belastbare Einzelposition; Eintrag bleibt im Katalog","accuracy":"Nur Stadt oder Lore-Teilraum belegt","source_map":"source-supplement","source_panel":"Berlin","description_preview":"Groß-Siemensstadt (AG Chemie Bezirk) ist in Berlin als benannter Schauplatz mit Bezug zu Berlin belegt.","description_full":"Groß-Siemensstadt (AG Chemie Bezirk) ist in Berlin als benannter Schauplatz mit Bezug zu Berlin belegt. Das Dossier fasst den belegten Quellenstand redaktionell zusammen; eine nicht belegte Kartenposition wird nicht ergänzt.","description_source":"Textzeile 2710","description_kind":"Ortsdossier","description_has_more":true,"detail_plans":[],"alternate_locations":[],"sources":[{"bookId":"sr4-berlin","title":"Berlin","edition":"SR4","citation":"Textzeile 2710","purpose":"description"}],"map_sources":[],"editions":["SR4"],"edition_descriptions":{"SR4":{"kind":"Ortsdossier","preview":"Groß-Siemensstadt (AG Chemie Bezirk) ist in Berlin als benannter Schauplatz mit Bezug zu Berlin belegt.","full":"Groß-Siemensstadt (AG Chemie Bezirk) ist in Berlin als benannter Schauplatz mit Bezug zu Berlin belegt. Das Dossier fasst den belegten Quellenstand redaktionell zusammen; eine nicht belegte Kartenposition wird nicht ergänzt.","hasMore":true,"hasExcerpt":true,"sources":[{"bookId":"sr4-berlin","title":"Berlin","edition":"SR4","citation":"Textzeile 2710","purpose":"description"}]}}}},{"type":"Feature","geometry":null,"properties":{"id":513,"global_id":"berlin-2080:source-place:pariser-platz","name":"Pariser Platz","aliases":[],"category":"Sonstige Spots","detail_map":"Berlin","source_pages":"Textzeile 5449","map_source":"Berlin","placement_note":"Keine belastbare Einzelposition; Eintrag bleibt im Katalog","accuracy":"Nur Stadt oder Lore-Teilraum belegt","source_map":"source-supplement","source_panel":"Berlin","description_preview":"Pariser Platz ist in Berlin als benannter Schauplatz mit Bezug zu Berlin belegt.","description_full":"Pariser Platz ist in Berlin als benannter Schauplatz mit Bezug zu Berlin belegt. Das Dossier fasst den belegten Quellenstand redaktionell zusammen; eine nicht belegte Kartenposition wird nicht ergänzt.","description_source":"Textzeile 5449","description_kind":"Ortsdossier","description_has_more":true,"detail_plans":[],"alternate_locations":[],"sources":[{"bookId":"sr4-berlin","title":"Berlin","edition":"SR4","citation":"Textzeile 5449","purpose":"description"}],"map_sources":[],"editions":["SR4"],"edition_descriptions":{"SR4":{"kind":"Ortsdossier","preview":"Pariser Platz ist in Berlin als benannter Schauplatz mit Bezug zu Berlin belegt.","full":"Pariser Platz ist in Berlin als benannter Schauplatz mit Bezug zu Berlin belegt. Das Dossier fasst den belegten Quellenstand redaktionell zusammen; eine nicht belegte Kartenposition wird nicht ergänzt.","hasMore":true,"hasExcerpt":true,"sources":[{"bookId":"sr4-berlin","title":"Berlin","edition":"SR4","citation":"Textzeile 5449","purpose":"description"}]}}}},{"type":"Feature","geometry":null,"properties":{"id":514,"global_id":"berlin-2080:source-place:reinickendorf-schering-zentrale-tegel-z-ic-bezirk","name":"Reinickendorf (Schering-Zentrale), Tegel (Z-IC Bezirk)","aliases":[],"category":"Bezirke und Lore-Gebiete","detail_map":"Berlin","source_pages":"Textzeile 3100","map_source":"Berlin","placement_note":"Keine belastbare Einzelposition; Eintrag bleibt im Katalog","accuracy":"Nur Stadt oder Lore-Teilraum belegt","source_map":"source-supplement","source_panel":"Berlin","description_preview":"Reinickendorf (Schering-Zentrale), Tegel (Z-IC Bezirk) ist in Berlin als benannter Schauplatz mit Bezug zu Berlin belegt.","description_full":"Reinickendorf (Schering-Zentrale), Tegel (Z-IC Bezirk) ist in Berlin als benannter Schauplatz mit Bezug zu Berlin belegt. Das Dossier fasst den belegten Quellenstand redaktionell zusammen; eine nicht belegte Kartenposition wird nicht ergänzt.","description_source":"Textzeile 3100","description_kind":"Ortsdossier","description_has_more":true,"detail_plans":[],"alternate_locations":[],"sources":[{"bookId":"sr4-berlin","title":"Berlin","edition":"SR4","citation":"Textzeile 3100","purpose":"description"}],"map_sources":[],"editions":["SR4"],"edition_descriptions":{"SR4":{"kind":"Ortsdossier","preview":"Reinickendorf (Schering-Zentrale), Tegel (Z-IC Bezirk) ist in Berlin als benannter Schauplatz mit Bezug zu Berlin belegt.","full":"Reinickendorf (Schering-Zentrale), Tegel (Z-IC Bezirk) ist in Berlin als benannter Schauplatz mit Bezug zu Berlin belegt. Das Dossier fasst den belegten Quellenstand redaktionell zusammen; eine nicht belegte Kartenposition wird nicht ergänzt.","hasMore":true,"hasExcerpt":true,"sources":[{"bookId":"sr4-berlin","title":"Berlin","edition":"SR4","citation":"Textzeile 3100","purpose":"description"}]}}}},{"type":"Feature","geometry":null,"properties":{"id":515,"global_id":"berlin-2080:source-place:residenz-spa-hotel-potsdam","name":"Residenz & Spa Hotel Potsdam","aliases":[],"category":"Sonstige Spots","detail_map":"Berlin","source_pages":"Textzeile 5733","map_source":"Berlin","placement_note":"Keine belastbare Einzelposition; Eintrag bleibt im Katalog","accuracy":"Nur Stadt oder Lore-Teilraum belegt","source_map":"source-supplement","source_panel":"Berlin","description_preview":"Residenz & Spa Hotel Potsdam ist in Berlin als benannter Schauplatz mit Bezug zu Berlin belegt.","description_full":"Residenz & Spa Hotel Potsdam ist in Berlin als benannter Schauplatz mit Bezug zu Berlin belegt. Das Dossier fasst den belegten Quellenstand redaktionell zusammen; eine nicht belegte Kartenposition wird nicht ergänzt.","description_source":"Textzeile 5733","description_kind":"Ortsdossier","description_has_more":true,"detail_plans":[],"alternate_locations":[],"sources":[{"bookId":"sr4-berlin","title":"Berlin","edition":"SR4","citation":"Textzeile 5733","purpose":"description"}],"map_sources":[],"editions":["SR4"],"edition_descriptions":{"SR4":{"kind":"Ortsdossier","preview":"Residenz & Spa Hotel Potsdam ist in Berlin als benannter Schauplatz mit Bezug zu Berlin belegt.","full":"Residenz & Spa Hotel Potsdam ist in Berlin als benannter Schauplatz mit Bezug zu Berlin belegt. Das Dossier fasst den belegten Quellenstand redaktionell zusammen; eine nicht belegte Kartenposition wird nicht ergänzt.","hasMore":true,"hasExcerpt":true,"sources":[{"bookId":"sr4-berlin","title":"Berlin","edition":"SR4","citation":"Textzeile 5733","purpose":"description"}]}}}}]}
