{"type":"FeatureCollection","name":"Salt Lake City Orte","features":[{"type":"Feature","geometry":{"type":"Point","coordinates":[-111.891,40.7608]},"properties":{"id":1,"global_id":"salt-lake-city:place:1-salt-lake-city-lore-raum","name":"Salt Lake City Lore-Raum","aliases":[],"category":"Bezirke","detail_map":"Salt Lake City Lore-Raum","source_pages":"Stadt- oder Regionalkapitel","map_source":"Native American Nations Volume One","placement_note":"Geografischer Bezugspunkt des Lore-Distrikts Salt Lake City Lore-Raum","accuracy":"Lore-Bezirkszentrum; Grenzpolygon noch nicht georeferenziert","source_map":"salt-lake-city-content","source_panel":"Salt Lake City Lore-Raum","description_preview":"Salt Lake City ist ein urbaner Knoten der Ute Nation mit starkem religiösem und regionalpolitischem Erbe.","description_full":"Salt Lake City ist ein urbaner Knoten der Ute Nation mit starkem religiösem und regionalpolitischem Erbe. Die Position ist auf den belegten Stadt- oder Teilraum angenähert; eine hausgenaue Lage und eine weitergehende eigene Fließtextbeschreibung sind aus dem zugeordneten Datenmaterial nicht sicher ableitbar.","description_source":"Stadt- oder Regionalkapitel","description_kind":"Ortsprofil","description_has_more":true,"detail_plans":[],"alternate_locations":[],"sources":[{"bookId":"sr1-native-american-nations-volume-one","title":"Native American Nations Volume One","edition":"SR1","citation":"Stadt- oder Regionalkapitel","purpose":"description"}],"map_sources":[],"editions":["SR1"],"edition_descriptions":{"SR1":{"kind":"Ortsprofil","preview":"Salt Lake City ist ein urbaner Knoten der Ute Nation mit starkem religiösem und regionalpolitischem Erbe.","full":"Salt Lake City ist ein urbaner Knoten der Ute Nation mit starkem religiösem und regionalpolitischem Erbe. Die Position ist auf den belegten Stadt- oder Teilraum angenähert; eine hausgenaue Lage und eine weitergehende eigene Fließtextbeschreibung sind aus dem zugeordneten Datenmaterial nicht sicher ableitbar.","hasMore":true,"hasExcerpt":true,"sources":[{"bookId":"sr1-native-american-nations-volume-one","title":"Native American Nations Volume One","edition":"SR1","citation":"Stadt- oder Regionalkapitel","purpose":"description"}]}}}}]}
