{"type":"FeatureCollection","name":"Perth Orte","features":[{"type":"Feature","geometry":null,"properties":{"id":2,"global_id":"perth:place:2-mindarie-water-tower","name":"Mindarie Water Tower","aliases":[],"category":"Sichtseeing und Monumente","detail_map":"Perth","source_pages":"Mindarie Water Tower","map_source":"Lifestyle 2080","placement_note":"Keine belastbare Einzelposition; Eintrag bleibt im Katalog","accuracy":"Nur Stadt oder Lore-Teilraum belegt","source_map":"perth-content","source_panel":"Perth","description_preview":"Der Wasserturm ist ein markanter lokaler Veranstaltungs- und Szenestandort.","description_full":"Der Wasserturm ist ein markanter lokaler Veranstaltungs- und Szenestandort. Die Position ist auf den belegten Stadt- oder Teilraum angenähert; eine hausgenaue Lage und eine weitergehende eigene Fließtextbeschreibung sind aus dem zugeordneten Datenmaterial nicht sicher ableitbar.","description_source":"Mindarie Water Tower","description_kind":"Ortsprofil","description_has_more":true,"detail_plans":[],"alternate_locations":[],"sources":[{"bookId":"sr5-lifestyle-2080","title":"Lifestyle 2080","edition":"SR5","citation":"Mindarie Water Tower","purpose":"description"}],"map_sources":[],"editions":["SR5"],"edition_descriptions":{"SR5":{"kind":"Ortsprofil","preview":"Der Wasserturm ist ein markanter lokaler Veranstaltungs- und Szenestandort.","full":"Der Wasserturm ist ein markanter lokaler Veranstaltungs- und Szenestandort. Die Position ist auf den belegten Stadt- oder Teilraum angenähert; eine hausgenaue Lage und eine weitergehende eigene Fließtextbeschreibung sind aus dem zugeordneten Datenmaterial nicht sicher ableitbar.","hasMore":true,"hasExcerpt":true,"sources":[{"bookId":"sr5-lifestyle-2080","title":"Lifestyle 2080","edition":"SR5","citation":"Mindarie Water Tower","purpose":"description"}]}}}},{"type":"Feature","geometry":{"type":"Point","coordinates":[115.8613,-31.9523]},"properties":{"id":1,"global_id":"perth:place:1-perth-lore-raum","name":"Perth Lore-Raum","aliases":[],"category":"Bezirke","detail_map":"Perth Lore-Raum","source_pages":"Stadt- oder Regionalkapitel","map_source":"Target Awakened Lands","placement_note":"Geografischer Bezugspunkt des Lore-Distrikts Perth Lore-Raum","accuracy":"Lore-Bezirkszentrum; Grenzpolygon noch nicht georeferenziert","source_map":"perth-content","source_panel":"Perth Lore-Raum","description_preview":"Perth ist ein isolierter westaustralischer Küstenplex mit Bergbau-, Konzern- und Unterweltbezügen.","description_full":"Perth ist ein isolierter westaustralischer Küstenplex mit Bergbau-, Konzern- und Unterweltbezügen. Die Position ist auf den belegten Stadt- oder Teilraum angenähert; eine hausgenaue Lage und eine weitergehende eigene Fließtextbeschreibung sind aus dem zugeordneten Datenmaterial nicht sicher ableitbar.","description_source":"Stadt- oder Regionalkapitel","description_kind":"Ortsprofil","description_has_more":true,"detail_plans":[],"alternate_locations":[],"sources":[{"bookId":"sr3-target-awakened-lands","title":"Target Awakened Lands","edition":"SR3","citation":"Stadt- oder Regionalkapitel","purpose":"description"}],"map_sources":[],"editions":["SR3"],"edition_descriptions":{"SR3":{"kind":"Ortsprofil","preview":"Perth ist ein isolierter westaustralischer Küstenplex mit Bergbau-, Konzern- und Unterweltbezügen.","full":"Perth ist ein isolierter westaustralischer Küstenplex mit Bergbau-, Konzern- und Unterweltbezügen. Die Position ist auf den belegten Stadt- oder Teilraum angenähert; eine hausgenaue Lage und eine weitergehende eigene Fließtextbeschreibung sind aus dem zugeordneten Datenmaterial nicht sicher ableitbar.","hasMore":true,"hasExcerpt":true,"sources":[{"bookId":"sr3-target-awakened-lands","title":"Target Awakened Lands","edition":"SR3","citation":"Stadt- oder Regionalkapitel","purpose":"description"}]}}}}]}
