{"type":"FeatureCollection","name":"Seattle Metroplexgrenze","features":[{"type":"Feature","geometry":{"type":"MultiPolygon","coordinates":[[[[-122.6403763,47.150008],[-122.6381903,47.1546411],[-122.6379677,47.1577125],[-122.6365622,47.1602221],[-122.6353606,47.1637017],[-122.6344809,47.1646537],[-122.6340839,47.1655472],[-122.6324317,47.1665721],[-122.6321179,47.1673836],[-122.6313549325829,47.16729013483422],[-122.62,47.19],[-122.5975497295492,47.2236754056762],[-122.6003246,47.2213185],[-122.6016892,47.2192934],[-122.6030606,47.2185241],[-122.6042,47.2182924],[-122.6076389,47.2185844],[-122.6118419,47.2200812],[-122.614275,47.221914],[-122.6175954,47.2255643],[-122.6202413,47.2278742],[-122.6214347,47.2301777],[-122.6251015,47.2349785],[-122.6280697,47.2369448],[-122.6301179,47.2379101],[-122.6318364,47.2394681],[-122.6327965,47.241158],[-122.6331219,47.2424908],[-122.6339502,47.2437475],[-122.6363167,47.2454226],[-122.6416702,47.2485155],[-122.6434661,47.2512271],[-122.6452115,47.2532519],[-122.6473197,47.2550465],[-122.6501479,47.2565862],[-122.6527916,47.2587081],[-122.6564861,47.2628498],[-122.6608143,47.266039],[-122.6676919,47.2701076],[-122.6686937,47.271189],[-122.669536,47.2738512],[-122.6681152,47.2764511],[-122.6673319,47.2770957],[-122.6648684,47.2783802],[-122.6646219,47.2782818],[-122.6651501,47.278222],[-122.6659881,47.2776308],[-122.6659766,47.2773437],[-122.664911,47.2768024],[-122.6605008,47.2760376],[-122.6572724,47.2740221],[-122.6544648,47.273876],[-122.6534107,47.2727596],[-122.6526425,47.2725001],[-122.651615,47.2734112],[-122.6512921,47.2732624],[-122.652039,47.2717474],[-122.6515392,47.271051],[-122.6523232,47.2699945],[-122.652032,47.269156],[-122.6515837,47.2689539],[-122.6509787,47.2693587],[-122.6503252,47.2692486],[-122.6482602,47.2714756],[-122.647043,47.2712784],[-122.6466196,47.2702536],[-122.6471363,47.2683865],[-122.6484247,47.2689606],[-122.6491859,47.2689329],[-122.6497065,47.2685918],[-122.6481891,47.2661434],[-122.643367,47.2639803],[-122.639644,47.2618034],[-122.6387573,47.2617536],[-122.6380835,47.26309],[-122.6369081,47.2644421],[-122.6344063,47.2666552],[-122.633887,47.2666045],[-122.6337983,47.2663473],[-122.6338001,47.2646949],[-122.6315205,47.2668648],[-122.6301991,47.2676806],[-122.6293433,47.2676193],[-122.6280481,47.2665182],[-122.6276623,47.2650237],[-122.6279294,47.2618039],[-122.628646,47.2609132],[-122.6287248,47.2599034],[-122.6252049,47.2592797],[-122.6243364,47.2595675],[-122.6235019,47.2591952],[-122.6176773,47.2560924],[-122.6158762,47.254836],[-122.6158106,47.2545101],[-122.6141803,47.2539009],[-122.6117837,47.2514197],[-122.6086996,47.2507193],[-122.6072398,47.2497533],[-122.6063722,47.2489009],[-122.6041375,47.2455592],[-122.6035747,47.244294],[-122.6035182,47.2432601],[-122.601548,47.2417484],[-122.6012704,47.240713],[-122.6020867,47.2405679],[-122.602391,47.2410112],[-122.6027182,47.2404712],[-122.6021838,47.2394977],[-122.6007027,47.2383402],[-122.6001792,47.2387943],[-122.6000312,47.2403163],[-122.6001362,47.2417894],[-122.6007732,47.2418545],[-122.59894,47.2421546],[-122.5981411,47.2416915],[-122.5964614,47.2396341],[-122.5939732,47.2388761],[-122.5895176,47.2368716],[-122.5890926,47.235546],[-122.5892690645204,47.2360964032194],[-122.58,47.25],[-122.54,47.29],[-122.45,47.33],[-122.4,47.39],[-122.39,47.47],[-122.38,47.5],[-122.41,47.53],[-122.4,47.58],[-122.43,47.63],[-122.41,47.7],[-122.39,47.75],[-122.35,47.81],[-122.33,47.88],[-122.31,48.04],[-122.05,48.04],[-121.98,47.92],[-121.95,47.82],[-121.98,47.74],[-121.86,47.68],[-121.88,47.57],[-121.85,47.48],[-121.92,47.36],[-121.94,47.13],[-121.99,47.04],[-122.08,46.94],[-122.16,46.88],[-122.28,46.84],[-122.48,46.88],[-122.61,46.92],[-122.7,46.98],[-122.73,47.05],[-122.65,47.13],[-122.64062345662168,47.148753086756656],[-122.6404447,47.1476977],[-122.64065,47.1489098],[-122.6403763,47.150008]],[[-122.2688464,47.7572368],[-122.2740472,47.7536667],[-122.2742037,47.7534236],[-122.2739655,47.7531955],[-122.2742667,47.7528011],[-122.2755336,47.7522287],[-122.2759059,47.7515857],[-122.2755073,47.7513135],[-122.2769566,47.7507513],[-122.2785725,47.7493011],[-122.2813448,47.7485566],[-122.2831644,47.7467329],[-122.2842287,47.7423985],[-122.2839369,47.7411864],[-122.2841257,47.7402398],[-122.2858595,47.7381272],[-122.2862014,47.7373338],[-122.286067,47.7368321],[-122.2848254,47.7356277],[-122.2839659,47.7331675],[-122.2813105,47.7312057],[-122.2820547,47.729538],[-122.2803663,47.7266102],[-122.2800144,47.7252476],[-122.2808198,47.7230477],[-122.2810905,47.7229882],[-122.280847,47.7229265],[-122.2807805,47.7208666],[-122.280487,47.7200745],[-122.2788534,47.7191537],[-122.27724,47.714797],[-122.2764782,47.7123591],[-122.2763839,47.7108317],[-122.2748457,47.7069351],[-122.2748801,47.7052326],[-122.2730829,47.7017107],[-122.272515,47.699381],[-122.2726823,47.6968954],[-122.2713463,47.6951325],[-122.271736,47.6949605],[-122.2716321,47.6940948],[-122.2680496,47.6920786],[-122.2676376,47.6917088],[-122.2673592,47.6907885],[-122.2664506,47.6898906],[-122.2645421,47.6891321],[-122.2629725,47.6877204],[-122.2593827,47.6875729],[-122.2557693,47.6881385],[-122.2486606,47.6857394],[-122.2466782,47.6842315],[-122.2456864,47.682934],[-122.2459752,47.6809284],[-122.2473815,47.6798827],[-122.2477347,47.678945],[-122.2483401,47.6785716],[-122.2493456,47.6771181],[-122.2498586,47.6769461],[-122.2498691,47.6757311],[-122.250515,47.6744189],[-122.2518596,47.6735438],[-122.251839,47.6729463],[-122.2522424,47.6721892],[-122.2556526,47.669809],[-122.2565683,47.6689698],[-122.2563794,47.6688542],[-122.2606509,47.6663917],[-122.266214,47.6649632],[-122.2673126,47.6643876],[-122.2672016,47.6633426],[-122.2675878,47.6607991],[-122.2686118,47.6580981],[-122.2696907,47.6569142],[-122.2721981,47.6556585],[-122.2737036,47.6541101],[-122.2763214,47.6524912],[-122.2764931,47.652046],[-122.2762441,47.6512192],[-122.2753484,47.650491],[-122.2751884,47.6494107],[-122.2754288,47.6487076],[-122.27633,47.6480911],[-122.2774973,47.6480796],[-122.2784157,47.6486867],[-122.278347,47.6493863],[-122.2789993,47.6500917],[-122.2791127,47.6507173],[-122.2811022,47.6519998],[-122.2813518,47.6528314],[-122.2809305,47.653318],[-122.2822952,47.6537979],[-122.2836032,47.654831],[-122.2865858,47.6548409],[-122.2869227,47.6560299],[-122.2875402,47.6563412],[-122.2874664,47.6568974],[-122.2884125,47.6569068],[-122.2887574,47.6563034],[-122.2879655,47.6560673],[-122.2880212,47.6556752],[-122.2904493,47.6550259],[-122.290456,47.6544904],[-122.2908326,47.6540368],[-122.2914795,47.6544445],[-122.2914816,47.6541433],[-122.2937589,47.6537868],[-122.2955159,47.6539961],[-122.2961609,47.6537357],[-122.2963831,47.6539879],[-122.2956313,47.6543837],[-122.2970184,47.6547141],[-122.2964992,47.6567336],[-122.2967274,47.6571041],[-122.2964055,47.6579334],[-122.2965358,47.6583358],[-122.295817,47.6588289],[-122.296632,47.6583572],[-122.2968591,47.6571187],[-122.2966361,47.6567028],[-122.297353,47.6545751],[-122.2977455,47.6538854],[-122.2986205,47.6536638],[-122.2979113,47.6533438],[-122.299373,47.6531542],[-122.2995601,47.6525521],[-122.2978911,47.6519002],[-122.2977789,47.6513999],[-122.2981457,47.6509218],[-122.2979572,47.6507595],[-122.298646,47.6505894],[-122.2991523,47.6488263],[-122.2997107,47.6482214],[-122.2996255,47.6476472],[-122.3007185,47.6467933],[-122.2994802,47.6459739],[-122.2988111,47.6449591],[-122.2974223,47.6444236],[-122.2973944,47.6441029],[-122.2984925,47.6440313],[-122.2975395,47.6433187],[-122.2961918,47.6435059],[-122.2962426,47.6438573],[-122.2958095,47.644082],[-122.2961194,47.6441255],[-122.2960975,47.644668],[-122.2957946,47.6449033],[-122.2947656,47.6448142],[-122.2948508,47.6438252],[-122.2945606,47.6431053],[-122.295767,47.6426182],[-122.2963084,47.6420716],[-122.2961491,47.6416267],[-122.2956768,47.6418719],[-122.2955396,47.6424403],[-122.2951913,47.6426094],[-122.2941574,47.6420847],[-122.2940776,47.6413128],[-122.2921159,47.6420809],[-122.2904849,47.6420358],[-122.289633,47.6425864],[-122.2891603,47.6424307],[-122.2891769,47.6428022],[-122.2889107,47.6425262],[-122.288557,47.6430423],[-122.2882921,47.6429717],[-122.2882931,47.6426443],[-122.2879292,47.6427456],[-122.2882439,47.6428023],[-122.2881701,47.6430321],[-122.2874802,47.643163],[-122.287505,47.6437264],[-122.2870605,47.6440102],[-122.2874348,47.6441417],[-122.2859851,47.6442305],[-122.2853818,47.6438992],[-122.2852198,47.6434601],[-122.2858398,47.642887],[-122.2857244,47.6425518],[-122.2853504,47.6427731],[-122.283302,47.6427213],[-122.2821213,47.6423164],[-122.2816585,47.642339],[-122.2813623,47.6427052],[-122.2779909,47.642764],[-122.277107,47.641968],[-122.2770163,47.6414652],[-122.2763095,47.6412113],[-122.276373,47.640168],[-122.2752928,47.6399861],[-122.2752885,47.6397847],[-122.2765575,47.6397573],[-122.276587,47.6384242],[-122.2761323,47.6384193],[-122.2765056,47.6354213],[-122.2760194,47.6338285],[-122.2770093,47.6307141],[-122.2784119,47.6296872],[-122.2788086,47.6290115],[-122.2783678,47.6289558],[-122.2783667,47.62864],[-122.2789348,47.6286445],[-122.2790451,47.6279223],[-122.2816943,47.6259392],[-122.2826673,47.6242636],[-122.2824877,47.6227155],[-122.2806688,47.6215794],[-122.2804493,47.6210345],[-122.2796501,47.6205504],[-122.2799518,47.6204851],[-122.2802965,47.6185405],[-122.2799057,47.6173947],[-122.2805686,47.6157485],[-122.2804939,47.6152844],[-122.2809507,47.6151525],[-122.2812885,47.6144977],[-122.2810427,47.6129548],[-122.2813119,47.611991],[-122.2819473,47.6114403],[-122.2819984,47.6099426],[-122.2827997,47.6082579],[-122.2831661,47.6045111],[-122.284568,47.6018625],[-122.2845042,47.6014025],[-122.2849433,47.6013844],[-122.2853275,47.6001386],[-122.2851537,47.5999582],[-122.286245,47.5984656],[-122.2862873,47.5968754],[-122.2866433,47.596368],[-122.2865186,47.5958206],[-122.286844,47.595613],[-122.2872623,47.5928722],[-122.2866062,47.591591],[-122.2861807,47.5913931],[-122.2863186,47.5910263],[-122.2856255,47.5900733],[-122.2851244,47.5886822],[-122.2858117,47.5869173],[-122.2857569,47.5862028],[-122.2875023,47.5845791],[-122.2873847,47.5833368],[-122.2849548,47.5816102],[-122.2840119,47.5802606],[-122.2820334,47.5758362],[-122.2809058,47.5744794],[-122.2804475,47.5734731],[-122.2805186,47.5721369],[-122.2797921,47.5708143],[-122.2789565,47.5703012],[-122.2780381,47.5703823],[-122.2774429,47.5716812],[-122.2771643,47.5716815],[-122.2765241,47.5705754],[-122.2749484,47.5700909],[-122.272125,47.5679595],[-122.269971,47.5679436],[-122.2681876,47.5664844],[-122.2678162,47.5657952],[-122.2670573,47.5654689],[-122.2668622,47.5647093],[-122.2673958,47.5643353],[-122.2679217,47.5644013],[-122.2682663,47.5635647],[-122.2669237,47.5619674],[-122.265525,47.5615724],[-122.2646735,47.5618315],[-122.2632991,47.5589278],[-122.261514,47.5573373],[-122.261583,47.5561905],[-122.2598232,47.5526269],[-122.2596512,47.5515493],[-122.2577064,47.5513551],[-122.257083,47.5521437],[-122.2541963,47.5535564],[-122.2542494,47.5545257],[-122.2551611,47.5548406],[-122.2548803,47.5552327],[-122.2547177,47.5570611],[-122.2555456,47.5596576],[-122.2551912,47.561576],[-122.2545392,47.561926],[-122.2513394,47.5623603],[-122.2504181,47.5619445],[-122.2479153,47.5586315],[-122.2477835,47.5566764],[-122.2463486,47.5536627],[-122.2467073,47.5522653],[-122.2495752,47.5495549],[-122.2522129,47.548781],[-122.2559058,47.548831],[-122.2573778,47.5484675],[-122.2580084,47.5467694],[-122.2572001,47.54522],[-122.259196,47.5423477],[-122.2619632,47.5401277],[-122.261738,47.5382849],[-122.2620891,47.5373584],[-122.2638908,47.5348722],[-122.2641298,47.5337962],[-122.263097,47.531866],[-122.2630938,47.5297143],[-122.2625218,47.529299],[-122.261725,47.5292764],[-122.2604004,47.5281536],[-122.2599551,47.5251],[-122.2604614,47.523732],[-122.2612852,47.5236915],[-122.2618254,47.5240571],[-122.2631794,47.5231029],[-122.263045,47.5215784],[-122.2623469,47.5207912],[-122.261529,47.521254],[-122.2610101,47.5207616],[-122.2603165,47.5208386],[-122.2570336,47.5194419],[-122.2545438,47.5177423],[-122.2538196,47.5161373],[-122.2523734,47.5152768],[-122.2493872,47.5127748],[-122.2478578,47.5128073],[-122.2471818,47.5123422],[-122.2461933,47.5123967],[-122.2459614,47.5120113],[-122.2450975,47.5117306],[-122.242373,47.5116],[-122.2382154,47.5107139],[-122.2337379,47.5083952],[-122.2307218,47.5064286],[-122.2274352,47.5048344],[-122.2268265,47.5048264],[-122.2233532,47.502736],[-122.2211935,47.5022557],[-122.2200895,47.5017087],[-122.220118,47.5013935],[-122.2196097,47.5011968],[-122.2191071,47.5004808],[-122.2141323,47.5006817],[-122.21346298922069,47.50037953772756],[-122.2120527,47.5005934],[-122.2093503,47.5020591],[-122.2090609,47.5024423],[-122.2092449,47.5026066],[-122.2068929,47.5031749],[-122.2063897,47.5028181],[-122.2045765,47.503961],[-122.2049376,47.5043245],[-122.2035507,47.5042761],[-122.202429,47.504832],[-122.2025084,47.5051345],[-122.2019497,47.5048722],[-122.2024281,47.505256],[-122.2020299,47.5057125],[-122.2022989,47.5058848],[-122.2020539,47.506146],[-122.2027631,47.5069773],[-122.2023425,47.5070758],[-122.2029987,47.5080345],[-122.2026489,47.5083204],[-122.2029118,47.5091698],[-122.2037441,47.5097788],[-122.203411,47.5109376],[-122.2049832,47.5134444],[-122.2058237,47.5137568],[-122.2088617266994,47.516483956552094],[-122.2105721,47.5176503],[-122.2116485,47.518918],[-122.2108726,47.5193124],[-122.2102404,47.5205283],[-122.2091362,47.5211423],[-122.208367,47.5219641],[-122.2072383,47.5247793],[-122.2044737,47.5275452],[-122.2052058,47.5276273],[-122.2051946,47.5280726],[-122.20549423154534,47.52827018959127],[-122.2047706,47.5287767],[-122.2051286,47.5296717],[-122.2051473,47.5311294],[-122.2034094,47.5322684],[-122.2024172,47.5338802],[-122.2017495,47.5339982],[-122.2010662,47.5345829],[-122.2013432,47.5346216],[-122.2011868,47.5348735],[-122.2005032,47.5350695],[-122.2005585,47.535289],[-122.1989003,47.5363273],[-122.1979964,47.5372756],[-122.1971087,47.5377149],[-122.1963712,47.5375243],[-122.1968948,47.5379415],[-122.1963112,47.538011],[-122.1959764,47.5391004],[-122.1969806,47.5428318],[-122.1965433,47.5458341],[-122.1970751,47.5473914],[-122.1968647,47.5500299],[-122.1973003,47.5521148],[-122.1970727,47.5529652],[-122.1966784,47.5532422],[-122.1955001,47.5530462],[-122.194414,47.5536722],[-122.1934743,47.5546702],[-122.1931171,47.5571016],[-122.1924545,47.5574202],[-122.1917123,47.5584147],[-122.1907311,47.5605885],[-122.1895895,47.5613414],[-122.189023,47.5630326],[-122.1899242,47.5644805],[-122.1914116,47.5653628],[-122.1915636,47.5667391],[-122.1928253,47.5677121],[-122.1942158,47.5699879],[-122.194728,47.570385],[-122.1948938,47.5710593],[-122.1942081,47.5715823],[-122.1918812,47.5716106],[-122.1907741,47.5722149],[-122.1895993,47.5713056],[-122.1916591,47.5705683],[-122.1922262,47.5698488],[-122.1912193,47.5684073],[-122.1899316,47.5674479],[-122.189345,47.5674459],[-122.1909538,47.5685522],[-122.1916831,47.56962],[-122.1912756,47.5704053],[-122.1892371,47.5710646],[-122.1888093,47.5704476],[-122.1899676,47.569942],[-122.1903147,47.5696465],[-122.1901699,47.569322],[-122.1880812,47.5677512],[-122.1879874,47.5674301],[-122.1875885,47.5674645],[-122.1876077,47.5677975],[-122.18973,47.5694691],[-122.1885901,47.5701496],[-122.1880913,47.5699824],[-122.1883815,47.5708993],[-122.1910664,47.5730578],[-122.1910172,47.5734353],[-122.1916864,47.5736763],[-122.18963,47.5734901],[-122.1883781,47.5756381],[-122.1867644,47.5756266],[-122.1867431,47.5752418],[-122.1857724,47.5752303],[-122.1857647,47.5763667],[-122.1881067,47.5764238],[-122.1875371,47.5777598],[-122.1890172,47.5784862],[-122.1933146,47.5780081],[-122.1974328,47.5788673],[-122.1994532,47.5803667],[-122.2002752,47.5815244],[-122.2032884,47.5818413],[-122.2035728,47.5833837],[-122.2044743,47.5838411],[-122.2050368,47.5854152],[-122.2063981,47.5875877],[-122.2070686,47.5901239],[-122.2078679,47.5905979],[-122.2080898,47.5912841],[-122.2088509,47.5917579],[-122.2091352,47.5924935],[-122.209783,47.5925587],[-122.2102336,47.5941397],[-122.2109548,47.5945555],[-122.2110146,47.5949235],[-122.2101199,47.5968705],[-122.2110155,47.5990118],[-122.2108119,47.5997102],[-122.2123092,47.6003569],[-122.214797,47.602379],[-122.215186,47.6028548],[-122.2158012,47.6053633],[-122.2159324,47.6065512],[-122.2150328,47.6086952],[-122.2113649,47.6083232],[-122.2106664,47.6077182],[-122.2087709,47.606856],[-122.2072021,47.6065225],[-122.2068108,47.6069344],[-122.2068608,47.6074316],[-122.2080563,47.6090452],[-122.2082711,47.6089758],[-122.2092414,47.6099624],[-122.2175421,47.6138659],[-122.2190151,47.6149944],[-122.2203644,47.6154389],[-122.2213212,47.6153313],[-122.2225604,47.6137415],[-122.2227468,47.6127556],[-122.2224377,47.6116269],[-122.2232169,47.6094398],[-122.2232075,47.608501],[-122.2241704,47.6079639],[-122.2269158,47.6099796],[-122.2293124,47.6130938],[-122.2302033,47.6137539],[-122.2326418,47.6142968],[-122.2356378,47.6137335],[-122.2390618,47.6149486],[-122.2416068,47.6177196],[-122.2420556,47.620321],[-122.2427653,47.6210062],[-122.242291,47.6210788],[-122.2427249,47.6212431],[-122.2428534,47.6218672],[-122.2422774,47.6242099],[-122.2430515,47.6249693],[-122.2432285,47.6255724],[-122.2431708,47.6272414],[-122.2420999,47.6293333],[-122.2420202,47.6310998],[-122.2413823,47.6340756],[-122.2418571,47.6362783],[-122.2415672,47.6376371],[-122.2422492,47.6401054],[-122.2415185,47.6430044],[-122.2402728,47.6441686],[-122.2403557,47.6457602],[-122.2394666,47.6457947],[-122.2387106,47.6453994],[-122.2335869,47.6398025],[-122.2322609,47.6389516],[-122.232308,47.6371004],[-122.23155,47.6369941],[-122.2317275,47.6397534],[-122.2308051,47.6397496],[-122.2305223,47.6393588],[-122.2305573,47.6386499],[-122.2302539,47.6386447],[-122.2299991,47.6392894],[-122.2309943,47.6404576],[-122.2317435,47.6408983],[-122.2325206,47.6429539],[-122.2325024,47.6453786],[-122.2318372,47.6497638],[-122.2305823,47.6511957],[-122.2304523,47.6519886],[-122.2295524,47.6520052],[-122.2288909,47.6516965],[-122.229218,47.651349],[-122.2283164,47.650444],[-122.2283164,47.6490563],[-122.227633,47.6464841],[-122.2276947,47.6449304],[-122.2271911,47.641879],[-122.227198,47.6409698],[-122.2274765,47.6407734],[-122.227095,47.6408223],[-122.2263581,47.6401819],[-122.2267745,47.6394442],[-122.2265792,47.638984],[-122.2262391,47.6397311],[-122.2256703,47.6401256],[-122.2235378,47.6405054],[-122.2226603,47.6414098],[-122.2222354,47.6437893],[-122.2222887,47.6452131],[-122.22195,47.6458321],[-122.2218922,47.646913],[-122.2211677,47.6484562],[-122.2188873,47.6513351],[-122.2170478,47.6527312],[-122.2147269,47.6529647],[-122.2138573,47.652727],[-122.2134818,47.6523029],[-122.2136455,47.6516174],[-122.212924,47.6494066],[-122.2121744,47.6486217],[-122.2108179,47.6482744],[-122.2072098,47.6485706],[-122.2058766,47.6491963],[-122.2057445,47.6498008],[-122.2049147,47.6498987],[-122.2045571,47.650219],[-122.2045602,47.6506375],[-122.2054742,47.6520385],[-122.2058298,47.6535171],[-122.2062554,47.6538621],[-122.2061801,47.6547483],[-122.207997,47.6566799],[-122.2069476,47.658872],[-122.2073059,47.6593415],[-122.2070012,47.6596301],[-122.2072443,47.661387],[-122.2082304,47.6631237],[-122.2082391,47.6641082],[-122.2077099,47.6642658],[-122.2079529,47.6649199],[-122.2072453,47.6670729],[-122.2077531,47.6672638],[-122.2078017,47.6684244],[-122.2072699,47.6688994],[-122.2071952,47.669625],[-122.2059132,47.671363],[-122.2058755,47.6732186],[-122.2067853,47.673839],[-122.2074408,47.6747506],[-122.2080465,47.6746463],[-122.2085677,47.675367],[-122.2095093,47.675288],[-122.2095482,47.6755689],[-122.2123885,47.6777063],[-122.2135111,47.6789231],[-122.2147738,47.6808843],[-122.2173309,47.6867741],[-122.2175092,47.6881191],[-122.2178411,47.6915185],[-122.2175463,47.6917181],[-122.2172238,47.6934953],[-122.2168418,47.6941602],[-122.2170323,47.6945982],[-122.2165534,47.6949995],[-122.2152721,47.6976867],[-122.2134481,47.6983042],[-122.2132637,47.6981335],[-122.2137104,47.6977398],[-122.2132464,47.6974488],[-122.21147,47.698386],[-122.2104583,47.7000691],[-122.2103936,47.7016547],[-122.2132544,47.7034264],[-122.2159499,47.7041113],[-122.2170205,47.7037519],[-122.2190725,47.7043174],[-122.2217774,47.7034404],[-122.2227369,47.7026613],[-122.2255072,47.701256],[-122.2260197,47.7007005],[-122.2255322,47.7000937],[-122.2258696,47.6998402],[-122.2259124,47.6990553],[-122.2269411,47.6985328],[-122.2273193,47.6979052],[-122.2297225,47.697287],[-122.232843,47.697711],[-122.2366228,47.6988794],[-122.2407346,47.6996208],[-122.2444597,47.7011805],[-122.244754,47.701509],[-122.2446485,47.7025495],[-122.246142,47.7048931],[-122.2483993,47.7063674],[-122.2492748,47.7077363],[-122.2509538,47.7081608],[-122.2521774,47.7099555],[-122.2547937,47.7118368],[-122.2582472,47.7149623],[-122.2583189,47.71566],[-122.2588234,47.7162842],[-122.2586108,47.7173116],[-122.2592326,47.7188485],[-122.2590742,47.7193153],[-122.2605731,47.7203382],[-122.2612286,47.7223583],[-122.2616406,47.7228145],[-122.2605505,47.724743],[-122.2618208,47.7259785],[-122.2616148,47.7270524],[-122.263205,47.7294145],[-122.2634516,47.7313651],[-122.2648592,47.7334606],[-122.2650562,47.7355095],[-122.2673833,47.7381343],[-122.2674669,47.7386179],[-122.2653424,47.7387776],[-122.2653961,47.7397637],[-122.264405,47.7416333],[-122.2643786,47.7426619],[-122.2630864,47.7441526],[-122.2628649,47.7457211],[-122.2613221,47.7476097],[-122.2600547,47.7483127],[-122.2597424,47.7489228],[-122.2586469,47.7491644],[-122.2574313,47.7504758],[-122.2574496,47.755368],[-122.2576938,47.7556551],[-122.2574145,47.7560026],[-122.2560633,47.7563378],[-122.2562709,47.7565757],[-122.2546313,47.7571793],[-122.2545486,47.7577822],[-122.2577035,47.7565472],[-122.2582254,47.7569239],[-122.2604273,47.7568423],[-122.2604584,47.7563181],[-122.2630577,47.7564817],[-122.2632612,47.7570633],[-122.2655155,47.7575648],[-122.2688464,47.7572368]],[[-122.25227272727273,47.36],[-122.25227272727271,47.36],[-122.225,47.46],[-122.25227272727273,47.36]],[[-122.6670861,47.2764054],[-122.666408,47.2762758],[-122.666363,47.2765146],[-122.6670861,47.2764054]],[[-122.6370541,47.2581349],[-122.6371775,47.2581404],[-122.6370582,47.2580712],[-122.6370541,47.2581349]],[[-122.063634,47.562817],[-122.0606904,47.5634361],[-122.0590928,47.562987],[-122.057679,47.5620314],[-122.056136,47.5627757],[-122.0555129,47.5636352],[-122.0551908,47.5650646],[-122.0557453,47.5651799],[-122.0555951,47.5663022],[-122.0560415,47.5668849],[-122.0574876,47.567696],[-122.0602836,47.5684747],[-122.06528355828308,47.568865766867695],[-122.0666453,47.5692355],[-122.068188,47.5704572],[-122.068638,47.571883],[-122.070816,47.573764],[-122.072216,47.574197],[-122.07468,47.576062],[-122.074926,47.576991],[-122.076923,47.580066],[-122.078677,47.580971],[-122.081279,47.58137],[-122.083187,47.582501],[-122.084416,47.584094],[-122.084814,47.586113],[-122.086842,47.587524],[-122.086444,47.588736],[-122.088435,47.591028],[-122.088373,47.591585],[-122.087421,47.591838],[-122.086659,47.592571],[-122.085285,47.595349],[-122.083584,47.596091],[-122.082357,47.597098],[-122.082044,47.598346],[-122.080875,47.599471],[-122.080792,47.599982],[-122.0818784,47.601163],[-122.081448,47.602337],[-122.079223,47.603416],[-122.078136,47.604964],[-122.075075,47.607334],[-122.07492,47.607908],[-122.069178,47.6129],[-122.069007,47.613456],[-122.0693014,47.6157196],[-122.0685165,47.6163814],[-122.0682942,47.6169343],[-122.06842,47.618248],[-122.0697248,47.6216443],[-122.071858,47.623944],[-122.071819,47.625312],[-122.070826,47.627076],[-122.071062,47.627789],[-122.070887,47.630244],[-122.071498,47.632768],[-122.073982,47.635811],[-122.078728,47.639601],[-122.0820108,47.6407319],[-122.0836716,47.6418328],[-122.0837821,47.6425447],[-122.082626,47.6420187],[-122.0822688,47.6421792],[-122.0823088,47.6425149],[-122.083118,47.6429624],[-122.0837159,47.6442652],[-122.0859013,47.6458632],[-122.0879245,47.648271],[-122.089483,47.649603],[-122.0913066,47.6530814],[-122.0920248,47.6536141],[-122.0929022,47.6550175],[-122.0940279,47.6556609],[-122.0946524,47.6556177],[-122.0948404,47.6549528],[-122.0950447,47.6554642],[-122.0953777,47.6554043],[-122.0954057,47.6551214],[-122.0961025,47.655453],[-122.097434,47.6554168],[-122.0977008,47.6557521],[-122.0983557,47.6552433],[-122.0988711,47.6553527],[-122.1003387,47.6549057],[-122.101629,47.653683],[-122.1040108,47.6525495],[-122.1076427,47.653027],[-122.1075308,47.6526997],[-122.1080366,47.6525419],[-122.1073132,47.6519036],[-122.1069716,47.6508227],[-122.1066215,47.6505268],[-122.1070253,47.6502687],[-122.1070182,47.6498992],[-122.1066356,47.6499028],[-122.106421,47.649422],[-122.1065644,47.6485155],[-122.105974,47.648157],[-122.1051112,47.646839],[-122.1047369,47.6455547],[-122.1012313,47.6434239],[-122.1017219,47.642573],[-122.1011911,47.6415765],[-122.0976915,47.6401822],[-122.0945628,47.6381721],[-122.0929191,47.6375449],[-122.09234,47.636759],[-122.0924626,47.6363539],[-122.0919549,47.6358447],[-122.0891438,47.6347787],[-122.0884293,47.6339746],[-122.0874087,47.6322353],[-122.086902,47.6305312],[-122.0870215,47.6282566],[-122.0876997,47.6263384],[-122.087634,47.6254998],[-122.0884877,47.624095],[-122.089955,47.622335],[-122.0908353,47.6217295],[-122.0912985,47.6208733],[-122.0932898,47.619639],[-122.0967662,47.6183482],[-122.0998241,47.6158772],[-122.1033989,47.6135136],[-122.1076061,47.611574],[-122.1083347,47.6108481],[-122.1091682,47.6084905],[-122.1118812,47.6055094],[-122.11023,47.601223],[-122.1097039,47.6004815],[-122.1087267,47.5999275],[-122.108253,47.598742],[-122.1090608,47.598068],[-122.110035,47.5947358],[-122.110298,47.59317],[-122.110098,47.592548],[-122.1106,47.591751],[-122.109866,47.586076],[-122.1106574,47.5819764],[-122.1118274,47.58014],[-122.1117963,47.5791252],[-122.1111554,47.5786607],[-122.111713,47.5776949],[-122.1116323,47.5771448],[-122.110095,47.575425],[-122.1067127,47.5732734],[-122.1022555,47.5722846],[-122.0967508,47.571643],[-122.0957596,47.5708326],[-122.0948978,47.5705216],[-122.0934252,47.5707499],[-122.0929654,47.5711386],[-122.0932939,47.5713929],[-122.0923858,47.5715705],[-122.0910939,47.570963],[-122.0896352,47.5698077],[-122.0873829,47.5702029],[-122.0856458,47.5700758],[-122.0826998,47.568097],[-122.0824089,47.5667965],[-122.0802065,47.5629937],[-122.0794672,47.5605007],[-122.0795601,47.5586589],[-122.0775461,47.5567136],[-122.0774621,47.5560012],[-122.0762977,47.5554627],[-122.0744148,47.5552889],[-122.0742216,47.5555641],[-122.0747688,47.5561433],[-122.0743021,47.5566936],[-122.0736101,47.5567732],[-122.0731758,47.5562232],[-122.0722845,47.5562718],[-122.0714574,47.5567051],[-122.070724,47.5578706],[-122.0692474,47.5573324],[-122.0666297,47.5579877],[-122.0650412,47.5595856],[-122.0646276,47.5612507],[-122.0665093,47.5623199],[-122.0654326,47.5625622],[-122.0643007,47.5622668],[-122.063634,47.562817]]],[[[-122.69313851289729,47.10437571096954],[-122.69313851289729,47.10562428903045],[-122.69266070275937,47.10677782474566],[-122.69177782474566,47.10766070275937],[-122.69062428903045,47.108138512897284],[-122.68937571096954,47.108138512897284],[-122.68822217525434,47.10766070275937],[-122.68733929724063,47.10677782474566],[-122.6868614871027,47.10562428903045],[-122.6868614871027,47.10437571096954],[-122.68733929724063,47.10322217525433],[-122.68822217525434,47.102339297240626],[-122.68937571096954,47.10186148710271],[-122.69062428903045,47.10186148710271],[-122.69177782474566,47.102339297240626],[-122.69266070275937,47.10322217525433],[-122.69313851289729,47.10437571096954]]],[[[-122.7210477,47.1562642],[-122.7195892,47.1567869],[-122.7182701,47.1567293],[-122.7193043,47.1583073],[-122.7200814,47.1587273],[-122.7199982,47.1590576],[-122.720591,47.1590133],[-122.7228918,47.1602585],[-122.7248353,47.1624053],[-122.726027,47.1627569],[-122.7276616,47.1627656],[-122.728309,47.1631092],[-122.7287286,47.164027],[-122.7292007,47.1668864],[-122.729029,47.1685203],[-122.727527,47.1710002],[-122.7243942,47.1750552],[-122.7205318,47.177914],[-122.7193383,47.1783325],[-122.7174501,47.1784556],[-122.7152842,47.1798329],[-122.7134737,47.1815331],[-122.7122699,47.1816349],[-122.7112621,47.1827561],[-122.7107865,47.1841837],[-122.7095987,47.1856546],[-122.7065276,47.1873471],[-122.7048064,47.1871068],[-122.7012792,47.1852333],[-122.6980685,47.1842944],[-122.6913126,47.1842884],[-122.6875714,47.1828919],[-122.6862399,47.1819624],[-122.6843342,47.1819925],[-122.6820985,47.181387],[-122.6804248,47.1803661],[-122.6735583,47.1737151],[-122.6736683,47.1728673],[-122.6743978,47.1715253],[-122.6749128,47.168316],[-122.6746124,47.1655443],[-122.6742262,47.1646981],[-122.6745454,47.1632707],[-122.6753762,47.1622913],[-122.6754702,47.1616399],[-122.6744653,47.159485],[-122.6744066,47.1581582],[-122.6757751,47.1532015],[-122.675693,47.1525936],[-122.6741719,47.15047],[-122.676819,47.1498668],[-122.6780918,47.1492337],[-122.6784852,47.1485615],[-122.6788181,47.1462253],[-122.6784567,47.144712],[-122.6765303,47.1433669],[-122.6766289,47.1428756],[-122.6786715,47.1419175],[-122.6835793,47.1408183],[-122.6876188,47.1444619],[-122.693673,47.1461826],[-122.6978151,47.1463069],[-122.6995951,47.1459975],[-122.6996123,47.1457827],[-122.6988701,47.1439181],[-122.6973336,47.1440378],[-122.6968338,47.1436708],[-122.6965302,47.1417379],[-122.6971248,47.1404605],[-122.6979173,47.1401136],[-122.7007476,47.1406622],[-122.7026173,47.1393395],[-122.7043145,47.1391682],[-122.7051153,47.1401488],[-122.7054505,47.1436963],[-122.7067109,47.1443808],[-122.7065426,47.1451002],[-122.7074733,47.1459508],[-122.7087968,47.1460106],[-122.7090329,47.1472128],[-122.7087143,47.147733],[-122.7090576,47.1476405],[-122.7099544,47.1456692],[-122.7092351,47.1435302],[-122.7087388,47.1429745],[-122.7096493,47.1426469],[-122.7090436,47.1417909],[-122.7085856,47.1393682],[-122.7073397,47.1373148],[-122.7060032,47.1362155],[-122.705527,47.1353221],[-122.7036488,47.1344048],[-122.7039449,47.1341155],[-122.7034946,47.1337152],[-122.7041008,47.1331432],[-122.7036461,47.1324032],[-122.7039294,47.1322705],[-122.7035013,47.1320173],[-122.7039264,47.1316396],[-122.7030085,47.1318142],[-122.7025084,47.1330547],[-122.7013827,47.1341842],[-122.7009888,47.1364689],[-122.700289,47.1364505],[-122.6991521,47.1360173],[-122.6984645,47.1361536],[-122.6980328,47.1355869],[-122.6971,47.1351911],[-122.6956,47.1321934],[-122.6933651,47.1301478],[-122.6933007,47.129761],[-122.6940356,47.1284617],[-122.6953849,47.1269817],[-122.697307,47.1256473],[-122.6989936,47.1248723],[-122.7024044,47.1245943],[-122.7030471,47.1247982],[-122.703575,47.1253066],[-122.7033474,47.1275255],[-122.7044193,47.1283403],[-122.7063649,47.1284317],[-122.7083319,47.1277536],[-122.7094597,47.1276877],[-122.7131933,47.1290016],[-122.7157253,47.1309286],[-122.7182573,47.1342861],[-122.7220338,47.1380229],[-122.7267116,47.1399203],[-122.7286428,47.1412339],[-122.7311319,47.1438902],[-122.7314754,47.1452376],[-122.7323764,47.1464588],[-122.7367538,47.1481225],[-122.7399295,47.1496694],[-122.7412599,47.1509828],[-122.7419466,47.1523544],[-122.7416891,47.1533759],[-122.7410024,47.1543973],[-122.7376979,47.1566736],[-122.7334388,47.1584382],[-122.7254847,47.1603129],[-122.7240205,47.1602487],[-122.7263376,47.1599666],[-122.7263644,47.1590091],[-122.7257454,47.159389],[-122.7245974,47.1589595],[-122.7219753,47.1566412],[-122.7210477,47.1562642]]],[[[-122.7053004,47.2291855],[-122.7049364,47.2304118],[-122.7043199,47.2312326],[-122.7030286,47.2315524],[-122.700954,47.2314043],[-122.6929733,47.2296935],[-122.6909102,47.2295616],[-122.6860607,47.2314274],[-122.6831917,47.2317636],[-122.6795558,47.2310252],[-122.6771453,47.2288582],[-122.6764538,47.2269211],[-122.6754344,47.2252794],[-122.6754769,47.2231941],[-122.6734053,47.2237497],[-122.6723276,47.2237398],[-122.6687985,47.2234761],[-122.6671722,47.2230211],[-122.6669265,47.221346],[-122.6673405,47.2210147],[-122.667975,47.2211119],[-122.6681546,47.2207855],[-122.6690915,47.2156881],[-122.668577,47.2149924],[-122.6667998,47.213675],[-122.663975,47.2128095],[-122.6618634,47.2127648],[-122.6594847,47.2149067],[-122.6584102,47.2164451],[-122.6572856,47.2170466],[-122.6533779,47.216707],[-122.6507322,47.21582],[-122.6491351,47.215609],[-122.6475914,47.2121467],[-122.6464118,47.210399],[-122.6449312,47.2093338],[-122.6441885,47.2071903],[-122.6419089,47.2064859],[-122.6418632,47.2047663],[-122.6425283,47.2017618],[-122.6433079,47.2001122],[-122.6453196,47.1988758],[-122.6483109,47.1975908],[-122.6550186,47.195772],[-122.6592733,47.1951594],[-122.6593148,47.1948484],[-122.6598779,47.1946703],[-122.6597857,47.1944559],[-122.6752081,47.1920148],[-122.6819557,47.1914573],[-122.6834381,47.1918658],[-122.6845496,47.1927645],[-122.6855227,47.193127],[-122.6868182,47.1932027],[-122.6896143,47.1927844],[-122.6930435,47.1936448],[-122.6940768,47.1942627],[-122.6966017,47.1968911],[-122.6976839,47.1975961],[-122.703048,47.1989814],[-122.7064169,47.1983844],[-122.713383,47.1995289],[-122.7159364,47.1995619],[-122.7214567,47.2014652],[-122.7247873,47.2034089],[-122.7268005,47.2052808],[-122.7275093,47.2076223],[-122.7270433,47.2079884],[-122.7259268,47.2078103],[-122.7243442,47.208859],[-122.7212742,47.209832],[-122.7188248,47.2122786],[-122.7173393,47.214267],[-122.7161257,47.2165421],[-122.7150432,47.2175873],[-122.7140772,47.2178247],[-122.7091935,47.2219707],[-122.7059364,47.223878],[-122.7054412,47.2262978],[-122.7053004,47.2291855]]],[[[-122.516816,47.381897],[-122.5212025,47.3850504],[-122.5226741,47.3867352],[-122.5238546,47.3886891],[-122.5254068,47.3902369],[-122.5269327,47.3929806],[-122.5273888,47.3968774],[-122.5263864,47.3972007],[-122.526423,47.3986447],[-122.5259639,47.399302],[-122.5242369,47.4001856],[-122.5219453,47.4020219],[-122.5198466,47.4031773],[-122.5190633,47.4031096],[-122.5200361,47.403845],[-122.5207186,47.4049125],[-122.5219983,47.4052461],[-122.5219926,47.4058331],[-122.5204138,47.4084356],[-122.5187473,47.4101473],[-122.5130688,47.4146489],[-122.513424,47.4152427],[-122.5136587,47.4168912],[-122.5144896,47.4182539],[-122.5119022,47.4225039],[-122.5117863,47.4236421],[-122.5122291,47.4249604],[-122.5122731,47.4272576],[-122.5118914,47.4300301],[-122.5111299,47.4311993],[-122.5108579,47.4322116],[-122.5118354,47.4335873],[-122.5139313,47.4402003],[-122.5134475,47.4411],[-122.5124847,47.4418493],[-122.5129211,47.4441575],[-122.5125833,47.4463053],[-122.5136757,47.4480391],[-122.5136452,47.448378],[-122.5133591,47.4492253],[-122.512121,47.4507699],[-122.5117488,47.4544152],[-122.5092947,47.4545718],[-122.5090408,47.4565324],[-122.509285,47.4579832],[-122.5076265,47.4596866],[-122.5084518,47.4615022],[-122.5056998,47.4620529],[-122.5024999,47.4639237],[-122.5028462,47.4654515],[-122.502415,47.466786],[-122.4998494,47.4673203],[-122.4975415,47.4697578],[-122.4972057,47.4703248],[-122.4974702,47.4711965],[-122.497312,47.47241],[-122.4965819,47.47414],[-122.4977387,47.4754815],[-122.497678,47.4758157],[-122.4921476,47.4783158],[-122.4884538,47.4793348],[-122.482224,47.4803474],[-122.4819635,47.4822005],[-122.481041,47.48258],[-122.4800421,47.4839288],[-122.480015,47.4880447],[-122.4794291,47.4891463],[-122.4795156,47.4903868],[-122.4787734,47.4911577],[-122.4790492,47.4933576],[-122.4770998,47.5008429],[-122.4771353,47.5034028],[-122.4758476,47.5052453],[-122.475757,47.5083459],[-122.4763912,47.5092671],[-122.4764436,47.5100638],[-122.4740756,47.5111841],[-122.4705963,47.5107318],[-122.4652345,47.5088891],[-122.4639989,47.5087474],[-122.4627123,47.5080076],[-122.4533724,47.5044272],[-122.4520788,47.503435],[-122.4516538,47.5026147],[-122.4562234,47.4999362],[-122.4586914,47.4979848],[-122.4599103,47.4964593],[-122.4602839,47.4942428],[-122.459448,47.4915496],[-122.4601693,47.489781],[-122.4606095,47.4873758],[-122.4601742,47.4864581],[-122.4547857,47.4819158],[-122.4480843,47.4782386],[-122.4457103,47.475275],[-122.4449192,47.4729272],[-122.4439875,47.4716745],[-122.4421026,47.4705786],[-122.436305,47.4680486],[-122.4336117,47.4662127],[-122.4335353,47.4659022],[-122.4360421,47.4636157],[-122.4382896,47.4601317],[-122.4436076,47.454617],[-122.4441771,47.4529851],[-122.4439325,47.4522073],[-122.4432588,47.4514548],[-122.4400259,47.4494018],[-122.4408362,47.447588],[-122.4402094,47.4452955],[-122.4400609,47.4420127],[-122.4397683,47.4411265],[-122.4405066,47.4379611],[-122.4402891,47.4366476],[-122.4393502,47.4346564],[-122.4361792,47.4308639],[-122.4354161,47.4286532],[-122.4334013,47.4263687],[-122.4299545,47.423658],[-122.4297835,47.4226656],[-122.4300331,47.4215193],[-122.4337552,47.4213386],[-122.4369882,47.4193069],[-122.4391597,47.4187277],[-122.4399787,47.4178406],[-122.4400833,47.4173943],[-122.4392707,47.4157073],[-122.4371863,47.41245],[-122.4373642,47.4107763],[-122.4385657,47.4085015],[-122.4370119,47.406926],[-122.4383833,47.4062972],[-122.4395501,47.4066243],[-122.440836,47.4059774],[-122.4452467,47.4053492],[-122.4460819,47.404778],[-122.4471283,47.4033219],[-122.4486357,47.4026914],[-122.4520443,47.4038364],[-122.4529352,47.4030689],[-122.4549007,47.4031244],[-122.4602296,47.4021767],[-122.4623789,47.401168],[-122.4632391,47.4012458],[-122.4645512,47.4019276],[-122.4664127,47.402004],[-122.4647329,47.4013765],[-122.4637534,47.4002689],[-122.4638688,47.3997924],[-122.4646857,47.3990559],[-122.4653289,47.3975127],[-122.4652708,47.3946489],[-122.4663529,47.3933409],[-122.4663435,47.3916742],[-122.4660328,47.390926],[-122.4653884,47.3908302],[-122.4652533,47.3903243],[-122.4643294,47.3898546],[-122.4637876,47.3899975],[-122.4635106,47.3904375],[-122.4618656,47.3907177],[-122.4608553,47.3920337],[-122.4592987,47.3933347],[-122.4563347,47.393939],[-122.4563087,47.3945178],[-122.4558167,47.3948761],[-122.4525774,47.3949163],[-122.4508385,47.3945289],[-122.4484784,47.3926652],[-122.4472522,47.3902622],[-122.4460661,47.3897533],[-122.4479636,47.3875067],[-122.4499175,47.3859746],[-122.4507716,47.384951],[-122.4507975,47.3847565],[-122.4500829,47.3847243],[-122.4519699,47.3839411],[-122.4529837,47.3840087],[-122.4579885,47.386124],[-122.4615091,47.3872259],[-122.4657374,47.3879599],[-122.4710804,47.3878183],[-122.4778947,47.385752],[-122.4787756,47.3851851],[-122.4785718,47.3849708],[-122.4800309,47.384308],[-122.4811494,47.3830276],[-122.4823139,47.3824024],[-122.4848058,47.3802732],[-122.4861812,47.3731616],[-122.4878522,47.3689164],[-122.4880051,47.3668],[-122.4884369,47.3659662],[-122.488504,47.3632429],[-122.4882262,47.3611448],[-122.4886746,47.36015],[-122.4888098,47.357089],[-122.4891477,47.356642],[-122.4898105,47.3539823],[-122.4909368,47.3517195],[-122.4907061,47.3505165],[-122.4912974,47.3481252],[-122.4913547,47.3450163],[-122.4919339,47.3425243],[-122.4916215,47.3412655],[-122.49217,47.3380604],[-122.4912873,47.3346667],[-122.4912229,47.3330835],[-122.4922335,47.3315731],[-122.4945642,47.3306482],[-122.505037,47.3312136],[-122.5067598,47.3326792],[-122.5086468,47.3335913],[-122.510572,47.3337155],[-122.5130612,47.3332786],[-122.5188506,47.3338067],[-122.5212964,47.3356904],[-122.5248364,47.3399019],[-122.5277808,47.3448729],[-122.5280834,47.3462339],[-122.5274536,47.3538369],[-122.525681,47.3584957],[-122.5250735,47.3619045],[-122.5232912,47.3643209],[-122.5228716,47.3662759],[-122.5178644,47.3680543],[-122.5157827,47.3697496],[-122.5157284,47.3711213],[-122.5165627,47.3734312],[-122.5147849,47.3771745],[-122.5156018,47.3798431],[-122.5164202,47.380687],[-122.516816,47.381897]]],[[[-122.4863577,47.534914],[-122.4845249,47.5315111],[-122.4845561,47.5305872],[-122.4852345,47.5301698],[-122.4889074,47.5296203],[-122.4953303,47.5313883],[-122.4980121,47.5327632],[-122.4984922,47.5333837],[-122.4991227,47.5362478],[-122.5003989,47.5373383],[-122.5019905,47.5401242],[-122.5059353,47.5445024],[-122.5054629,47.544798],[-122.5022619,47.5445832],[-122.4954845,47.5453326],[-122.4928994,47.5452655],[-122.4895951,47.5445764],[-122.481762,47.5418],[-122.4809627,47.5420568],[-122.480637,47.540966],[-122.4809316,47.540473],[-122.4840483,47.5389478],[-122.4855087,47.5375289],[-122.4862877,47.5362359],[-122.4863577,47.534914]]],[[[-122.2958782,47.6418972],[-122.2961548,47.6419083],[-122.2957927,47.6422336],[-122.2958782,47.6418972]]],[[[-122.292827,47.6421321],[-122.2933958,47.6421295],[-122.2943159,47.6426625],[-122.2936908,47.6426617],[-122.292827,47.6421321]]],[[[-122.45376838222477,47.65163350146458],[-122.45251786947037,47.64463952393308],[-122.45230181986153,47.642007938720134],[-122.45241200806701,47.63605315007205],[-122.45428153624518,47.62851038152808],[-122.45434692407905,47.62545881047061],[-122.45322194602365,47.62289405889673],[-122.44690870719755,47.61400482524027],[-122.44571857283289,47.61026333735056],[-122.4456708940744,47.608429881249805],[-122.44718121973939,47.59471901438223],[-122.44806124963009,47.591862518687144],[-122.45260547094901,47.58344816729427],[-122.45442203918618,47.57822937212244],[-122.45458772354554,47.57663532726937],[-122.4579188141591,47.574793775472926],[-122.46920042046038,47.5695131646254],[-122.47991893680215,47.56559553652375],[-122.48914479393274,47.56263392050875],[-122.49410563616364,47.56162522788358],[-122.50142044460841,47.5610309052337],[-122.50888801379355,47.56132502650969],[-122.51433912783648,47.56239738794961],[-122.52258343929498,47.56506383936921],[-122.52972874528992,47.56831087656102],[-122.53424635048209,47.57121138009672],[-122.53667470545798,47.573669077874634],[-122.53809957333495,47.57587284209726],[-122.5415496225988,47.58547374545789],[-122.54465037965869,47.591148259652606],[-122.54688641819858,47.5933581600356],[-122.5485834905066,47.594299026458785],[-122.55059286058429,47.594619960010334],[-122.55390414412213,47.594385151900156],[-122.55962570925617,47.59206805993791],[-122.56512942683082,47.58920119337079],[-122.56864401730014,47.587875917181705],[-122.56986977694338,47.5877499015924],[-122.57326181395312,47.58858084004525],[-122.57733632766525,47.590330955723644],[-122.58069614774423,47.59256185220609],[-122.58267313719263,47.59446096395304],[-122.58442979906924,47.596925035476],[-122.5854166634507,47.599178336440715],[-122.58681095607754,47.60781551451033],[-122.58580305749618,47.62403787884984],[-122.58529184094313,47.627781392941735],[-122.58507370608974,47.63701926391397],[-122.5855107635959,47.638576779921905],[-122.58664667302331,47.640836926478194],[-122.59208271165575,47.644753977589204],[-122.59406476958718,47.64661779478372],[-122.59881288915221,47.65352633763344],[-122.60281409331593,47.660845646555856],[-122.60374341911563,47.664555844380864],[-122.60340562020446,47.667933081251405],[-122.60176482624878,47.67103442860657],[-122.59709717003493,47.67473062575973],[-122.59338043715306,47.67656916820369],[-122.58703502612268,47.67911642778153],[-122.58320771837595,47.68159821355125],[-122.58001767035601,47.68524952178705],[-122.57714507351513,47.69078696040592],[-122.57609177589923,47.69595101368467],[-122.57398930366176,47.70245322219503],[-122.57157189854215,47.70671239544466],[-122.56881799847413,47.709841908270754],[-122.56601513472201,47.712205237434105],[-122.56396734356214,47.7113594857724],[-122.56372618828847,47.71162881415538],[-122.56571801000943,47.71245623042755],[-122.55210037946442,47.723928686075375],[-122.55019942505422,47.72505231187315],[-122.54665833638276,47.726242599539574],[-122.54274535625738,47.72663626051871],[-122.43422147642954,47.726269750347676],[-122.4349641819124,47.7203549026502],[-122.43578128469021,47.71611027953966],[-122.43658911873341,47.71390150874667],[-122.43760143261235,47.712469796467865],[-122.4453826931933,47.706544599875116],[-122.45813693735671,47.683495467125844],[-122.45876916975148,47.68043789643827],[-122.45924276261746,47.674122559028454],[-122.45878274987466,47.667043413929754],[-122.45683318249057,47.66032575255189],[-122.45474772567857,47.6550307318803],[-122.45376838222477,47.65163350146458]]],[[[-122.2939556,47.6446254],[-122.294118,47.6444304],[-122.294197,47.6447384],[-122.2939556,47.6446254]]],[[[-122.2941775,47.6449627],[-122.2940801,47.6448796],[-122.294116,47.6448079],[-122.2941775,47.6449627]]],[[[-122.2959974,47.6464578],[-122.2941204,47.6464368],[-122.2948159,47.6459693],[-122.2984947,47.6457656],[-122.2986863,47.6460098],[-122.2959974,47.6464578]]],[[[-122.2985386,47.6491803],[-122.2986416,47.6491109],[-122.2986251,47.6492563],[-122.2985386,47.6491803]]],[[[-122.297779,47.6497777],[-122.2977148,47.649714],[-122.2979335,47.6495195],[-122.297779,47.6497777]]],[[[-122.2981349,47.6495239],[-122.2983822,47.6495387],[-122.2983288,47.6499129],[-122.2981349,47.6495239]]],[[[-122.2972586,47.650733],[-122.2974963,47.6505357],[-122.2975736,47.6508481],[-122.2972586,47.650733]]],[[[-122.2974978,47.6512629],[-122.2973062,47.6515931],[-122.2975311,47.6519642],[-122.2970822,47.6522643],[-122.2964118,47.6519325],[-122.2972199,47.6510388],[-122.2974978,47.6512629]]],[[[-122.2944866,47.6534031],[-122.2951679,47.65281],[-122.2957872,47.6529851],[-122.2964825,47.6527769],[-122.2972378,47.653436],[-122.2944866,47.6534031]]],[[[-122.5639657794455,47.734477895231116],[-122.56386370330516,47.73603527618041],[-122.56317341336117,47.73743504571603],[-122.562,47.738464101615136],[-122.56052210476888,47.73896577944549],[-122.55896472381959,47.73886370330516],[-122.55756495428396,47.73817341336117],[-122.55653589838487,47.737],[-122.55603422055451,47.73552210476888],[-122.55613629669485,47.73396472381959],[-122.55682658663883,47.732564954283966],[-122.558,47.73153589838486],[-122.55947789523113,47.731034220554506],[-122.56103527618042,47.73113629669484],[-122.56243504571604,47.73182658663883],[-122.56346410161514,47.733],[-122.5639657794455,47.734477895231116]]],[[[-122.2668016,47.5632753],[-122.2672097,47.5636909],[-122.2664463,47.563934],[-122.2661783,47.5635781],[-122.2668016,47.5632753]]],[[[-122.2444082854814,47.57558149036538],[-122.24217516944348,47.574602104213106],[-122.2449664,47.5757502],[-122.2463557,47.5777226],[-122.2475179,47.5786804],[-122.2489739,47.5792716],[-122.25068000963883,47.58062097324615],[-122.25010245663015,47.580577540899014],[-122.24897336371234,47.57943135002178],[-122.24679235835606,47.57833947302282],[-122.2444082854814,47.57558149036538]]],[[[-122.2530493,47.5833377],[-122.25347862914953,47.584724129496415],[-122.25264224260776,47.58265410331238],[-122.2530493,47.5833377]]],[[[-122.2544872,47.5879811],[-122.25448036735109,47.58802708934178],[-122.25431026588369,47.587409727946536],[-122.2544872,47.5879811]]],[[[-122.25422078507049,47.58977429139694],[-122.25407846534641,47.59073222008848],[-122.25409659879912,47.59025582848662],[-122.25422078507049,47.58977429139694]]],[[[-122.25367298918671,47.592909789278686],[-122.25378454880455,47.592710519935466],[-122.2537546,47.5929121],[-122.25367298918671,47.592909789278686]]],[[[-122.24809149072968,47.59292000449611],[-122.24901892326139,47.59253268687271],[-122.2468142,47.5944019],[-122.24634991081585,47.595748660427354],[-122.24650580084148,47.59466039070468],[-122.24809149072968,47.59292000449611]]],[[[-122.2893637,47.6428289],[-122.289259,47.6428289],[-122.2894876,47.6425925],[-122.2893637,47.6428289]]],[[[-122.2888246,47.6433906],[-122.2886984,47.6428549],[-122.2892047,47.6428825],[-122.2888246,47.6433906]]],[[[-122.2851156,47.6432042],[-122.2851759,47.6431183],[-122.2852953,47.6432349],[-122.2851156,47.6432042]]],[[[-122.2873144,47.6444725],[-122.2880607,47.6442442],[-122.2878663,47.6445884],[-122.2873144,47.6444725]]],[[[-122.2884314,47.6446266],[-122.2896807,47.6427755],[-122.2906132,47.642129],[-122.2922947,47.6422769],[-122.2928267,47.6427606],[-122.2939726,47.6431473],[-122.2927721,47.6443056],[-122.2912929,47.6447944],[-122.2914399,47.6453438],[-122.2934206,47.6457656],[-122.2903789,47.6468922],[-122.2884334,47.6457922],[-122.2878472,47.6459499],[-122.2880513,47.6451663],[-122.2896016,47.6453772],[-122.2894112,47.6447633],[-122.2884314,47.6446266]]],[[[-122.2875593,47.6458807],[-122.2872343,47.6458195],[-122.287306,47.6451841],[-122.2875593,47.6458807]]],[[[-122.2832559,47.6542596],[-122.2830907,47.6541579],[-122.2832559,47.6540888],[-122.2832559,47.6542596]]],[[[-122.2870268,47.6549732],[-122.2871998,47.6552078],[-122.2866879,47.6548298],[-122.2870268,47.6549732]]],[[[-122.2874088,47.6554343],[-122.2876807,47.6555072],[-122.287426,47.655625],[-122.2874088,47.6554343]]],[[[-122.2879341,47.656435],[-122.2877595,47.6561715],[-122.2879252,47.6561425],[-122.2879341,47.656435]]],[[[-122.2883344,47.6564892],[-122.2883275,47.6563729],[-122.2883932,47.6564785],[-122.2883344,47.6564892]]],[[[-122.22769678197164,47.5245175098136],[-122.2278448,47.5245089],[-122.22854432171675,47.525001279003455],[-122.22769678197164,47.5245175098136]]],[[[-122.23473751188949,47.52850829277158],[-122.23457863827558,47.52844562064034],[-122.23436523628997,47.52832381242275],[-122.23473751188949,47.52850829277158]]],[[[-122.2390667,47.530961],[-122.23909594912162,47.53099479369787],[-122.23906174527694,47.5309574216092],[-122.2390667,47.530961]]],[[[-122.24293637578275,47.53473215938188],[-122.2433123,47.53503],[-122.24337377211123,47.535370346332904],[-122.24293637578275,47.53473215938188]]],[[[-122.24404351725352,47.538183138372425],[-122.24423998171079,47.5375636514172],[-122.24402223623535,47.537011581289235],[-122.2443589,47.5375832],[-122.24404351725352,47.538183138372425]]],[[[-122.2433522,47.5394982],[-122.24212704090375,47.54066728221589],[-122.24397475777154,47.53831393643339],[-122.2433522,47.5394982]]],[[[-122.2389507045419,47.5420678808877],[-122.23814800277437,47.54254829477816],[-122.23820542933304,47.5424396196846],[-122.2389507045419,47.5420678808877]]],[[[-122.2356618,47.5502281],[-122.23506003461812,47.55069088438802],[-122.23591755512449,47.54916597792979],[-122.2356618,47.5502281]]],[[[-122.2313015,47.5579841],[-122.23123035452522,47.55817659598294],[-122.23104474614603,47.55678421794963],[-122.2313015,47.5579841]]],[[[-122.23097591560874,47.558920701983624],[-122.23117154298825,47.562555755874726],[-122.23094224583322,47.55898477703143],[-122.23097591560874,47.558920701983624]]],[[[-122.2323232,47.5646355],[-122.2325955665173,47.5654755615857],[-122.23118183115957,47.562715979590095],[-122.2323232,47.5646355]]],[[[-122.23335956828122,47.567831976535764],[-122.23304817773845,47.567282887545694],[-122.23294053818196,47.566539559636944],[-122.23335956828122,47.567831976535764]]],[[[-122.2337675860641,47.56855145269695],[-122.23392662508398,47.56876046026815],[-122.23386391733754,47.56872131797665],[-122.2337675860641,47.56855145269695]]],[[[-122.2394195,47.5722501],[-122.24017798598548,47.57302832965538],[-122.23828050272088,47.57153311855018],[-122.2394195,47.5722501]]],[[[-122.2246092851043,47.58658966961387],[-122.22461675519827,47.58659131833511],[-122.22470898812286,47.586922372576865],[-122.2246092851043,47.58658966961387]]],[[[-122.2244246114147,47.59117139302833],[-122.2243611,47.5910304],[-122.2243494177322,47.59084442483379],[-122.2244246114147,47.59117139302833]]],[[[-122.2353853105337,47.59265876798197],[-122.23542267022096,47.592639545662585],[-122.23564818309495,47.5926240466926],[-122.2353853105337,47.59265876798197]]],[[[-122.2321802,47.5939838],[-122.23163554907951,47.5938447747402],[-122.2324065665787,47.5938843825063],[-122.2321802,47.5939838]]],[[[-122.22610331673367,47.59443187281898],[-122.2256795,47.5939572],[-122.22546267685341,47.59347586050861],[-122.22610331673367,47.59443187281898]]],[[[-122.2265612,47.5949447],[-122.22640580939081,47.59477066322266],[-122.22685725385983,47.59505452874023],[-122.2265612,47.5949447]]],[[[-122.2283823,47.5951348],[-122.2282569574955,47.59516564177538],[-122.22835276334102,47.59503660192816],[-122.2283823,47.5951348]]],[[[-122.22769076415098,47.59530495930398],[-122.2275955,47.5953284],[-122.22741172558156,47.595260224186056],[-122.22769076415098,47.59530495930398]]],[[[-122.205712,47.5046263],[-122.2054466,47.5047793],[-122.2050123,47.5045491],[-122.2054211,47.504401],[-122.205712,47.5046263]]],[[[-122.20546471451526,47.5283734991966],[-122.20549423154534,47.52827018959127],[-122.2055637,47.528316],[-122.20546471451526,47.5283734991966]]],[[[-122.2085328,47.543884],[-122.20891030124996,47.543340125190106],[-122.20903315716512,47.54441576316041],[-122.2085328,47.543884]]],[[[-122.20913664737235,47.5599191703086],[-122.20913006983956,47.56002540543449],[-122.2091113,47.559988],[-122.20913664737235,47.5599191703086]]],[[[-122.20797486936095,47.56526274662801],[-122.2083349,47.5647341],[-122.20891059518615,47.564335217796774],[-122.20797486936095,47.56526274662801]]],[[[-122.20766529627825,47.56675930908474],[-122.207457,47.5664671],[-122.20747040935872,47.5662829620935],[-122.20766529627825,47.56675930908474]]],[[[-122.20798188419467,47.56753312038927],[-122.20784820246247,47.567886707682014],[-122.20792200625591,47.567386765384875],[-122.20798188419467,47.56753312038927]]],[[[-122.20153831685866,47.57678570478591],[-122.2015305,47.5767044],[-122.20160657745903,47.57661330106152],[-122.20153831685866,47.57678570478591]]],[[[-122.20173260735673,47.57777543107308],[-122.2016297,47.5777362],[-122.2016201614648,47.577636987695435],[-122.20173260735673,47.57777543107308]]],[[[-122.20734713691931,47.58086455479577],[-122.20771284549478,47.580932494195366],[-122.2075079,47.580911],[-122.20734713691931,47.58086455479577]]],[[[-122.2121677801528,47.58236514858445],[-122.212081,47.5823663],[-122.2120007478374,47.58224135895372],[-122.2121677801528,47.58236514858445]]],[[[-122.21826421884963,47.585041504716536],[-122.2182328,47.5850404],[-122.21795892899374,47.58479763979254],[-122.21826421884963,47.585041504716536]]],[[[-122.22415980762788,47.587825938074275],[-122.2241538,47.5877303],[-122.22451220674259,47.58742461009167],[-122.22415980762788,47.587825938074275]]]]},"properties":{"name":"Seattle Metroplex","basis":"Vereinigung der SR6-Oberflächenbezirke ohne das souveräne Council Island; interne Grenzen vorläufig georeferenziert","boundary_role":"lore-city","source":"King County GIS Open Data / Washington State City Boundaries","source_url":"https://services.arcgis.com/Ej0PsM5Aw677QF1W/arcgis/rest/services/WASHCO_AREA_120/FeatureServer/0","lore_source":"Freiheit für Seattle (SR6) und Emerald City (SR6)"}}]}
