{"type":"FeatureCollection","name":"Seattle exterritoriale Konzerngebiete","topology":{"model":"exclusive-corporate-over-normal","unresolved_overlap_area_degrees_squared":0},"features":[{"type":"Feature","geometry":{"type":"Polygon","coordinates":[[[-122.556,47.735],[-122.55630448186996,47.73346926627054],[-122.55717157287526,47.73217157287525],[-122.55846926627054,47.731304481869955],[-122.56,47.731],[-122.56153073372947,47.731304481869955],[-122.56282842712474,47.73217157287525],[-122.56369551813005,47.73346926627054],[-122.56400000000001,47.735],[-122.56369551813005,47.73653073372946],[-122.56282842712474,47.73782842712475],[-122.56153073372947,47.738695518130044],[-122.56,47.739],[-122.55846926627054,47.738695518130044],[-122.55717157287526,47.73782842712475],[-122.55630448186996,47.73653073372946],[-122.556,47.735]]]},"properties":{"entity_id":14,"status":"corporate","zone_type":"orange","label":"Exterritoriales Konzerngebiet · Nikko","basis":"Künstliche Insel; Position aus relativer Quellenbeschreibung angenähert","topology":"disjoint","source":"Emerald City, S. 124–126 (SR6)","boundary_review_status":"provisional","boundary_review_label":"Künstliche Insel ohne heutige Geometrie"}},{"type":"Feature","geometry":{"type":"Polygon","coordinates":[[[-122.37700000000001,47.607],[-122.37738060233745,47.605086582838176],[-122.37846446609407,47.60346446609407],[-122.38008658283817,47.60238060233744],[-122.382,47.602],[-122.38391341716184,47.60238060233744],[-122.38553553390594,47.60346446609407],[-122.38661939766256,47.605086582838176],[-122.387,47.607],[-122.38661939766256,47.60891341716182],[-122.38553553390594,47.61053553390593],[-122.38391341716184,47.61161939766256],[-122.382,47.612],[-122.38008658283817,47.61161939766256],[-122.37846446609407,47.61053553390593],[-122.37738060233745,47.60891341716182],[-122.37700000000001,47.607]]]},"properties":{"entity_id":15,"status":"corporate","zone_type":"orange","label":"Exterritoriales Konzerngebiet · Tanjo","basis":"Künstliche Insel; Position aus relativer Quellenbeschreibung angenähert","topology":"disjoint","source":"Emerald City, S. 124–126 (SR6)","boundary_review_status":"provisional","boundary_review_label":"Künstliche Insel ohne heutige Geometrie"}},{"type":"Feature","geometry":{"type":"Polygon","coordinates":[[[-122.68679999999999,47.105],[-122.68704358549596,47.10377541301643],[-122.6877372583002,47.1027372583002],[-122.68877541301643,47.10204358549596],[-122.69,47.1018],[-122.69122458698357,47.10204358549596],[-122.69226274169979,47.1027372583002],[-122.69295641450404,47.10377541301643],[-122.6932,47.105],[-122.69295641450404,47.106224586983565],[-122.69226274169979,47.10726274169979],[-122.69122458698357,47.10795641450403],[-122.69,47.1082],[-122.68877541301643,47.10795641450403],[-122.6877372583002,47.10726274169979],[-122.68704358549596,47.106224586983565],[-122.68679999999999,47.105]]]},"properties":{"entity_id":16,"status":"corporate","zone_type":"orange","label":"Exterritoriales Konzerngebiet · Thesis","basis":"Künstliche Insel; Position aus relativer Quellenbeschreibung angenähert","topology":"disjoint","source":"Emerald City, S. 124–126 (SR6)","boundary_review_status":"provisional","boundary_review_label":"Künstliche Insel ohne heutige Geometrie"}}]}
