{"type":"FeatureCollection","name":"Seattle Sicherheits- und Stadtzustände","features":[{"type":"Feature","geometry":{"type":"Polygon","coordinates":[[[-121.88392491467576,47.421843003412974],[-121.93,47.42],[-122.06,47.47],[-122.075,47.53000000000001],[-122.0680947639244,47.55762094430238],[-122.0666297,47.5579877],[-122.0650412,47.5595856],[-122.0646276,47.5612507],[-122.0665093,47.5623199],[-122.0654326,47.5625622],[-122.0643007,47.5622668],[-122.063634,47.562817],[-122.0606904,47.5634361],[-122.0590928,47.562987],[-122.057679,47.5620314],[-122.056136,47.5627757],[-122.0555129,47.5636352],[-122.0551908,47.5650646],[-122.0557453,47.5651799],[-122.0555951,47.5663022],[-122.0560415,47.5668849],[-122.0574876,47.567696],[-122.0602836,47.5684747],[-122.06528355828308,47.568865766867695],[-122.055,47.61],[-122.07145833333334,47.69229166666667],[-122.066,47.6912],[-122.075,47.72],[-122.08318181818181,47.734545454545454],[-122.105,47.8],[-121.95750000000001,47.8],[-121.98,47.74],[-121.86,47.68],[-121.88,47.57],[-121.85,47.48],[-121.88392491467576,47.421843003412974]]]},"properties":{"status":"barrens","kind":"barrens","label":"Barrens · Redmond","basis":"Redmond-Bezirk mit differenzierten sicheren und toxischen Teilräumen","source":"Emerald City, S. 141–154 (SR6)"}},{"type":"Feature","geometry":{"type":"Polygon","coordinates":[[[-122.55,46.96434782608696],[-122.45,46.96],[-122.4,47.08],[-122.41923076923078,47.137692307692305],[-122.36,47.18],[-122.26,47.25],[-122.29211009174311,47.22752293577982],[-122.28,47.17],[-122.02,47.11],[-121.9511111111111,47.11],[-121.99,47.04],[-122.08,46.94],[-122.16,46.88],[-122.28,46.84],[-122.48,46.88],[-122.55,46.901538461538465],[-122.55,46.96434782608696]]]},"properties":{"status":"barrens","kind":"barrens","label":"Barrens · Puyallup","basis":"Puyallup-Bezirk mit stabileren Inseln innerhalb überwiegender E-/Z-Zonen","source":"Emerald City, S. 127–140 (SR6)"}}]}
