{"type":"FeatureCollection","name":"Seattle Sondergebiete","features":[{"type":"Feature","geometry":{"type":"Polygon","coordinates":[[[-122.24978179881818,47.5945982358663],[-122.2485876449949,47.59564200798762],[-122.2483433488665,47.596693334057704],[-122.24784431416064,47.597380717482885],[-122.24566979873322,47.59832867546617],[-122.24075491689844,47.59765610686375],[-122.24003779301519,47.5971113142312],[-122.238708515386,47.595237475010805],[-122.23732071776402,47.59471428703219],[-122.2360259465452,47.59480327361599],[-122.23329803416682,47.59608440314588],[-122.23114964136097,47.596022714223864],[-122.23004287659863,47.59645077499685],[-122.22862254408635,47.59750934487404],[-122.2263312795651,47.59727016471261],[-122.22458589856377,47.59609777450377],[-122.2227576775442,47.59337484976673],[-122.22171612544265,47.58921003039258],[-122.22171788868883,47.58819053143884],[-122.22037495083924,47.587439835171786],[-122.21764388983081,47.58724944791516],[-122.21448108017674,47.58483526460713],[-122.21174757789937,47.58454393956752],[-122.21017671739203,47.58362786069301],[-122.20501518464147,47.58262614058907],[-122.20286390280889,47.58076602717391],[-122.2005825117915,47.579792036969295],[-122.19923486576394,47.577934103875386],[-122.19929304161067,47.576480376159296],[-122.20000226680247,47.57472457093477],[-122.20095790526256,47.57365975742834],[-122.20107012963742,47.57274764299378],[-122.20227125598198,47.56996107357848],[-122.20311762017502,47.56910128877241],[-122.20543531619815,47.568047795920045],[-122.2056178842314,47.56756490468608],[-122.20515941895701,47.566332667869],[-122.2052165435198,47.56526503713723],[-122.2056245235062,47.564509748394634],[-122.20724979196895,47.56288379992312],[-122.2068356079138,47.56165075880698],[-122.20708321603364,47.55748386759911],[-122.20629214297736,47.55552736824317],[-122.20655474607128,47.55452775870866],[-122.20744355088084,47.55350071650388],[-122.2075415469612,47.553017425435876],[-122.20761171336041,47.550689162620266],[-122.20693161685945,47.54774074755858],[-122.20699756195826,47.545329367882566],[-122.20660884325552,47.54364706403743],[-122.20712023133078,47.542007758184496],[-122.20694228140418,47.540276833686896],[-122.20753016412071,47.53827949282948],[-122.21188064556506,47.53229234198625],[-122.21644523925283,47.52873491343184],[-122.21775242418381,47.5269690387707],[-122.22195154489853,47.524653762057106],[-122.22260874160315,47.52360762197892],[-122.2241569082482,47.52253964206064],[-122.22591644762572,47.52215826515689],[-122.22823563613854,47.52233768235233],[-122.23553244981332,47.52645689068412],[-122.23828644263085,47.527582732242266],[-122.24044572176626,47.529224159560336],[-122.2426426908945,47.531611510901996],[-122.24445359950117,47.53307519852005],[-122.24531937203018,47.53434224157248],[-122.24628654713784,47.5367564525862],[-122.24642619183727,47.53780958897603],[-122.24596540692379,47.53928395859532],[-122.24293410047358,47.54318657693616],[-122.24189482567583,47.54380174020365],[-122.23978464580601,47.5441599282023],[-122.23923029851315,47.54672711736853],[-122.23749719760858,47.551126425886075],[-122.23533994965962,47.5533964972245],[-122.23503450132256,47.55520127908146],[-122.23329011406463,47.557053986394834],[-122.23345535163325,47.5585227796218],[-122.23317734359472,47.559460815258284],[-122.23335590310184,47.56224162700489],[-122.2348784323802,47.565094136466115],[-122.23550229064692,47.56715057903082],[-122.23930660779871,47.569540731781984],[-122.24339225959301,47.57276021310695],[-122.24562138461862,47.57374617282248],[-122.24816969042502,47.576568711902624],[-122.25016747050307,47.57758361925883],[-122.25109049964993,47.578445630473965],[-122.25324992862838,47.57934420330034],[-122.25399554348122,47.58016120764307],[-122.2558066364832,47.584613286540694],[-122.25674929327796,47.58802467362392],[-122.25610643043632,47.59298659395865],[-122.25532950240253,47.594360004422036],[-122.25419124867089,47.595053840460224],[-122.25216712147983,47.595256827686065],[-122.24978179881818,47.5945982358663]]]},"properties":{"kind":"foreign","label":"Fremdes Staatsgebiet · Council Island und 200-m-Gewässerzone","basis":"Inselgeometrie plus angenäherter 200-m-Puffer","source":"Emerald City, S. 61–72 (SR6)"}},{"type":"Feature","geometry":{"type":"Polygon","coordinates":[[[-122.7,46.98],[-122.73,47.05],[-122.65,47.13],[-122.43,47.13],[-122.41923076923078,47.13769230769231],[-122.4,47.08],[-122.45,46.96],[-122.55,46.96434782608696],[-122.55,46.901538461538465],[-122.48,46.88],[-122.61,46.92],[-122.7,46.98]]]},"properties":{"kind":"military","label":"Militärischer Sonderbezirk · Fort Lewis","basis":"SR6-Bezirksfläche; nicht mit Konzern-EXTER gleichzusetzen","source":"Emerald City, S. 98–110 (SR6)"}},{"type":"Feature","geometry":{"type":"MultiPolygon","coordinates":[[[[-122.41264683975986,47.30684864561137],[-122.44299113398158,47.23614308450498],[-122.44500062979944,47.23375449781061],[-122.44777123441094,47.23231673220895],[-122.45088114837957,47.232048674479486],[-122.45385691549502,47.23299113398158],[-122.45572540441879,47.234412536868895],[-122.45742781352709,47.23702887458917],[-122.45799940535919,47.240097539219924],[-122.4576266395091,47.24241544401678],[-122.42757196229024,47.31264081627174],[-122.40962351810917,47.378451778269],[-122.4,47.39],[-122.39452199738402,47.43382402092791],[-122.3677181105699,47.53210493924634],[-122.35585368342379,47.561906450669085],[-122.3583088802051,47.564435603380666],[-122.35956636168979,47.56708714503963],[-122.35999999452922,47.5699895398119],[-122.35957243455444,47.57289283540855],[-122.35832050294337,47.57554700196225],[-122.3396299724778,47.60358279766063],[-122.33470142500146,47.642425356250364],[-122.31944394336965,47.703288150487865],[-122.31870199906754,47.704926988149836],[-122.31707106781187,47.70707106781187],[-122.28514805785528,47.738994077768446],[-122.2862014,47.7373338],[-122.286067,47.7368321],[-122.2848254,47.7356277],[-122.2839659,47.7331675],[-122.2813105,47.7312057],[-122.2820547,47.729538],[-122.2803663,47.7266102],[-122.2800144,47.7252476],[-122.2808198,47.7230477],[-122.2810905,47.7229882],[-122.280847,47.7229265],[-122.2807805,47.7208666],[-122.280487,47.7200745],[-122.2788534,47.7191537],[-122.27827257610168,47.717585288274584],[-122.30097035978919,47.694887504587086],[-122.31515211969331,47.63816046497062],[-122.32047609717311,47.59695118466546],[-122.32167949705662,47.59445299803775],[-122.3320952828846,47.5788293192958],[-122.33257218647292,47.57702887458917],[-122.35240226962222,47.5274536667159],[-122.41264683975986,47.30684864561137]]],[[[-122.26669331753608,47.75744881808765],[-122.25554700196226,47.768320502943375],[-122.22554700196225,47.78832050294338],[-122.22289283540854,47.789572434554444],[-122.22096976104763,47.78995286710001],[-122.2190094193135,47.78995081654456],[-122.21708714503963,47.789566361689786],[-122.21527681014834,47.78881427692016],[-122.21364798479425,47.78772346443158],[-122.21226326382227,47.78633584353627],[-122.21117586128277,47.78470473972704],[-122.21042756544556,47.78289283540855],[-122.21000000547077,47.7799895398119],[-122.21019419324308,47.77803883864862],[-122.21118572307985,47.775276810148334],[-122.2129363325265,47.772921539586626],[-122.21445299803774,47.771679497056624],[-122.24362910588346,47.75222875849281],[-122.26386995602068,47.73198790835559],[-122.2648592,47.7334606],[-122.2650562,47.7355095],[-122.2673833,47.7381343],[-122.2674669,47.7386179],[-122.2653424,47.7387776],[-122.2653961,47.7397637],[-122.264405,47.7416333],[-122.2643786,47.7426619],[-122.2630864,47.7441526],[-122.2628649,47.7457211],[-122.2613221,47.7476097],[-122.2600547,47.7483127],[-122.2597424,47.7489228],[-122.2586469,47.7491644],[-122.2574313,47.7504758],[-122.2574496,47.755368],[-122.2576938,47.7556551],[-122.2574145,47.7560026],[-122.2560633,47.7563378],[-122.2562709,47.7565757],[-122.2546313,47.7571793],[-122.2545486,47.7577822],[-122.2577035,47.7565472],[-122.2582254,47.7569239],[-122.2604273,47.7568423],[-122.2604584,47.7563181],[-122.2630577,47.7564817],[-122.2632612,47.7570633],[-122.2655155,47.7575648],[-122.26669331753608,47.75744881808765]]]]},"properties":{"kind":"underground","label":"Unterirdischer Bezirk · Seattle Underground","basis":"Schematische Korridorfläche nach beschriebenen Verbindungen Downtown–Bothell und Downtown–Tacoma; keine Tunnelvermessung","source":"Emerald City, S. 195–206 (SR6)","boundary_review_status":"schematic"}}]}
