{"type":"FeatureCollection","name":"Sarajevo Orte","features":[{"type":"Feature","geometry":{"type":"Point","coordinates":[18.4131,43.8563]},"properties":{"id":1,"global_id":"sarajevo:place:1-sarajevo-lore-raum","name":"Sarajevo Lore-Raum","aliases":[],"category":"Bezirke","detail_map":"Sarajevo Lore-Raum","source_pages":"Stadt- oder Regionalkapitel","map_source":"Dawn of the Artifacts 3 - Darkest Hour","placement_note":"Geografischer Bezugspunkt des Lore-Distrikts Sarajevo Lore-Raum","accuracy":"Lore-Bezirkszentrum; Grenzpolygon noch nicht georeferenziert","source_map":"sarajevo-content","source_panel":"Sarajevo Lore-Raum","description_preview":"Sarajevo ist ein vom Balkankonflikt geprägter urbaner Knoten und Schauplatz militärischer und artefaktbezogener Operationen.","description_full":"Sarajevo ist ein vom Balkankonflikt geprägter urbaner Knoten und Schauplatz militärischer und artefaktbezogener Operationen. Die Position ist auf den belegten Stadt- oder Teilraum angenähert; eine hausgenaue Lage und eine weitergehende eigene Fließtextbeschreibung sind aus dem zugeordneten Datenmaterial nicht sicher ableitbar.","description_source":"Stadt- oder Regionalkapitel","description_kind":"Ortsprofil","description_has_more":true,"detail_plans":[],"alternate_locations":[],"sources":[{"bookId":"sr4-dawn-of-the-artifacts-3-darkest-hour","title":"Dawn of the Artifacts 3 - Darkest Hour","edition":"SR4","citation":"Stadt- oder Regionalkapitel","purpose":"description"}],"map_sources":[],"editions":["SR4"],"edition_descriptions":{"SR4":{"kind":"Ortsprofil","preview":"Sarajevo ist ein vom Balkankonflikt geprägter urbaner Knoten und Schauplatz militärischer und artefaktbezogener Operationen.","full":"Sarajevo ist ein vom Balkankonflikt geprägter urbaner Knoten und Schauplatz militärischer und artefaktbezogener Operationen. Die Position ist auf den belegten Stadt- oder Teilraum angenähert; eine hausgenaue Lage und eine weitergehende eigene Fließtextbeschreibung sind aus dem zugeordneten Datenmaterial nicht sicher ableitbar.","hasMore":true,"hasExcerpt":true,"sources":[{"bookId":"sr4-dawn-of-the-artifacts-3-darkest-hour","title":"Dawn of the Artifacts 3 - Darkest Hour","edition":"SR4","citation":"Stadt- oder Regionalkapitel","purpose":"description"}]}}}}]}
