{"type":"FeatureCollection","name":"Dublin Orte","features":[{"type":"Feature","geometry":null,"properties":{"id":2,"global_id":"dublin:place:2-bar-flanagan","name":"Bar Flanagan","aliases":[],"category":"Bars und Kneipen","detail_map":"Dublin","source_pages":"Bar Flanagan","map_source":"Tir na nOg","placement_note":"Keine belastbare Einzelposition; Eintrag bleibt im Katalog","accuracy":"Nur Stadt oder Lore-Teilraum belegt","source_map":"dublin-content","source_panel":"Dublin","description_preview":"Bar Flanagan ist ein benannter Treffpunkt.","description_full":"Bar Flanagan ist ein benannter Treffpunkt. Die Position ist auf den belegten Stadt- oder Teilraum angenähert; eine hausgenaue Lage und eine weitergehende eigene Fließtextbeschreibung sind aus dem zugeordneten Datenmaterial nicht sicher ableitbar.","description_source":"Bar Flanagan","description_kind":"Ortsprofil","description_has_more":true,"detail_plans":[],"alternate_locations":[],"sources":[{"bookId":"sr2-tir-na-nog","title":"Tir na nOg","edition":"SR2","citation":"Bar Flanagan","purpose":"description"}],"map_sources":[],"editions":["SR2"],"edition_descriptions":{"SR2":{"kind":"Ortsprofil","preview":"Bar Flanagan ist ein benannter Treffpunkt.","full":"Bar Flanagan ist ein benannter Treffpunkt. Die Position ist auf den belegten Stadt- oder Teilraum angenähert; eine hausgenaue Lage und eine weitergehende eigene Fließtextbeschreibung sind aus dem zugeordneten Datenmaterial nicht sicher ableitbar.","hasMore":true,"hasExcerpt":true,"sources":[{"bookId":"sr2-tir-na-nog","title":"Tir na nOg","edition":"SR2","citation":"Bar Flanagan","purpose":"description"}]}}}},{"type":"Feature","geometry":null,"properties":{"id":4,"global_id":"dublin:place:4-davy-byrnes","name":"Davy Byrne’s","aliases":[],"category":"Bars und Kneipen","detail_map":"Dublin","source_pages":"Davy Byrne’s","map_source":"Tir na nOg","placement_note":"Keine belastbare Einzelposition; Eintrag bleibt im Katalog","accuracy":"Nur Stadt oder Lore-Teilraum belegt","source_map":"dublin-content","source_panel":"Dublin","description_preview":"Davy Byrne’s gehört zu den lokalen Gastronomie- und Kontaktorten.","description_full":"Davy Byrne’s gehört zu den lokalen Gastronomie- und Kontaktorten. Die Position ist auf den belegten Stadt- oder Teilraum angenähert; eine hausgenaue Lage und eine weitergehende eigene Fließtextbeschreibung sind aus dem zugeordneten Datenmaterial nicht sicher ableitbar.","description_source":"Davy Byrne’s","description_kind":"Ortsprofil","description_has_more":true,"detail_plans":[],"alternate_locations":[],"sources":[{"bookId":"sr2-tir-na-nog","title":"Tir na nOg","edition":"SR2","citation":"Davy Byrne’s","purpose":"description"}],"map_sources":[],"editions":["SR2"],"edition_descriptions":{"SR2":{"kind":"Ortsprofil","preview":"Davy Byrne’s gehört zu den lokalen Gastronomie- und Kontaktorten.","full":"Davy Byrne’s gehört zu den lokalen Gastronomie- und Kontaktorten. Die Position ist auf den belegten Stadt- oder Teilraum angenähert; eine hausgenaue Lage und eine weitergehende eigene Fließtextbeschreibung sind aus dem zugeordneten Datenmaterial nicht sicher ableitbar.","hasMore":true,"hasExcerpt":true,"sources":[{"bookId":"sr2-tir-na-nog","title":"Tir na nOg","edition":"SR2","citation":"Davy Byrne’s","purpose":"description"}]}}}},{"type":"Feature","geometry":{"type":"Point","coordinates":[-6.27,53.421]},"properties":{"id":5,"global_id":"dublin:place:5-dublin-international","name":"Dublin International","aliases":[],"category":"Verkehr","detail_map":"Dublin","source_pages":"Dublin International","map_source":"Tir na nOg","placement_note":"Erhaltener geographischer Bezugspunkt","accuracy":"Geographischer Bezugspunkt","source_map":"dublin-content","source_panel":"Dublin","description_preview":"Der internationale Flughafen ist ein Hauptzugang der Insel.","description_full":"Der internationale Flughafen ist ein Hauptzugang der Insel. Die Position folgt einem erhaltenen heutigen Bezugspunkt.","description_source":"Dublin International","description_kind":"Ortsprofil","description_has_more":true,"detail_plans":[],"alternate_locations":[],"sources":[{"bookId":"sr2-tir-na-nog","title":"Tir na nOg","edition":"SR2","citation":"Dublin International","purpose":"description"}],"map_sources":[],"editions":["SR2"],"edition_descriptions":{"SR2":{"kind":"Ortsprofil","preview":"Der internationale Flughafen ist ein Hauptzugang der Insel.","full":"Der internationale Flughafen ist ein Hauptzugang der Insel. Die Position folgt einem erhaltenen heutigen Bezugspunkt.","hasMore":true,"hasExcerpt":true,"sources":[{"bookId":"sr2-tir-na-nog","title":"Tir na nOg","edition":"SR2","citation":"Dublin International","purpose":"description"}]}}}},{"type":"Feature","geometry":{"type":"Point","coordinates":[-6.2603,53.3498]},"properties":{"id":1,"global_id":"dublin:place:1-dublin-lore-raum","name":"Dublin Lore-Raum","aliases":[],"category":"Bezirke","detail_map":"Dublin Lore-Raum","source_pages":"Stadt- oder Regionalkapitel","map_source":"Tir na nOg","placement_note":"Geografischer Bezugspunkt des Lore-Distrikts Dublin Lore-Raum","accuracy":"Lore-Bezirkszentrum; Grenzpolygon noch nicht georeferenziert","source_map":"dublin-content","source_panel":"Dublin Lore-Raum","description_preview":"Dublin ist politisches, wirtschaftliches und touristisches Zentrum Tír na nÓgs unter strenger staatlicher und elfischer Kontrolle.","description_full":"Dublin ist politisches, wirtschaftliches und touristisches Zentrum Tír na nÓgs unter strenger staatlicher und elfischer Kontrolle. Die Position ist auf den belegten Stadt- oder Teilraum angenähert; eine hausgenaue Lage und eine weitergehende eigene Fließtextbeschreibung sind aus dem zugeordneten Datenmaterial nicht sicher ableitbar.","description_source":"Stadt- oder Regionalkapitel","description_kind":"Ortsprofil","description_has_more":true,"detail_plans":[],"alternate_locations":[],"sources":[{"bookId":"sr2-tir-na-nog","title":"Tir na nOg","edition":"SR2","citation":"Stadt- oder Regionalkapitel","purpose":"description"}],"map_sources":[],"editions":["SR2"],"edition_descriptions":{"SR2":{"kind":"Ortsprofil","preview":"Dublin ist politisches, wirtschaftliches und touristisches Zentrum Tír na nÓgs unter strenger staatlicher und elfischer Kontrolle.","full":"Dublin ist politisches, wirtschaftliches und touristisches Zentrum Tír na nÓgs unter strenger staatlicher und elfischer Kontrolle. Die Position ist auf den belegten Stadt- oder Teilraum angenähert; eine hausgenaue Lage und eine weitergehende eigene Fließtextbeschreibung sind aus dem zugeordneten Datenmaterial nicht sicher ableitbar.","hasMore":true,"hasExcerpt":true,"sources":[{"bookId":"sr2-tir-na-nog","title":"Tir na nOg","edition":"SR2","citation":"Stadt- oder Regionalkapitel","purpose":"description"}]}}}},{"type":"Feature","geometry":null,"properties":{"id":6,"global_id":"dublin:place:6-el-mocambo","name":"El Mocambo","aliases":[],"category":"Bars und Clubs","detail_map":"Dublin","source_pages":"El Mocambo","map_source":"Tir na nOg","placement_note":"Keine belastbare Einzelposition; Eintrag bleibt im Katalog","accuracy":"Nur Stadt oder Lore-Teilraum belegt","source_map":"dublin-content","source_panel":"Dublin","description_preview":"El Mocambo ist ein lokaler Szenetreff.","description_full":"El Mocambo ist ein lokaler Szenetreff. Die Position ist auf den belegten Stadt- oder Teilraum angenähert; eine hausgenaue Lage und eine weitergehende eigene Fließtextbeschreibung sind aus dem zugeordneten Datenmaterial nicht sicher ableitbar.","description_source":"El Mocambo","description_kind":"Ortsprofil","description_has_more":true,"detail_plans":[],"alternate_locations":[],"sources":[{"bookId":"sr2-tir-na-nog","title":"Tir na nOg","edition":"SR2","citation":"El Mocambo","purpose":"description"}],"map_sources":[],"editions":["SR2"],"edition_descriptions":{"SR2":{"kind":"Ortsprofil","preview":"El Mocambo ist ein lokaler Szenetreff.","full":"El Mocambo ist ein lokaler Szenetreff. Die Position ist auf den belegten Stadt- oder Teilraum angenähert; eine hausgenaue Lage und eine weitergehende eigene Fließtextbeschreibung sind aus dem zugeordneten Datenmaterial nicht sicher ableitbar.","hasMore":true,"hasExcerpt":true,"sources":[{"bookId":"sr2-tir-na-nog","title":"Tir na nOg","edition":"SR2","citation":"El Mocambo","purpose":"description"}]}}}},{"type":"Feature","geometry":null,"properties":{"id":7,"global_id":"dublin:place:7-fat-paddys","name":"Fat Paddy’s","aliases":[],"category":"Bars und Kneipen","detail_map":"Dublin","source_pages":"Fat Paddy’s","map_source":"Tir na nOg","placement_note":"Keine belastbare Einzelposition; Eintrag bleibt im Katalog","accuracy":"Nur Stadt oder Lore-Teilraum belegt","source_map":"dublin-content","source_panel":"Dublin","description_preview":"Fat Paddy’s ist ein benannter Pub.","description_full":"Fat Paddy’s ist ein benannter Pub. Die Position ist auf den belegten Stadt- oder Teilraum angenähert; eine hausgenaue Lage und eine weitergehende eigene Fließtextbeschreibung sind aus dem zugeordneten Datenmaterial nicht sicher ableitbar.","description_source":"Fat Paddy’s","description_kind":"Ortsprofil","description_has_more":true,"detail_plans":[],"alternate_locations":[],"sources":[{"bookId":"sr2-tir-na-nog","title":"Tir na nOg","edition":"SR2","citation":"Fat Paddy’s","purpose":"description"}],"map_sources":[],"editions":["SR2"],"edition_descriptions":{"SR2":{"kind":"Ortsprofil","preview":"Fat Paddy’s ist ein benannter Pub.","full":"Fat Paddy’s ist ein benannter Pub. Die Position ist auf den belegten Stadt- oder Teilraum angenähert; eine hausgenaue Lage und eine weitergehende eigene Fließtextbeschreibung sind aus dem zugeordneten Datenmaterial nicht sicher ableitbar.","hasMore":true,"hasExcerpt":true,"sources":[{"bookId":"sr2-tir-na-nog","title":"Tir na nOg","edition":"SR2","citation":"Fat Paddy’s","purpose":"description"}]}}}},{"type":"Feature","geometry":null,"properties":{"id":8,"global_id":"dublin:place:8-leitrim-lodge","name":"Leitrim Lodge","aliases":[],"category":"Hotels","detail_map":"Dublin","source_pages":"Leitrim Lodge","map_source":"Tir na nOg","placement_note":"Keine belastbare Einzelposition; Eintrag bleibt im Katalog","accuracy":"Nur Stadt oder Lore-Teilraum belegt","source_map":"dublin-content","source_panel":"Dublin","description_preview":"Die Lodge ist als Unterkunft belegt.","description_full":"Die Lodge ist als Unterkunft belegt. Die Position ist auf den belegten Stadt- oder Teilraum angenähert; eine hausgenaue Lage und eine weitergehende eigene Fließtextbeschreibung sind aus dem zugeordneten Datenmaterial nicht sicher ableitbar.","description_source":"Leitrim Lodge","description_kind":"Ortsprofil","description_has_more":true,"detail_plans":[],"alternate_locations":[],"sources":[{"bookId":"sr2-tir-na-nog","title":"Tir na nOg","edition":"SR2","citation":"Leitrim Lodge","purpose":"description"}],"map_sources":[],"editions":["SR2"],"edition_descriptions":{"SR2":{"kind":"Ortsprofil","preview":"Die Lodge ist als Unterkunft belegt.","full":"Die Lodge ist als Unterkunft belegt. Die Position ist auf den belegten Stadt- oder Teilraum angenähert; eine hausgenaue Lage und eine weitergehende eigene Fließtextbeschreibung sind aus dem zugeordneten Datenmaterial nicht sicher ableitbar.","hasMore":true,"hasExcerpt":true,"sources":[{"bookId":"sr2-tir-na-nog","title":"Tir na nOg","edition":"SR2","citation":"Leitrim Lodge","purpose":"description"}]}}}},{"type":"Feature","geometry":null,"properties":{"id":9,"global_id":"dublin:place:9-monaghans-grill","name":"Monaghan’s Grill","aliases":[],"category":"Restaurants","detail_map":"Dublin","source_pages":"Monaghan’s Grill","map_source":"Tir na nOg","placement_note":"Keine belastbare Einzelposition; Eintrag bleibt im Katalog","accuracy":"Nur Stadt oder Lore-Teilraum belegt","source_map":"dublin-content","source_panel":"Dublin","description_preview":"Monaghan’s Grill ist ein lokaler Gastronomiestandort.","description_full":"Monaghan’s Grill ist ein lokaler Gastronomiestandort. Die Position ist auf den belegten Stadt- oder Teilraum angenähert; eine hausgenaue Lage und eine weitergehende eigene Fließtextbeschreibung sind aus dem zugeordneten Datenmaterial nicht sicher ableitbar.","description_source":"Monaghan’s Grill","description_kind":"Ortsprofil","description_has_more":true,"detail_plans":[],"alternate_locations":[],"sources":[{"bookId":"sr2-tir-na-nog","title":"Tir na nOg","edition":"SR2","citation":"Monaghan’s Grill","purpose":"description"}],"map_sources":[],"editions":["SR2"],"edition_descriptions":{"SR2":{"kind":"Ortsprofil","preview":"Monaghan’s Grill ist ein lokaler Gastronomiestandort.","full":"Monaghan’s Grill ist ein lokaler Gastronomiestandort. Die Position ist auf den belegten Stadt- oder Teilraum angenähert; eine hausgenaue Lage und eine weitergehende eigene Fließtextbeschreibung sind aus dem zugeordneten Datenmaterial nicht sicher ableitbar.","hasMore":true,"hasExcerpt":true,"sources":[{"bookId":"sr2-tir-na-nog","title":"Tir na nOg","edition":"SR2","citation":"Monaghan’s Grill","purpose":"description"}]}}}},{"type":"Feature","geometry":null,"properties":{"id":3,"global_id":"dublin:place:3-saxon-hotel","name":"Saxon Hotel","aliases":[],"category":"Hotels","detail_map":"Dublin","source_pages":"Saxon Hotel","map_source":"Tir na nOg","placement_note":"Keine belastbare Einzelposition; Eintrag bleibt im Katalog","accuracy":"Nur Stadt oder Lore-Teilraum belegt","source_map":"dublin-content","source_panel":"Dublin","description_preview":"Das Saxon Hotel ist ein Unterkunfts- und Geschäftsort.","description_full":"Das Saxon Hotel ist ein Unterkunfts- und Geschäftsort. Die Position ist auf den belegten Stadt- oder Teilraum angenähert; eine hausgenaue Lage und eine weitergehende eigene Fließtextbeschreibung sind aus dem zugeordneten Datenmaterial nicht sicher ableitbar.","description_source":"Saxon Hotel","description_kind":"Ortsprofil","description_has_more":true,"detail_plans":[],"alternate_locations":[],"sources":[{"bookId":"sr2-tir-na-nog","title":"Tir na nOg","edition":"SR2","citation":"Saxon Hotel","purpose":"description"}],"map_sources":[],"editions":["SR2"],"edition_descriptions":{"SR2":{"kind":"Ortsprofil","preview":"Das Saxon Hotel ist ein Unterkunfts- und Geschäftsort.","full":"Das Saxon Hotel ist ein Unterkunfts- und Geschäftsort. Die Position ist auf den belegten Stadt- oder Teilraum angenähert; eine hausgenaue Lage und eine weitergehende eigene Fließtextbeschreibung sind aus dem zugeordneten Datenmaterial nicht sicher ableitbar.","hasMore":true,"hasExcerpt":true,"sources":[{"bookId":"sr2-tir-na-nog","title":"Tir na nOg","edition":"SR2","citation":"Saxon Hotel","purpose":"description"}]}}}}]}
