{"type":"FeatureCollection","name":"Stuttgart Orte","features":[{"type":"Feature","geometry":null,"properties":{"id":4,"global_id":"stuttgart:place:4-das-schwarze-haus","name":"Das Schwarze Haus","aliases":[],"category":"Religion und Magie","detail_map":"Stuttgart","source_pages":"Das Schwarze Haus","map_source":"Datapuls","placement_note":"Keine belastbare Einzelposition; Eintrag bleibt im Katalog","accuracy":"Nur Stadt oder Lore-Teilraum belegt","source_map":"stuttgart-content","source_panel":"Stuttgart","description_preview":"Um das Gebäude ranken sich seit Jahrzehnten kuriose und erschreckende Geschichten.","description_full":"Um das Gebäude ranken sich seit Jahrzehnten kuriose und erschreckende Geschichten. Die Position ist auf den belegten Stadt- oder Teilraum angenähert; eine hausgenaue Lage und eine weitergehende eigene Fließtextbeschreibung sind aus dem zugeordneten Datenmaterial nicht sicher ableitbar.","description_source":"Das Schwarze Haus","description_kind":"Ortsprofil","description_has_more":true,"detail_plans":[],"alternate_locations":[],"sources":[{"bookId":"sr5-datapuls","title":"Datapuls","edition":"SR5","citation":"Das Schwarze Haus","purpose":"description"}],"map_sources":[],"editions":["SR5"],"edition_descriptions":{"SR5":{"kind":"Ortsprofil","preview":"Um das Gebäude ranken sich seit Jahrzehnten kuriose und erschreckende Geschichten.","full":"Um das Gebäude ranken sich seit Jahrzehnten kuriose und erschreckende Geschichten. Die Position ist auf den belegten Stadt- oder Teilraum angenähert; eine hausgenaue Lage und eine weitergehende eigene Fließtextbeschreibung sind aus dem zugeordneten Datenmaterial nicht sicher ableitbar.","hasMore":true,"hasExcerpt":true,"sources":[{"bookId":"sr5-datapuls","title":"Datapuls","edition":"SR5","citation":"Das Schwarze Haus","purpose":"description"}]}}}},{"type":"Feature","geometry":{"type":"Point","coordinates":[9.171,48.749]},"properties":{"id":3,"global_id":"stuttgart:place:3-degerloch","name":"Degerloch","aliases":[],"category":"Bezirke","detail_map":"Degerloch","source_pages":"Mühlhausen","map_source":"Deutschland in den Schatten II","placement_note":"Geografischer Bezugspunkt des Lore-Distrikts Degerloch","accuracy":"Lore-Bezirkszentrum; Grenzpolygon noch nicht georeferenziert","source_map":"stuttgart-content","source_panel":"Degerloch","description_preview":"Degerloch ist im Quellenstand ein besonders heruntergekommener und unsicherer Teilraum.","description_full":"Degerloch ist im Quellenstand ein besonders heruntergekommener und unsicherer Teilraum. Die Position ist auf den belegten Stadt- oder Teilraum angenähert; eine hausgenaue Lage und eine weitergehende eigene Fließtextbeschreibung sind aus dem zugeordneten Datenmaterial nicht sicher ableitbar.","description_source":"Mühlhausen","description_kind":"Ortsprofil","description_has_more":true,"detail_plans":[],"alternate_locations":[],"sources":[{"bookId":"sr3-deutschland-in-den-schatten-ii","title":"Deutschland in den Schatten II","edition":"SR3","citation":"Mühlhausen","purpose":"description"}],"map_sources":[],"editions":["SR3"],"edition_descriptions":{"SR3":{"kind":"Ortsprofil","preview":"Degerloch ist im Quellenstand ein besonders heruntergekommener und unsicherer Teilraum.","full":"Degerloch ist im Quellenstand ein besonders heruntergekommener und unsicherer Teilraum. Die Position ist auf den belegten Stadt- oder Teilraum angenähert; eine hausgenaue Lage und eine weitergehende eigene Fließtextbeschreibung sind aus dem zugeordneten Datenmaterial nicht sicher ableitbar.","hasMore":true,"hasExcerpt":true,"sources":[{"bookId":"sr3-deutschland-in-den-schatten-ii","title":"Deutschland in den Schatten II","edition":"SR3","citation":"Mühlhausen","purpose":"description"}]}}}},{"type":"Feature","geometry":null,"properties":{"id":5,"global_id":"stuttgart:place:5-horizon-group-stuttgart","name":"Horizon Group Stuttgart","aliases":[],"category":"Konzerne","detail_map":"Stuttgart","source_pages":"Horizon Group","map_source":"Datapuls","placement_note":"Keine belastbare Einzelposition; Eintrag bleibt im Katalog","accuracy":"Nur Stadt oder Lore-Teilraum belegt","source_map":"stuttgart-content","source_panel":"Stuttgart","description_preview":"Stuttgart ist Hauptsitz der regionalen Horizon Group.","description_full":"Stuttgart ist Hauptsitz der regionalen Horizon Group. Die Position ist auf den belegten Stadt- oder Teilraum angenähert; eine hausgenaue Lage und eine weitergehende eigene Fließtextbeschreibung sind aus dem zugeordneten Datenmaterial nicht sicher ableitbar.","description_source":"Horizon Group","description_kind":"Ortsprofil","description_has_more":true,"detail_plans":[],"alternate_locations":[],"sources":[{"bookId":"sr5-datapuls","title":"Datapuls","edition":"SR5","citation":"Horizon Group","purpose":"description"}],"map_sources":[],"editions":["SR5"],"edition_descriptions":{"SR5":{"kind":"Ortsprofil","preview":"Stuttgart ist Hauptsitz der regionalen Horizon Group.","full":"Stuttgart ist Hauptsitz der regionalen Horizon Group. Die Position ist auf den belegten Stadt- oder Teilraum angenähert; eine hausgenaue Lage und eine weitergehende eigene Fließtextbeschreibung sind aus dem zugeordneten Datenmaterial nicht sicher ableitbar.","hasMore":true,"hasExcerpt":true,"sources":[{"bookId":"sr5-datapuls","title":"Datapuls","edition":"SR5","citation":"Horizon Group","purpose":"description"}]}}}},{"type":"Feature","geometry":{"type":"Point","coordinates":[9.229,48.843]},"properties":{"id":2,"global_id":"stuttgart:place:2-muhlhausen","name":"Mühlhausen","aliases":[],"category":"Bezirke","detail_map":"Mühlhausen","source_pages":"Mühlhausen","map_source":"Deutschland in den Schatten II","placement_note":"Geografischer Bezugspunkt des Lore-Distrikts Mühlhausen","accuracy":"Lore-Bezirkszentrum; Grenzpolygon noch nicht georeferenziert","source_map":"stuttgart-content","source_panel":"Mühlhausen","description_preview":"Mühlhausen und angrenzende Viertel sind sozial benachteiligt und werden vom Sternschutz weitgehend gemieden.","description_full":"Mühlhausen und angrenzende Viertel sind sozial benachteiligt und werden vom Sternschutz weitgehend gemieden. Die Position ist auf den belegten Stadt- oder Teilraum angenähert; eine hausgenaue Lage und eine weitergehende eigene Fließtextbeschreibung sind aus dem zugeordneten Datenmaterial nicht sicher ableitbar.","description_source":"Mühlhausen","description_kind":"Ortsprofil","description_has_more":true,"detail_plans":[],"alternate_locations":[],"sources":[{"bookId":"sr3-deutschland-in-den-schatten-ii","title":"Deutschland in den Schatten II","edition":"SR3","citation":"Mühlhausen","purpose":"description"}],"map_sources":[],"editions":["SR3"],"edition_descriptions":{"SR3":{"kind":"Ortsprofil","preview":"Mühlhausen und angrenzende Viertel sind sozial benachteiligt und werden vom Sternschutz weitgehend gemieden.","full":"Mühlhausen und angrenzende Viertel sind sozial benachteiligt und werden vom Sternschutz weitgehend gemieden. Die Position ist auf den belegten Stadt- oder Teilraum angenähert; eine hausgenaue Lage und eine weitergehende eigene Fließtextbeschreibung sind aus dem zugeordneten Datenmaterial nicht sicher ableitbar.","hasMore":true,"hasExcerpt":true,"sources":[{"bookId":"sr3-deutschland-in-den-schatten-ii","title":"Deutschland in den Schatten II","edition":"SR3","citation":"Mühlhausen","purpose":"description"}]}}}},{"type":"Feature","geometry":{"type":"Point","coordinates":[9.1829,48.7758]},"properties":{"id":1,"global_id":"stuttgart:place:1-stuttgarter-kessel","name":"Stuttgarter Kessel","aliases":[],"category":"Bezirke","detail_map":"Stuttgarter Kessel","source_pages":"Stuttgart heute","map_source":"Deutschland in den Schatten II","placement_note":"Geografischer Bezugspunkt des Lore-Distrikts Stuttgarter Kessel","accuracy":"Lore-Bezirkszentrum; Grenzpolygon noch nicht georeferenziert","source_map":"stuttgart-content","source_panel":"Stuttgarter Kessel","description_preview":"Der Kessel ist dichter Verwaltungs-, Konzern- und Kulturkern des Plexes.","description_full":"Der Kessel ist dichter Verwaltungs-, Konzern- und Kulturkern des Plexes. Die Position ist auf den belegten Stadt- oder Teilraum angenähert; eine hausgenaue Lage und eine weitergehende eigene Fließtextbeschreibung sind aus dem zugeordneten Datenmaterial nicht sicher ableitbar.","description_source":"Stuttgart heute","description_kind":"Ortsprofil","description_has_more":true,"detail_plans":[],"alternate_locations":[],"sources":[{"bookId":"sr3-deutschland-in-den-schatten-ii","title":"Deutschland in den Schatten II","edition":"SR3","citation":"Stuttgart heute","purpose":"description"}],"map_sources":[],"editions":["SR3"],"edition_descriptions":{"SR3":{"kind":"Ortsprofil","preview":"Der Kessel ist dichter Verwaltungs-, Konzern- und Kulturkern des Plexes.","full":"Der Kessel ist dichter Verwaltungs-, Konzern- und Kulturkern des Plexes. Die Position ist auf den belegten Stadt- oder Teilraum angenähert; eine hausgenaue Lage und eine weitergehende eigene Fließtextbeschreibung sind aus dem zugeordneten Datenmaterial nicht sicher ableitbar.","hasMore":true,"hasExcerpt":true,"sources":[{"bookId":"sr3-deutschland-in-den-schatten-ii","title":"Deutschland in den Schatten II","edition":"SR3","citation":"Stuttgart heute","purpose":"description"}]}}}},{"type":"Feature","geometry":null,"properties":{"id":6,"global_id":"stuttgart:place:6-stuttgarter-transrapid","name":"Stuttgarter Transrapid","aliases":[],"category":"Verkehr","detail_map":"Stuttgart","source_pages":"Bahn","map_source":"Deutschland in den Schatten II","placement_note":"Keine belastbare Einzelposition; Eintrag bleibt im Katalog","accuracy":"Nur Stadt oder Lore-Teilraum belegt","source_map":"stuttgart-content","source_panel":"Stuttgart","description_preview":"Der Transrapid verbindet Stuttgart mit Karlsruhe, Mannheim, Frankfurt und Hannover.","description_full":"Der Transrapid verbindet Stuttgart mit Karlsruhe, Mannheim, Frankfurt und Hannover. Die Position ist auf den belegten Stadt- oder Teilraum angenähert; eine hausgenaue Lage und eine weitergehende eigene Fließtextbeschreibung sind aus dem zugeordneten Datenmaterial nicht sicher ableitbar.","description_source":"Bahn","description_kind":"Ortsprofil","description_has_more":true,"detail_plans":[],"alternate_locations":[],"sources":[{"bookId":"sr3-deutschland-in-den-schatten-ii","title":"Deutschland in den Schatten II","edition":"SR3","citation":"Bahn","purpose":"description"}],"map_sources":[],"editions":["SR3"],"edition_descriptions":{"SR3":{"kind":"Ortsprofil","preview":"Der Transrapid verbindet Stuttgart mit Karlsruhe, Mannheim, Frankfurt und Hannover.","full":"Der Transrapid verbindet Stuttgart mit Karlsruhe, Mannheim, Frankfurt und Hannover. Die Position ist auf den belegten Stadt- oder Teilraum angenähert; eine hausgenaue Lage und eine weitergehende eigene Fließtextbeschreibung sind aus dem zugeordneten Datenmaterial nicht sicher ableitbar.","hasMore":true,"hasExcerpt":true,"sources":[{"bookId":"sr3-deutschland-in-den-schatten-ii","title":"Deutschland in den Schatten II","edition":"SR3","citation":"Bahn","purpose":"description"}]}}}}]}
