{"type":"FeatureCollection","name":"Stuttgart – geprüfte zusätzliche Quellenorte","features":[{"type":"Feature","geometry":null,"properties":{"id":7,"global_id":"stuttgart:source-place:bereichen-touristik-restaurant-und-reisefuhrer-gastronomie","name":"Bereichen Touristik (Restaurant- und Reiseführer, Gastronomie)","aliases":[],"category":"Bars, Clubs und Gastronomie","detail_map":"Stuttgart","source_pages":"Textzeile 22950","map_source":"Shadowrun 4D Konzerndossier","placement_note":"Keine belastbare Einzelposition; Eintrag bleibt im Katalog","accuracy":"Nur Stadt oder Lore-Teilraum belegt","source_map":"source-supplement","source_panel":"Stuttgart","description_preview":"Bereichen Touristik (Restaurant- und Reiseführer, Gastronomie) ist in Shadowrun 4D Konzerndossier als benannter Schauplatz mit Bezug zu Stuttgart belegt.","description_full":"Bereichen Touristik (Restaurant- und Reiseführer, Gastronomie) ist in Shadowrun 4D Konzerndossier als benannter Schauplatz mit Bezug zu Stuttgart belegt. Das Dossier fasst den belegten Quellenstand redaktionell zusammen; eine nicht belegte Kartenposition wird nicht ergänzt.","description_source":"Textzeile 22950","description_kind":"Ortsdossier","description_has_more":true,"detail_plans":[],"alternate_locations":[],"sources":[{"bookId":"sr4-shadowrun-4d-konzerndossier","title":"Shadowrun 4D Konzerndossier","edition":"SR4","citation":"Textzeile 22950","purpose":"description"}],"map_sources":[],"editions":["SR4"],"edition_descriptions":{"SR4":{"kind":"Ortsdossier","preview":"Bereichen Touristik (Restaurant- und Reiseführer, Gastronomie) ist in Shadowrun 4D Konzerndossier als benannter Schauplatz mit Bezug zu Stuttgart belegt.","full":"Bereichen Touristik (Restaurant- und Reiseführer, Gastronomie) ist in Shadowrun 4D Konzerndossier als benannter Schauplatz mit Bezug zu Stuttgart belegt. Das Dossier fasst den belegten Quellenstand redaktionell zusammen; eine nicht belegte Kartenposition wird nicht ergänzt.","hasMore":true,"hasExcerpt":true,"sources":[{"bookId":"sr4-shadowrun-4d-konzerndossier","title":"Shadowrun 4D Konzerndossier","edition":"SR4","citation":"Textzeile 22950","purpose":"description"}]}}}}]}
