{"type":"FeatureCollection","name":"Metrópole Orte","features":[{"type":"Feature","geometry":{"type":"Point","coordinates":[-43.12,-22.94]},"properties":{"id":3,"global_id":"metropole:place:3-eastern-centro","name":"Eastern Centro","aliases":[],"category":"Bezirke","detail_map":"Eastern Centro","source_pages":"Mayor of Eastern Centro","map_source":"Shadows in Focus - City by Shadow - Metrópole","placement_note":"Geografischer Bezugspunkt des Lore-Distrikts Eastern Centro","accuracy":"Lore-Bezirkszentrum; Grenzpolygon noch nicht georeferenziert","source_map":"metropole-content","source_panel":"Eastern Centro","description_preview":"Eastern Centro ist ein eigener politischer Teilraum innerhalb des östlichen Plexes.","description_full":"Eastern Centro ist ein eigener politischer Teilraum innerhalb des östlichen Plexes. Die Position ist auf den belegten Stadt- oder Teilraum angenähert; eine hausgenaue Lage und eine weitergehende eigene Fließtextbeschreibung sind aus dem zugeordneten Datenmaterial nicht sicher ableitbar.","description_source":"Mayor of Eastern Centro","description_kind":"Ortsprofil","description_has_more":true,"detail_plans":[],"alternate_locations":[],"sources":[{"bookId":"sr5-shadows-in-focus-city-by-shadow-metropole","title":"Shadows in Focus - City by Shadow - Metrópole","edition":"SR5","citation":"Mayor of Eastern Centro","purpose":"description"}],"map_sources":[],"editions":["SR5"],"edition_descriptions":{"SR5":{"kind":"Ortsprofil","preview":"Eastern Centro ist ein eigener politischer Teilraum innerhalb des östlichen Plexes.","full":"Eastern Centro ist ein eigener politischer Teilraum innerhalb des östlichen Plexes. Die Position ist auf den belegten Stadt- oder Teilraum angenähert; eine hausgenaue Lage und eine weitergehende eigene Fließtextbeschreibung sind aus dem zugeordneten Datenmaterial nicht sicher ableitbar.","hasMore":true,"hasExcerpt":true,"sources":[{"bookId":"sr5-shadows-in-focus-city-by-shadow-metropole","title":"Shadows in Focus - City by Shadow - Metrópole","edition":"SR5","citation":"Mayor of Eastern Centro","purpose":"description"}]}}}},{"type":"Feature","geometry":null,"properties":{"id":4,"global_id":"metropole:place:4-grand-palm-hotel","name":"Grand Palm Hotel","aliases":[],"category":"Hotels","detail_map":"Metrópole","source_pages":"Grand Palm Hotel","map_source":"Shadows in Focus - City by Shadow - Metrópole","placement_note":"Keine belastbare Einzelposition; Eintrag bleibt im Katalog","accuracy":"Nur Stadt oder Lore-Teilraum belegt","source_map":"metropole-content","source_panel":"Metrópole","description_preview":"Das Grand Palm Hotel ist ein im Stadtquellenband benannter Unterkunfts- und Treffpunkt.","description_full":"Das Grand Palm Hotel ist ein im Stadtquellenband benannter Unterkunfts- und Treffpunkt. Die Position ist auf den belegten Stadt- oder Teilraum angenähert; eine hausgenaue Lage und eine weitergehende eigene Fließtextbeschreibung sind aus dem zugeordneten Datenmaterial nicht sicher ableitbar.","description_source":"Grand Palm Hotel","description_kind":"Ortsprofil","description_has_more":true,"detail_plans":[],"alternate_locations":[],"sources":[{"bookId":"sr5-shadows-in-focus-city-by-shadow-metropole","title":"Shadows in Focus - City by Shadow - Metrópole","edition":"SR5","citation":"Grand Palm Hotel","purpose":"description"}],"map_sources":[],"editions":["SR5"],"edition_descriptions":{"SR5":{"kind":"Ortsprofil","preview":"Das Grand Palm Hotel ist ein im Stadtquellenband benannter Unterkunfts- und Treffpunkt.","full":"Das Grand Palm Hotel ist ein im Stadtquellenband benannter Unterkunfts- und Treffpunkt. Die Position ist auf den belegten Stadt- oder Teilraum angenähert; eine hausgenaue Lage und eine weitergehende eigene Fließtextbeschreibung sind aus dem zugeordneten Datenmaterial nicht sicher ableitbar.","hasMore":true,"hasExcerpt":true,"sources":[{"bookId":"sr5-shadows-in-focus-city-by-shadow-metropole","title":"Shadows in Focus - City by Shadow - Metrópole","edition":"SR5","citation":"Grand Palm Hotel","purpose":"description"}]}}}},{"type":"Feature","geometry":null,"properties":{"id":7,"global_id":"metropole:place:7-paredao","name":"Paredão","aliases":[],"category":"Sonstige Spots","detail_map":"Metrópole","source_pages":"Paredão","map_source":"Shadows in Focus - City by Shadow - Metrópole","placement_note":"Keine belastbare Einzelposition; Eintrag bleibt im Katalog","accuracy":"Nur Stadt oder Lore-Teilraum belegt","source_map":"metropole-content","source_panel":"Metrópole","description_preview":"Paredão ist ein benannter lokaler Schauplatz.","description_full":"Paredão ist ein benannter lokaler Schauplatz. Die Position ist auf den belegten Stadt- oder Teilraum angenähert; eine hausgenaue Lage und eine weitergehende eigene Fließtextbeschreibung sind aus dem zugeordneten Datenmaterial nicht sicher ableitbar.","description_source":"Paredão","description_kind":"Ortsprofil","description_has_more":true,"detail_plans":[],"alternate_locations":[],"sources":[{"bookId":"sr5-shadows-in-focus-city-by-shadow-metropole","title":"Shadows in Focus - City by Shadow - Metrópole","edition":"SR5","citation":"Paredão","purpose":"description"}],"map_sources":[],"editions":["SR5"],"edition_descriptions":{"SR5":{"kind":"Ortsprofil","preview":"Paredão ist ein benannter lokaler Schauplatz.","full":"Paredão ist ein benannter lokaler Schauplatz. Die Position ist auf den belegten Stadt- oder Teilraum angenähert; eine hausgenaue Lage und eine weitergehende eigene Fließtextbeschreibung sind aus dem zugeordneten Datenmaterial nicht sicher ableitbar.","hasMore":true,"hasExcerpt":true,"sources":[{"bookId":"sr5-shadows-in-focus-city-by-shadow-metropole","title":"Shadows in Focus - City by Shadow - Metrópole","edition":"SR5","citation":"Paredão","purpose":"description"}]}}}},{"type":"Feature","geometry":null,"properties":{"id":5,"global_id":"metropole:place:5-quimbanda-street","name":"Quimbanda Street","aliases":[],"category":"Religion und Magie","detail_map":"Metrópole","source_pages":"Quimbanda Street","map_source":"Shadows in Focus - City by Shadow - Metrópole","placement_note":"Keine belastbare Einzelposition; Eintrag bleibt im Katalog","accuracy":"Nur Stadt oder Lore-Teilraum belegt","source_map":"metropole-content","source_panel":"Metrópole","description_preview":"Quimbanda Street ist ein stark magisch und subkulturell geprägter Straßenzug.","description_full":"Quimbanda Street ist ein stark magisch und subkulturell geprägter Straßenzug. Die Position ist auf den belegten Stadt- oder Teilraum angenähert; eine hausgenaue Lage und eine weitergehende eigene Fließtextbeschreibung sind aus dem zugeordneten Datenmaterial nicht sicher ableitbar.","description_source":"Quimbanda Street","description_kind":"Ortsprofil","description_has_more":true,"detail_plans":[],"alternate_locations":[],"sources":[{"bookId":"sr5-shadows-in-focus-city-by-shadow-metropole","title":"Shadows in Focus - City by Shadow - Metrópole","edition":"SR5","citation":"Quimbanda Street","purpose":"description"}],"map_sources":[],"editions":["SR5"],"edition_descriptions":{"SR5":{"kind":"Ortsprofil","preview":"Quimbanda Street ist ein stark magisch und subkulturell geprägter Straßenzug.","full":"Quimbanda Street ist ein stark magisch und subkulturell geprägter Straßenzug. Die Position ist auf den belegten Stadt- oder Teilraum angenähert; eine hausgenaue Lage und eine weitergehende eigene Fließtextbeschreibung sind aus dem zugeordneten Datenmaterial nicht sicher ableitbar.","hasMore":true,"hasExcerpt":true,"sources":[{"bookId":"sr5-shadows-in-focus-city-by-shadow-metropole","title":"Shadows in Focus - City by Shadow - Metrópole","edition":"SR5","citation":"Quimbanda Street","purpose":"description"}]}}}},{"type":"Feature","geometry":{"type":"Point","coordinates":[-43.1729,-22.9068]},"properties":{"id":2,"global_id":"metropole:place:2-rio-de-janeiro","name":"Rio de Janeiro","aliases":[],"category":"Bezirke","detail_map":"Rio de Janeiro","source_pages":"Rio de Janeiro","map_source":"Shadows in Focus - City by Shadow - Metrópole","placement_note":"Geografischer Bezugspunkt des Lore-Distrikts Rio de Janeiro","accuracy":"Lore-Bezirkszentrum; Grenzpolygon noch nicht georeferenziert","source_map":"metropole-content","source_panel":"Rio de Janeiro","description_preview":"Rio de Janeiro ist Küsten-, Medien-, Tourismus- und Machtzentrum des Sprawls.","description_full":"Rio de Janeiro ist Küsten-, Medien-, Tourismus- und Machtzentrum des Sprawls. Die Position ist auf den belegten Stadt- oder Teilraum angenähert; eine hausgenaue Lage und eine weitergehende eigene Fließtextbeschreibung sind aus dem zugeordneten Datenmaterial nicht sicher ableitbar.","description_source":"Rio de Janeiro","description_kind":"Ortsprofil","description_has_more":true,"detail_plans":[],"alternate_locations":[],"sources":[{"bookId":"sr5-shadows-in-focus-city-by-shadow-metropole","title":"Shadows in Focus - City by Shadow - Metrópole","edition":"SR5","citation":"Rio de Janeiro","purpose":"description"}],"map_sources":[],"editions":["SR5"],"edition_descriptions":{"SR5":{"kind":"Ortsprofil","preview":"Rio de Janeiro ist Küsten-, Medien-, Tourismus- und Machtzentrum des Sprawls.","full":"Rio de Janeiro ist Küsten-, Medien-, Tourismus- und Machtzentrum des Sprawls. Die Position ist auf den belegten Stadt- oder Teilraum angenähert; eine hausgenaue Lage und eine weitergehende eigene Fließtextbeschreibung sind aus dem zugeordneten Datenmaterial nicht sicher ableitbar.","hasMore":true,"hasExcerpt":true,"sources":[{"bookId":"sr5-shadows-in-focus-city-by-shadow-metropole","title":"Shadows in Focus - City by Shadow - Metrópole","edition":"SR5","citation":"Rio de Janeiro","purpose":"description"}]}}}},{"type":"Feature","geometry":{"type":"Point","coordinates":[-46.6333,-23.5505]},"properties":{"id":1,"global_id":"metropole:place:1-sao-paulo","name":"São Paulo","aliases":[],"category":"Bezirke","detail_map":"São Paulo","source_pages":"São Paulo","map_source":"Shadows in Focus - City by Shadow - Metrópole","placement_note":"Geografischer Bezugspunkt des Lore-Distrikts São Paulo","accuracy":"Lore-Bezirkszentrum; Grenzpolygon noch nicht georeferenziert","source_map":"metropole-content","source_panel":"São Paulo","description_preview":"São Paulo ist der westliche Wirtschafts-, Industrie- und Konzernschwerpunkt von Metrópole.","description_full":"São Paulo ist der westliche Wirtschafts-, Industrie- und Konzernschwerpunkt von Metrópole. Die Position ist auf den belegten Stadt- oder Teilraum angenähert; eine hausgenaue Lage und eine weitergehende eigene Fließtextbeschreibung sind aus dem zugeordneten Datenmaterial nicht sicher ableitbar.","description_source":"São Paulo","description_kind":"Ortsprofil","description_has_more":true,"detail_plans":[],"alternate_locations":[],"sources":[{"bookId":"sr5-shadows-in-focus-city-by-shadow-metropole","title":"Shadows in Focus - City by Shadow - Metrópole","edition":"SR5","citation":"São Paulo","purpose":"description"}],"map_sources":[],"editions":["SR5"],"edition_descriptions":{"SR5":{"kind":"Ortsprofil","preview":"São Paulo ist der westliche Wirtschafts-, Industrie- und Konzernschwerpunkt von Metrópole.","full":"São Paulo ist der westliche Wirtschafts-, Industrie- und Konzernschwerpunkt von Metrópole. Die Position ist auf den belegten Stadt- oder Teilraum angenähert; eine hausgenaue Lage und eine weitergehende eigene Fließtextbeschreibung sind aus dem zugeordneten Datenmaterial nicht sicher ableitbar.","hasMore":true,"hasExcerpt":true,"sources":[{"bookId":"sr5-shadows-in-focus-city-by-shadow-metropole","title":"Shadows in Focus - City by Shadow - Metrópole","edition":"SR5","citation":"São Paulo","purpose":"description"}]}}}},{"type":"Feature","geometry":{"type":"Point","coordinates":[-46.73,-23.559]},"properties":{"id":6,"global_id":"metropole:place:6-university-of-sao-paulo","name":"University of São Paulo","aliases":[],"category":"Bildung und Kultur","detail_map":"São Paulo","source_pages":"University of Sao Paulo","map_source":"Shadows in Focus - City by Shadow - Metrópole","placement_note":"Erhaltener geographischer Bezugspunkt","accuracy":"Geographischer Bezugspunkt","source_map":"metropole-content","source_panel":"São Paulo","description_preview":"Die Universität ist ein bedeutender Bildungs- und Forschungsstandort.","description_full":"Die Universität ist ein bedeutender Bildungs- und Forschungsstandort. Die Position folgt einem erhaltenen heutigen Bezugspunkt.","description_source":"University of Sao Paulo","description_kind":"Ortsprofil","description_has_more":true,"detail_plans":[],"alternate_locations":[],"sources":[{"bookId":"sr5-shadows-in-focus-city-by-shadow-metropole","title":"Shadows in Focus - City by Shadow - Metrópole","edition":"SR5","citation":"University of Sao Paulo","purpose":"description"}],"map_sources":[],"editions":["SR5"],"edition_descriptions":{"SR5":{"kind":"Ortsprofil","preview":"Die Universität ist ein bedeutender Bildungs- und Forschungsstandort.","full":"Die Universität ist ein bedeutender Bildungs- und Forschungsstandort. Die Position folgt einem erhaltenen heutigen Bezugspunkt.","hasMore":true,"hasExcerpt":true,"sources":[{"bookId":"sr5-shadows-in-focus-city-by-shadow-metropole","title":"Shadows in Focus - City by Shadow - Metrópole","edition":"SR5","citation":"University of Sao Paulo","purpose":"description"}]}}}}]}
