{"type":"FeatureCollection","name":"Metrópole – geprüfte zusätzliche Quellenorte","features":[{"type":"Feature","geometry":null,"properties":{"id":8,"global_id":"metropole:source-place:the-inner-garden","name":"The Inner Garden","aliases":[],"category":"Sonstige Spots","detail_map":"Metrópole","source_pages":"Textzeile 1363","map_source":"Shadows in Focus - City by Shadow - Metrópole","placement_note":"Keine belastbare Einzelposition; Eintrag bleibt im Katalog","accuracy":"Nur Stadt oder Lore-Teilraum belegt","source_map":"source-supplement","source_panel":"Metrópole","description_preview":"The Inner Garden ist in Shadows in Focus - City by Shadow - Metrópole als benannter Schauplatz mit Bezug zu Metrópole belegt.","description_full":"The Inner Garden ist in Shadows in Focus - City by Shadow - Metrópole als benannter Schauplatz mit Bezug zu Metrópole belegt. Das Dossier fasst den belegten Quellenstand redaktionell zusammen; eine nicht belegte Kartenposition wird nicht ergänzt.","description_source":"Textzeile 1363","description_kind":"Ortsdossier","description_has_more":true,"detail_plans":[],"alternate_locations":[],"sources":[{"bookId":"sr5-shadows-in-focus-city-by-shadow-metropole","title":"Shadows in Focus - City by Shadow - Metrópole","edition":"SR5","citation":"Textzeile 1363","purpose":"description"}],"map_sources":[],"editions":["SR5"],"edition_descriptions":{"SR5":{"kind":"Ortsdossier","preview":"The Inner Garden ist in Shadows in Focus - City by Shadow - Metrópole als benannter Schauplatz mit Bezug zu Metrópole belegt.","full":"The Inner Garden ist in Shadows in Focus - City by Shadow - Metrópole als benannter Schauplatz mit Bezug zu Metrópole belegt. Das Dossier fasst den belegten Quellenstand redaktionell zusammen; eine nicht belegte Kartenposition wird nicht ergänzt.","hasMore":true,"hasExcerpt":true,"sources":[{"bookId":"sr5-shadows-in-focus-city-by-shadow-metropole","title":"Shadows in Focus - City by Shadow - Metrópole","edition":"SR5","citation":"Textzeile 1363","purpose":"description"}]}}}}]}
