{"type":"FeatureCollection","name":"Kapstadt Orte","features":[{"type":"Feature","geometry":{"type":"Point","coordinates":[18.4241,-33.9249]},"properties":{"id":1,"global_id":"kapstadt:place:1-kapstadt-lore-raum","name":"Kapstadt Lore-Raum","aliases":[],"category":"Bezirke","detail_map":"Kapstadt Lore-Raum","source_pages":"Stadt- oder Regionalkapitel","map_source":"Vice","placement_note":"Geografischer Bezugspunkt des Lore-Distrikts Kapstadt Lore-Raum","accuracy":"Lore-Bezirkszentrum; Grenzpolygon noch nicht georeferenziert","source_map":"kapstadt-content","source_panel":"Kapstadt Lore-Raum","description_preview":"Kapstadt ist ein Hafen- und Tourismusplex der Azanischen Konföderation mit ausgeprägter Gang- und Konzernpräsenz.","description_full":"Kapstadt ist ein Hafen- und Tourismusplex der Azanischen Konföderation mit ausgeprägter Gang- und Konzernpräsenz. Die Position ist auf den belegten Stadt- oder Teilraum angenähert; eine hausgenaue Lage und eine weitergehende eigene Fließtextbeschreibung sind aus dem zugeordneten Datenmaterial nicht sicher ableitbar.","description_source":"Stadt- oder Regionalkapitel","description_kind":"Ortsprofil","description_has_more":true,"detail_plans":[],"alternate_locations":[],"sources":[{"bookId":"sr4-vice","title":"Vice","edition":"SR4","citation":"Stadt- oder Regionalkapitel","purpose":"description"}],"map_sources":[],"editions":["SR4"],"edition_descriptions":{"SR4":{"kind":"Ortsprofil","preview":"Kapstadt ist ein Hafen- und Tourismusplex der Azanischen Konföderation mit ausgeprägter Gang- und Konzernpräsenz.","full":"Kapstadt ist ein Hafen- und Tourismusplex der Azanischen Konföderation mit ausgeprägter Gang- und Konzernpräsenz. Die Position ist auf den belegten Stadt- oder Teilraum angenähert; eine hausgenaue Lage und eine weitergehende eigene Fließtextbeschreibung sind aus dem zugeordneten Datenmaterial nicht sicher ableitbar.","hasMore":true,"hasExcerpt":true,"sources":[{"bookId":"sr4-vice","title":"Vice","edition":"SR4","citation":"Stadt- oder Regionalkapitel","purpose":"description"}]}}}}]}
