{"type":"FeatureCollection","name":"Cheyenne Orte","features":[{"type":"Feature","geometry":null,"properties":{"id":17,"global_id":"cheyenne:place:17-ares-district-hq-cheyenne","name":"Ares District HQ Cheyenne","aliases":[],"category":"Konzerne","detail_map":"Corporate Zone","source_pages":"Ares – District HQ: Cheyenne","map_source":"Shadows in Focus - Sioux Nation","placement_note":"Keine belastbare Einzelposition; Eintrag bleibt im Katalog","accuracy":"Nur Stadt oder Lore-Teilraum belegt","source_map":"cheyenne-content","source_panel":"Corporate Zone","description_preview":"Das regionale Ares-Hauptquartier bündelt die Konzerninteressen in der Hauptstadt.","description_full":"Das regionale Ares-Hauptquartier bündelt die Konzerninteressen in der Hauptstadt. Die Position ist auf den belegten Stadt- oder Teilraum angenähert; eine hausgenaue Lage und eine weitergehende eigene Fließtextbeschreibung sind aus dem zugeordneten Datenmaterial nicht sicher ableitbar.","description_source":"Ares – District HQ: Cheyenne","description_kind":"Ortsprofil","description_has_more":true,"detail_plans":[],"alternate_locations":[],"sources":[{"bookId":"sr5-shadows-in-focus-sioux-nation","title":"Shadows in Focus - Sioux Nation","edition":"SR5","citation":"Ares – District HQ: Cheyenne","purpose":"description"}],"map_sources":[],"editions":["SR5"],"edition_descriptions":{"SR5":{"kind":"Ortsprofil","preview":"Das regionale Ares-Hauptquartier bündelt die Konzerninteressen in der Hauptstadt.","full":"Das regionale Ares-Hauptquartier bündelt die Konzerninteressen in der Hauptstadt. Die Position ist auf den belegten Stadt- oder Teilraum angenähert; eine hausgenaue Lage und eine weitergehende eigene Fließtextbeschreibung sind aus dem zugeordneten Datenmaterial nicht sicher ableitbar.","hasMore":true,"hasExcerpt":true,"sources":[{"bookId":"sr5-shadows-in-focus-sioux-nation","title":"Shadows in Focus - Sioux Nation","edition":"SR5","citation":"Ares – District HQ: Cheyenne","purpose":"description"}]}}}},{"type":"Feature","geometry":null,"properties":{"id":5,"global_id":"cheyenne:place:5-cheyenne-city-hall","name":"Cheyenne City Hall","aliases":[],"category":"Behörden","detail_map":"Cheyenne","source_pages":"Cheyenne City Hall","map_source":"Shadows in Focus - City by Shadow - Cheyenne","placement_note":"Keine belastbare Einzelposition; Eintrag bleibt im Katalog","accuracy":"Nur Stadt oder Lore-Teilraum belegt","source_map":"cheyenne-content","source_panel":"Cheyenne","description_preview":"Das Rathaus ist der Sitz der kommunalen Verwaltung.","description_full":"Das Rathaus ist der Sitz der kommunalen Verwaltung. Die Position ist auf den belegten Stadt- oder Teilraum angenähert; eine hausgenaue Lage und eine weitergehende eigene Fließtextbeschreibung sind aus dem zugeordneten Datenmaterial nicht sicher ableitbar.","description_source":"Cheyenne City Hall","description_kind":"Ortsprofil","description_has_more":true,"detail_plans":[],"alternate_locations":[],"sources":[{"bookId":"sr5-shadows-in-focus-city-by-shadow-cheyenne","title":"Shadows in Focus - City by Shadow - Cheyenne","edition":"SR5","citation":"Cheyenne City Hall","purpose":"description"}],"map_sources":[],"editions":["SR5"],"edition_descriptions":{"SR5":{"kind":"Ortsprofil","preview":"Das Rathaus ist der Sitz der kommunalen Verwaltung.","full":"Das Rathaus ist der Sitz der kommunalen Verwaltung. Die Position ist auf den belegten Stadt- oder Teilraum angenähert; eine hausgenaue Lage und eine weitergehende eigene Fließtextbeschreibung sind aus dem zugeordneten Datenmaterial nicht sicher ableitbar.","hasMore":true,"hasExcerpt":true,"sources":[{"bookId":"sr5-shadows-in-focus-city-by-shadow-cheyenne","title":"Shadows in Focus - City by Shadow - Cheyenne","edition":"SR5","citation":"Cheyenne City Hall","purpose":"description"}]}}}},{"type":"Feature","geometry":{"type":"Point","coordinates":[-104.865,41.155]},"properties":{"id":3,"global_id":"cheyenne:place:3-cheyenne-military-complex","name":"Cheyenne Military Complex","aliases":[],"category":"Bezirke","detail_map":"Cheyenne Military Complex","source_pages":"Cheyenne Military Complex","map_source":"Shadows in Focus - City by Shadow - Cheyenne","placement_note":"Geografischer Bezugspunkt des Lore-Distrikts Cheyenne Military Complex","accuracy":"Lore-Bezirkszentrum; Grenzpolygon noch nicht georeferenziert","source_map":"cheyenne-content","source_panel":"Cheyenne Military Complex","description_preview":"Der Militärkomplex ist ein strategischer Sicherheits- und Kommandostandort der Sioux Nation.","description_full":"Der Militärkomplex ist ein strategischer Sicherheits- und Kommandostandort der Sioux Nation. Die Position ist auf den belegten Stadt- oder Teilraum angenähert; eine hausgenaue Lage und eine weitergehende eigene Fließtextbeschreibung sind aus dem zugeordneten Datenmaterial nicht sicher ableitbar.","description_source":"Cheyenne Military Complex","description_kind":"Ortsprofil","description_has_more":true,"detail_plans":[],"alternate_locations":[],"sources":[{"bookId":"sr5-shadows-in-focus-city-by-shadow-cheyenne","title":"Shadows in Focus - City by Shadow - Cheyenne","edition":"SR5","citation":"Cheyenne Military Complex","purpose":"description"}],"map_sources":[],"editions":["SR5"],"edition_descriptions":{"SR5":{"kind":"Ortsprofil","preview":"Der Militärkomplex ist ein strategischer Sicherheits- und Kommandostandort der Sioux Nation.","full":"Der Militärkomplex ist ein strategischer Sicherheits- und Kommandostandort der Sioux Nation. Die Position ist auf den belegten Stadt- oder Teilraum angenähert; eine hausgenaue Lage und eine weitergehende eigene Fließtextbeschreibung sind aus dem zugeordneten Datenmaterial nicht sicher ableitbar.","hasMore":true,"hasExcerpt":true,"sources":[{"bookId":"sr5-shadows-in-focus-city-by-shadow-cheyenne","title":"Shadows in Focus - City by Shadow - Cheyenne","edition":"SR5","citation":"Cheyenne Military Complex","purpose":"description"}]}}}},{"type":"Feature","geometry":{"type":"Point","coordinates":[-104.8118,41.1557]},"properties":{"id":10,"global_id":"cheyenne:place:10-cheyenne-regional-airport","name":"Cheyenne Regional Airport","aliases":[],"category":"Verkehr","detail_map":"Cheyenne","source_pages":"Cheyenne Regional Airport","map_source":"Shadows in Focus - City by Shadow - Cheyenne","placement_note":"Erhaltener geographischer Bezugspunkt","accuracy":"Geographischer Bezugspunkt","source_map":"cheyenne-content","source_panel":"Cheyenne","description_preview":"Der Regionalflughafen ist ein wichtiger Zugang zur Hauptstadt der Sioux Nation.","description_full":"Der Regionalflughafen ist ein wichtiger Zugang zur Hauptstadt der Sioux Nation. Die Position folgt einem erhaltenen heutigen Bezugspunkt.","description_source":"Cheyenne Regional Airport","description_kind":"Ortsprofil","description_has_more":true,"detail_plans":[],"alternate_locations":[],"sources":[{"bookId":"sr5-shadows-in-focus-city-by-shadow-cheyenne","title":"Shadows in Focus - City by Shadow - Cheyenne","edition":"SR5","citation":"Cheyenne Regional Airport","purpose":"description"}],"map_sources":[],"editions":["SR5"],"edition_descriptions":{"SR5":{"kind":"Ortsprofil","preview":"Der Regionalflughafen ist ein wichtiger Zugang zur Hauptstadt der Sioux Nation.","full":"Der Regionalflughafen ist ein wichtiger Zugang zur Hauptstadt der Sioux Nation. Die Position folgt einem erhaltenen heutigen Bezugspunkt.","hasMore":true,"hasExcerpt":true,"sources":[{"bookId":"sr5-shadows-in-focus-city-by-shadow-cheyenne","title":"Shadows in Focus - City by Shadow - Cheyenne","edition":"SR5","citation":"Cheyenne Regional Airport","purpose":"description"}]}}}},{"type":"Feature","geometry":null,"properties":{"id":18,"global_id":"cheyenne:place:18-copper-and-brass-club","name":"Copper and Brass Club","aliases":[],"category":"Bars und Clubs","detail_map":"Cheyenne","source_pages":"Copper and Brass Club – W. 21st St. and Dey Ave.","map_source":"Shadows in Focus - City by Shadow - Cheyenne","placement_note":"Keine belastbare Einzelposition; Eintrag bleibt im Katalog","accuracy":"Nur Stadt oder Lore-Teilraum belegt","source_map":"cheyenne-content","source_panel":"Cheyenne","description_preview":"Der Steampunk-Club verlangt passende Kleidung und lässt Anglos nur mit offiziellem Aufenthalts- oder Bürgerstatus ein.","description_full":"Der Steampunk-Club verlangt passende Kleidung und lässt Anglos nur mit offiziellem Aufenthalts- oder Bürgerstatus ein. Die Position ist auf den belegten Stadt- oder Teilraum angenähert; eine hausgenaue Lage und eine weitergehende eigene Fließtextbeschreibung sind aus dem zugeordneten Datenmaterial nicht sicher ableitbar.","description_source":"Copper and Brass Club – W. 21st St. and Dey Ave.","description_kind":"Ortsprofil","description_has_more":true,"detail_plans":[],"alternate_locations":[],"sources":[{"bookId":"sr5-shadows-in-focus-city-by-shadow-cheyenne","title":"Shadows in Focus - City by Shadow - Cheyenne","edition":"SR5","citation":"Copper and Brass Club – W. 21st St. and Dey Ave.","purpose":"description"}],"map_sources":[],"editions":["SR5"],"edition_descriptions":{"SR5":{"kind":"Ortsprofil","preview":"Der Steampunk-Club verlangt passende Kleidung und lässt Anglos nur mit offiziellem Aufenthalts- oder Bürgerstatus ein.","full":"Der Steampunk-Club verlangt passende Kleidung und lässt Anglos nur mit offiziellem Aufenthalts- oder Bürgerstatus ein. Die Position ist auf den belegten Stadt- oder Teilraum angenähert; eine hausgenaue Lage und eine weitergehende eigene Fließtextbeschreibung sind aus dem zugeordneten Datenmaterial nicht sicher ableitbar.","hasMore":true,"hasExcerpt":true,"sources":[{"bookId":"sr5-shadows-in-focus-city-by-shadow-cheyenne","title":"Shadows in Focus - City by Shadow - Cheyenne","edition":"SR5","citation":"Copper and Brass Club – W. 21st St. and Dey Ave.","purpose":"description"}]}}}},{"type":"Feature","geometry":{"type":"Point","coordinates":[-104.806,41.135]},"properties":{"id":1,"global_id":"cheyenne:place:1-corporate-zone","name":"Corporate Zone","aliases":[],"category":"Bezirke","detail_map":"Corporate Zone","source_pages":"The Corporate Zone","map_source":"Shadows in Focus - City by Shadow - Cheyenne","placement_note":"Geografischer Bezugspunkt des Lore-Distrikts Corporate Zone","accuracy":"Lore-Bezirkszentrum; Grenzpolygon noch nicht georeferenziert","source_map":"cheyenne-content","source_panel":"Corporate Zone","description_preview":"Die Corporate Zone bündelt die wichtigsten Konzernstandorte und besonders gesicherte Geschäftsflächen.","description_full":"Die Corporate Zone bündelt die wichtigsten Konzernstandorte und besonders gesicherte Geschäftsflächen. Die Position ist auf den belegten Stadt- oder Teilraum angenähert; eine hausgenaue Lage und eine weitergehende eigene Fließtextbeschreibung sind aus dem zugeordneten Datenmaterial nicht sicher ableitbar.","description_source":"The Corporate Zone","description_kind":"Ortsprofil","description_has_more":true,"detail_plans":[],"alternate_locations":[],"sources":[{"bookId":"sr5-shadows-in-focus-city-by-shadow-cheyenne","title":"Shadows in Focus - City by Shadow - Cheyenne","edition":"SR5","citation":"The Corporate Zone","purpose":"description"}],"map_sources":[],"editions":["SR5"],"edition_descriptions":{"SR5":{"kind":"Ortsprofil","preview":"Die Corporate Zone bündelt die wichtigsten Konzernstandorte und besonders gesicherte Geschäftsflächen.","full":"Die Corporate Zone bündelt die wichtigsten Konzernstandorte und besonders gesicherte Geschäftsflächen. Die Position ist auf den belegten Stadt- oder Teilraum angenähert; eine hausgenaue Lage und eine weitergehende eigene Fließtextbeschreibung sind aus dem zugeordneten Datenmaterial nicht sicher ableitbar.","hasMore":true,"hasExcerpt":true,"sources":[{"bookId":"sr5-shadows-in-focus-city-by-shadow-cheyenne","title":"Shadows in Focus - City by Shadow - Cheyenne","edition":"SR5","citation":"The Corporate Zone","purpose":"description"}]}}}},{"type":"Feature","geometry":null,"properties":{"id":4,"global_id":"cheyenne:place:4-council-of-chiefs-hall","name":"Council of Chiefs Hall","aliases":[],"category":"Behörden","detail_map":"Cheyenne","source_pages":"Council of Chiefs Hall","map_source":"Shadows in Focus - City by Shadow - Cheyenne","placement_note":"Keine belastbare Einzelposition; Eintrag bleibt im Katalog","accuracy":"Nur Stadt oder Lore-Teilraum belegt","source_map":"cheyenne-content","source_panel":"Cheyenne","description_preview":"Die Halle ist ein zentraler politischer Ort der Sioux Nation.","description_full":"Die Halle ist ein zentraler politischer Ort der Sioux Nation. Die Position ist auf den belegten Stadt- oder Teilraum angenähert; eine hausgenaue Lage und eine weitergehende eigene Fließtextbeschreibung sind aus dem zugeordneten Datenmaterial nicht sicher ableitbar.","description_source":"Council of Chiefs Hall","description_kind":"Ortsprofil","description_has_more":true,"detail_plans":[],"alternate_locations":[],"sources":[{"bookId":"sr5-shadows-in-focus-city-by-shadow-cheyenne","title":"Shadows in Focus - City by Shadow - Cheyenne","edition":"SR5","citation":"Council of Chiefs Hall","purpose":"description"}],"map_sources":[],"editions":["SR5"],"edition_descriptions":{"SR5":{"kind":"Ortsprofil","preview":"Die Halle ist ein zentraler politischer Ort der Sioux Nation.","full":"Die Halle ist ein zentraler politischer Ort der Sioux Nation. Die Position ist auf den belegten Stadt- oder Teilraum angenähert; eine hausgenaue Lage und eine weitergehende eigene Fließtextbeschreibung sind aus dem zugeordneten Datenmaterial nicht sicher ableitbar.","hasMore":true,"hasExcerpt":true,"sources":[{"bookId":"sr5-shadows-in-focus-city-by-shadow-cheyenne","title":"Shadows in Focus - City by Shadow - Cheyenne","edition":"SR5","citation":"Council of Chiefs Hall","purpose":"description"}]}}}},{"type":"Feature","geometry":null,"properties":{"id":11,"global_id":"cheyenne:place:11-court-building","name":"Court Building","aliases":[],"category":"Behörden","detail_map":"Cheyenne","source_pages":"Court Building","map_source":"Shadows in Focus - City by Shadow - Cheyenne","placement_note":"Keine belastbare Einzelposition; Eintrag bleibt im Katalog","accuracy":"Nur Stadt oder Lore-Teilraum belegt","source_map":"cheyenne-content","source_panel":"Cheyenne","description_preview":"Das Gerichtsgebäude gehört zum Regierungs- und Justizkomplex.","description_full":"Das Gerichtsgebäude gehört zum Regierungs- und Justizkomplex. Die Position ist auf den belegten Stadt- oder Teilraum angenähert; eine hausgenaue Lage und eine weitergehende eigene Fließtextbeschreibung sind aus dem zugeordneten Datenmaterial nicht sicher ableitbar.","description_source":"Court Building","description_kind":"Ortsprofil","description_has_more":true,"detail_plans":[],"alternate_locations":[],"sources":[{"bookId":"sr5-shadows-in-focus-city-by-shadow-cheyenne","title":"Shadows in Focus - City by Shadow - Cheyenne","edition":"SR5","citation":"Court Building","purpose":"description"}],"map_sources":[],"editions":["SR5"],"edition_descriptions":{"SR5":{"kind":"Ortsprofil","preview":"Das Gerichtsgebäude gehört zum Regierungs- und Justizkomplex.","full":"Das Gerichtsgebäude gehört zum Regierungs- und Justizkomplex. Die Position ist auf den belegten Stadt- oder Teilraum angenähert; eine hausgenaue Lage und eine weitergehende eigene Fließtextbeschreibung sind aus dem zugeordneten Datenmaterial nicht sicher ableitbar.","hasMore":true,"hasExcerpt":true,"sources":[{"bookId":"sr5-shadows-in-focus-city-by-shadow-cheyenne","title":"Shadows in Focus - City by Shadow - Cheyenne","edition":"SR5","citation":"Court Building","purpose":"description"}]}}}},{"type":"Feature","geometry":null,"properties":{"id":7,"global_id":"cheyenne:place:7-destinys-link-club","name":"Destiny’s Link Club","aliases":[],"category":"Bars und Clubs","detail_map":"Corporate Zone","source_pages":"Destiny’s Link Club","map_source":"Shadows in Focus - City by Shadow - Cheyenne","placement_note":"Keine belastbare Einzelposition; Eintrag bleibt im Katalog","accuracy":"Nur Stadt oder Lore-Teilraum belegt","source_map":"cheyenne-content","source_panel":"Corporate Zone","description_preview":"Destiny’s Link Club ist ein vernetzter Ausgeh- und Geschäftstreff.","description_full":"Destiny’s Link Club ist ein vernetzter Ausgeh- und Geschäftstreff. Die Position ist auf den belegten Stadt- oder Teilraum angenähert; eine hausgenaue Lage und eine weitergehende eigene Fließtextbeschreibung sind aus dem zugeordneten Datenmaterial nicht sicher ableitbar.","description_source":"Destiny’s Link Club","description_kind":"Ortsprofil","description_has_more":true,"detail_plans":[],"alternate_locations":[],"sources":[{"bookId":"sr5-shadows-in-focus-city-by-shadow-cheyenne","title":"Shadows in Focus - City by Shadow - Cheyenne","edition":"SR5","citation":"Destiny’s Link Club","purpose":"description"}],"map_sources":[],"editions":["SR5"],"edition_descriptions":{"SR5":{"kind":"Ortsprofil","preview":"Destiny’s Link Club ist ein vernetzter Ausgeh- und Geschäftstreff.","full":"Destiny’s Link Club ist ein vernetzter Ausgeh- und Geschäftstreff. Die Position ist auf den belegten Stadt- oder Teilraum angenähert; eine hausgenaue Lage und eine weitergehende eigene Fließtextbeschreibung sind aus dem zugeordneten Datenmaterial nicht sicher ableitbar.","hasMore":true,"hasExcerpt":true,"sources":[{"bookId":"sr5-shadows-in-focus-city-by-shadow-cheyenne","title":"Shadows in Focus - City by Shadow - Cheyenne","edition":"SR5","citation":"Destiny’s Link Club","purpose":"description"}]}}}},{"type":"Feature","geometry":null,"properties":{"id":12,"global_id":"cheyenne:place:12-healing-winds-club","name":"Healing Winds Club","aliases":[],"category":"Bars und Clubs","detail_map":"Cheyenne","source_pages":"Healing Winds Club","map_source":"Shadows in Focus - City by Shadow - Cheyenne","placement_note":"Keine belastbare Einzelposition; Eintrag bleibt im Katalog","accuracy":"Nur Stadt oder Lore-Teilraum belegt","source_map":"cheyenne-content","source_panel":"Cheyenne","description_preview":"Healing Winds ist ein lokaler Club und Treffpunkt.","description_full":"Healing Winds ist ein lokaler Club und Treffpunkt. Die Position ist auf den belegten Stadt- oder Teilraum angenähert; eine hausgenaue Lage und eine weitergehende eigene Fließtextbeschreibung sind aus dem zugeordneten Datenmaterial nicht sicher ableitbar.","description_source":"Healing Winds Club","description_kind":"Ortsprofil","description_has_more":true,"detail_plans":[],"alternate_locations":[],"sources":[{"bookId":"sr5-shadows-in-focus-city-by-shadow-cheyenne","title":"Shadows in Focus - City by Shadow - Cheyenne","edition":"SR5","citation":"Healing Winds Club","purpose":"description"}],"map_sources":[],"editions":["SR5"],"edition_descriptions":{"SR5":{"kind":"Ortsprofil","preview":"Healing Winds ist ein lokaler Club und Treffpunkt.","full":"Healing Winds ist ein lokaler Club und Treffpunkt. Die Position ist auf den belegten Stadt- oder Teilraum angenähert; eine hausgenaue Lage und eine weitergehende eigene Fließtextbeschreibung sind aus dem zugeordneten Datenmaterial nicht sicher ableitbar.","hasMore":true,"hasExcerpt":true,"sources":[{"bookId":"sr5-shadows-in-focus-city-by-shadow-cheyenne","title":"Shadows in Focus - City by Shadow - Cheyenne","edition":"SR5","citation":"Healing Winds Club","purpose":"description"}]}}}},{"type":"Feature","geometry":null,"properties":{"id":8,"global_id":"cheyenne:place:8-little-bighorn-bar","name":"Little Bighorn Bar","aliases":[],"category":"Bars und Kneipen","detail_map":"Cheyenne","source_pages":"Little Bighorn Bar","map_source":"Shadows in Focus - City by Shadow - Cheyenne","placement_note":"Keine belastbare Einzelposition; Eintrag bleibt im Katalog","accuracy":"Nur Stadt oder Lore-Teilraum belegt","source_map":"cheyenne-content","source_panel":"Cheyenne","description_preview":"Die Little Bighorn Bar ist ein lokaler Treffpunkt.","description_full":"Die Little Bighorn Bar ist ein lokaler Treffpunkt. Die Position ist auf den belegten Stadt- oder Teilraum angenähert; eine hausgenaue Lage und eine weitergehende eigene Fließtextbeschreibung sind aus dem zugeordneten Datenmaterial nicht sicher ableitbar.","description_source":"Little Bighorn Bar","description_kind":"Ortsprofil","description_has_more":true,"detail_plans":[],"alternate_locations":[],"sources":[{"bookId":"sr5-shadows-in-focus-city-by-shadow-cheyenne","title":"Shadows in Focus - City by Shadow - Cheyenne","edition":"SR5","citation":"Little Bighorn Bar","purpose":"description"}],"map_sources":[],"editions":["SR5"],"edition_descriptions":{"SR5":{"kind":"Ortsprofil","preview":"Die Little Bighorn Bar ist ein lokaler Treffpunkt.","full":"Die Little Bighorn Bar ist ein lokaler Treffpunkt. Die Position ist auf den belegten Stadt- oder Teilraum angenähert; eine hausgenaue Lage und eine weitergehende eigene Fließtextbeschreibung sind aus dem zugeordneten Datenmaterial nicht sicher ableitbar.","hasMore":true,"hasExcerpt":true,"sources":[{"bookId":"sr5-shadows-in-focus-city-by-shadow-cheyenne","title":"Shadows in Focus - City by Shadow - Cheyenne","edition":"SR5","citation":"Little Bighorn Bar","purpose":"description"}]}}}},{"type":"Feature","geometry":null,"properties":{"id":19,"global_id":"cheyenne:place:19-mct-cheyenne-elk-sedge-systems","name":"MCT Cheyenne / Elk-Sedge Systems","aliases":[],"category":"Konzerne","detail_map":"Corporate Zone","source_pages":"MCT – I-80 and Meridan Ave.","map_source":"Shadows in Focus - City by Shadow - Cheyenne","placement_note":"Keine belastbare Einzelposition; Eintrag bleibt im Katalog","accuracy":"Nur Stadt oder Lore-Teilraum belegt","source_map":"cheyenne-content","source_panel":"Corporate Zone","description_preview":"Mitsuhamas Cheyenner Büros liegen verdeckt unter dem Namen der Tochter Elk-Sedge Systems am östlichen Stadtrand.","description_full":"Mitsuhamas Cheyenner Büros liegen verdeckt unter dem Namen der Tochter Elk-Sedge Systems am östlichen Stadtrand. Die Position ist auf den belegten Stadt- oder Teilraum angenähert; eine hausgenaue Lage und eine weitergehende eigene Fließtextbeschreibung sind aus dem zugeordneten Datenmaterial nicht sicher ableitbar.","description_source":"MCT – I-80 and Meridan Ave.","description_kind":"Ortsprofil","description_has_more":true,"detail_plans":[],"alternate_locations":[],"sources":[{"bookId":"sr5-shadows-in-focus-city-by-shadow-cheyenne","title":"Shadows in Focus - City by Shadow - Cheyenne","edition":"SR5","citation":"MCT – I-80 and Meridan Ave.","purpose":"description"}],"map_sources":[],"editions":["SR5"],"edition_descriptions":{"SR5":{"kind":"Ortsprofil","preview":"Mitsuhamas Cheyenner Büros liegen verdeckt unter dem Namen der Tochter Elk-Sedge Systems am östlichen Stadtrand.","full":"Mitsuhamas Cheyenner Büros liegen verdeckt unter dem Namen der Tochter Elk-Sedge Systems am östlichen Stadtrand. Die Position ist auf den belegten Stadt- oder Teilraum angenähert; eine hausgenaue Lage und eine weitergehende eigene Fließtextbeschreibung sind aus dem zugeordneten Datenmaterial nicht sicher ableitbar.","hasMore":true,"hasExcerpt":true,"sources":[{"bookId":"sr5-shadows-in-focus-city-by-shadow-cheyenne","title":"Shadows in Focus - City by Shadow - Cheyenne","edition":"SR5","citation":"MCT – I-80 and Meridan Ave.","purpose":"description"}]}}}},{"type":"Feature","geometry":null,"properties":{"id":9,"global_id":"cheyenne:place:9-phoenixs-tavern","name":"Phoenix’s Tavern","aliases":[],"category":"Bars und Kneipen","detail_map":"Cheyenne","source_pages":"Phoenix’s Tavern","map_source":"Shadows in Focus - City by Shadow - Cheyenne","placement_note":"Keine belastbare Einzelposition; Eintrag bleibt im Katalog","accuracy":"Nur Stadt oder Lore-Teilraum belegt","source_map":"cheyenne-content","source_panel":"Cheyenne","description_preview":"Phoenix’s Tavern gehört zu den belegten Cheyenner Schattenlokalen.","description_full":"Phoenix’s Tavern gehört zu den belegten Cheyenner Schattenlokalen. Die Position ist auf den belegten Stadt- oder Teilraum angenähert; eine hausgenaue Lage und eine weitergehende eigene Fließtextbeschreibung sind aus dem zugeordneten Datenmaterial nicht sicher ableitbar.","description_source":"Phoenix’s Tavern","description_kind":"Ortsprofil","description_has_more":true,"detail_plans":[],"alternate_locations":[],"sources":[{"bookId":"sr5-shadows-in-focus-city-by-shadow-cheyenne","title":"Shadows in Focus - City by Shadow - Cheyenne","edition":"SR5","citation":"Phoenix’s Tavern","purpose":"description"}],"map_sources":[],"editions":["SR5"],"edition_descriptions":{"SR5":{"kind":"Ortsprofil","preview":"Phoenix’s Tavern gehört zu den belegten Cheyenner Schattenlokalen.","full":"Phoenix’s Tavern gehört zu den belegten Cheyenner Schattenlokalen. Die Position ist auf den belegten Stadt- oder Teilraum angenähert; eine hausgenaue Lage und eine weitergehende eigene Fließtextbeschreibung sind aus dem zugeordneten Datenmaterial nicht sicher ableitbar.","hasMore":true,"hasExcerpt":true,"sources":[{"bookId":"sr5-shadows-in-focus-city-by-shadow-cheyenne","title":"Shadows in Focus - City by Shadow - Cheyenne","edition":"SR5","citation":"Phoenix’s Tavern","purpose":"description"}]}}}},{"type":"Feature","geometry":null,"properties":{"id":20,"global_id":"cheyenne:place:20-saeder-krupp-cheyenne","name":"Saeder-Krupp Cheyenne","aliases":[],"category":"Konzerne","detail_map":"Corporate Zone","source_pages":"Saeder-Krupp – W. 18th St. and Carey Ave.","map_source":"Shadows in Focus - City by Shadow - Cheyenne","placement_note":"Keine belastbare Einzelposition; Eintrag bleibt im Katalog","accuracy":"Nur Stadt oder Lore-Teilraum belegt","source_map":"cheyenne-content","source_panel":"Corporate Zone","description_preview":"Das Saeder-Krupp-Gebäude prägt die Downtown-Silhouette nahe den politischen Ratsgebäuden.","description_full":"Das Saeder-Krupp-Gebäude prägt die Downtown-Silhouette nahe den politischen Ratsgebäuden. Die Position ist auf den belegten Stadt- oder Teilraum angenähert; eine hausgenaue Lage und eine weitergehende eigene Fließtextbeschreibung sind aus dem zugeordneten Datenmaterial nicht sicher ableitbar.","description_source":"Saeder-Krupp – W. 18th St. and Carey Ave.","description_kind":"Ortsprofil","description_has_more":true,"detail_plans":[],"alternate_locations":[],"sources":[{"bookId":"sr5-shadows-in-focus-city-by-shadow-cheyenne","title":"Shadows in Focus - City by Shadow - Cheyenne","edition":"SR5","citation":"Saeder-Krupp – W. 18th St. and Carey Ave.","purpose":"description"}],"map_sources":[],"editions":["SR5"],"edition_descriptions":{"SR5":{"kind":"Ortsprofil","preview":"Das Saeder-Krupp-Gebäude prägt die Downtown-Silhouette nahe den politischen Ratsgebäuden.","full":"Das Saeder-Krupp-Gebäude prägt die Downtown-Silhouette nahe den politischen Ratsgebäuden. Die Position ist auf den belegten Stadt- oder Teilraum angenähert; eine hausgenaue Lage und eine weitergehende eigene Fließtextbeschreibung sind aus dem zugeordneten Datenmaterial nicht sicher ableitbar.","hasMore":true,"hasExcerpt":true,"sources":[{"bookId":"sr5-shadows-in-focus-city-by-shadow-cheyenne","title":"Shadows in Focus - City by Shadow - Cheyenne","edition":"SR5","citation":"Saeder-Krupp – W. 18th St. and Carey Ave.","purpose":"description"}]}}}},{"type":"Feature","geometry":null,"properties":{"id":21,"global_id":"cheyenne:place:21-shiawase-cheyenne-headquarters","name":"Shiawase Cheyenne Headquarters","aliases":[],"category":"Konzerne","detail_map":"Corporate Zone","source_pages":"Shiawase – Concord Rd. and E. Pershing Blvd.","map_source":"Shadows in Focus - City by Shadow - Cheyenne","placement_note":"Keine belastbare Einzelposition; Eintrag bleibt im Katalog","accuracy":"Nur Stadt oder Lore-Teilraum belegt","source_map":"cheyenne-content","source_panel":"Corporate Zone","description_preview":"Der dreißigstöckige Hauptsitz beherbergt mehrere Shiawase-Sparten und Tochterunternehmen.","description_full":"Der dreißigstöckige Hauptsitz beherbergt mehrere Shiawase-Sparten und Tochterunternehmen. Die Position ist auf den belegten Stadt- oder Teilraum angenähert; eine hausgenaue Lage und eine weitergehende eigene Fließtextbeschreibung sind aus dem zugeordneten Datenmaterial nicht sicher ableitbar.","description_source":"Shiawase – Concord Rd. and E. Pershing Blvd.","description_kind":"Ortsprofil","description_has_more":true,"detail_plans":[],"alternate_locations":[],"sources":[{"bookId":"sr5-shadows-in-focus-city-by-shadow-cheyenne","title":"Shadows in Focus - City by Shadow - Cheyenne","edition":"SR5","citation":"Shiawase – Concord Rd. and E. Pershing Blvd.","purpose":"description"}],"map_sources":[],"editions":["SR5"],"edition_descriptions":{"SR5":{"kind":"Ortsprofil","preview":"Der dreißigstöckige Hauptsitz beherbergt mehrere Shiawase-Sparten und Tochterunternehmen.","full":"Der dreißigstöckige Hauptsitz beherbergt mehrere Shiawase-Sparten und Tochterunternehmen. Die Position ist auf den belegten Stadt- oder Teilraum angenähert; eine hausgenaue Lage und eine weitergehende eigene Fließtextbeschreibung sind aus dem zugeordneten Datenmaterial nicht sicher ableitbar.","hasMore":true,"hasExcerpt":true,"sources":[{"bookId":"sr5-shadows-in-focus-city-by-shadow-cheyenne","title":"Shadows in Focus - City by Shadow - Cheyenne","edition":"SR5","citation":"Shiawase – Concord Rd. and E. Pershing Blvd.","purpose":"description"}]}}}},{"type":"Feature","geometry":{"type":"Point","coordinates":[-104.817,41.105]},"properties":{"id":2,"global_id":"cheyenne:place:2-south-cheyenne","name":"South Cheyenne","aliases":[],"category":"Bezirke","detail_map":"South Cheyenne","source_pages":"Kapitel South Cheyenne","map_source":"Shadows in Focus - City by Shadow - Cheyenne","placement_note":"Geografischer Bezugspunkt des Lore-Distrikts South Cheyenne","accuracy":"Lore-Bezirkszentrum; Grenzpolygon noch nicht georeferenziert","source_map":"cheyenne-content","source_panel":"South Cheyenne","description_preview":"South Cheyenne umfasst südliche Wohn-, Gewerbe- und Randbereiche.","description_full":"South Cheyenne umfasst südliche Wohn-, Gewerbe- und Randbereiche. Die Position ist auf den belegten Stadt- oder Teilraum angenähert; eine hausgenaue Lage und eine weitergehende eigene Fließtextbeschreibung sind aus dem zugeordneten Datenmaterial nicht sicher ableitbar.","description_source":"Kapitel South Cheyenne","description_kind":"Ortsprofil","description_has_more":true,"detail_plans":[],"alternate_locations":[],"sources":[{"bookId":"sr5-shadows-in-focus-city-by-shadow-cheyenne","title":"Shadows in Focus - City by Shadow - Cheyenne","edition":"SR5","citation":"Kapitel South Cheyenne","purpose":"description"}],"map_sources":[],"editions":["SR5"],"edition_descriptions":{"SR5":{"kind":"Ortsprofil","preview":"South Cheyenne umfasst südliche Wohn-, Gewerbe- und Randbereiche.","full":"South Cheyenne umfasst südliche Wohn-, Gewerbe- und Randbereiche. Die Position ist auf den belegten Stadt- oder Teilraum angenähert; eine hausgenaue Lage und eine weitergehende eigene Fließtextbeschreibung sind aus dem zugeordneten Datenmaterial nicht sicher ableitbar.","hasMore":true,"hasExcerpt":true,"sources":[{"bookId":"sr5-shadows-in-focus-city-by-shadow-cheyenne","title":"Shadows in Focus - City by Shadow - Cheyenne","edition":"SR5","citation":"Kapitel South Cheyenne","purpose":"description"}]}}}},{"type":"Feature","geometry":null,"properties":{"id":22,"global_id":"cheyenne:place:22-stripes","name":"Stripes","aliases":[],"category":"Bars und Kneipen","detail_map":"Cheyenne Military Complex","source_pages":"Stripes – Randall Ave. and Rodgers Dr.","map_source":"Shadows in Focus - City by Shadow - Cheyenne","placement_note":"Keine belastbare Einzelposition; Eintrag bleibt im Katalog","accuracy":"Nur Stadt oder Lore-Teilraum belegt","source_map":"cheyenne-content","source_panel":"Cheyenne Military Complex","description_preview":"Stripes ist eine Bar für ehemalige und aktive Wildcats im Cheyenne Military Complex.","description_full":"Stripes ist eine Bar für ehemalige und aktive Wildcats im Cheyenne Military Complex. Die Position ist auf den belegten Stadt- oder Teilraum angenähert; eine hausgenaue Lage und eine weitergehende eigene Fließtextbeschreibung sind aus dem zugeordneten Datenmaterial nicht sicher ableitbar.","description_source":"Stripes – Randall Ave. and Rodgers Dr.","description_kind":"Ortsprofil","description_has_more":true,"detail_plans":[],"alternate_locations":[],"sources":[{"bookId":"sr5-shadows-in-focus-city-by-shadow-cheyenne","title":"Shadows in Focus - City by Shadow - Cheyenne","edition":"SR5","citation":"Stripes – Randall Ave. and Rodgers Dr.","purpose":"description"}],"map_sources":[],"editions":["SR5"],"edition_descriptions":{"SR5":{"kind":"Ortsprofil","preview":"Stripes ist eine Bar für ehemalige und aktive Wildcats im Cheyenne Military Complex.","full":"Stripes ist eine Bar für ehemalige und aktive Wildcats im Cheyenne Military Complex. Die Position ist auf den belegten Stadt- oder Teilraum angenähert; eine hausgenaue Lage und eine weitergehende eigene Fließtextbeschreibung sind aus dem zugeordneten Datenmaterial nicht sicher ableitbar.","hasMore":true,"hasExcerpt":true,"sources":[{"bookId":"sr5-shadows-in-focus-city-by-shadow-cheyenne","title":"Shadows in Focus - City by Shadow - Cheyenne","edition":"SR5","citation":"Stripes – Randall Ave. and Rodgers Dr.","purpose":"description"}]}}}},{"type":"Feature","geometry":null,"properties":{"id":13,"global_id":"cheyenne:place:13-the-royal-fortune","name":"The Royal Fortune","aliases":[],"category":"Bars und Clubs","detail_map":"Cheyenne","source_pages":"The Royal Fortune","map_source":"Shadows in Focus - City by Shadow - Cheyenne","placement_note":"Keine belastbare Einzelposition; Eintrag bleibt im Katalog","accuracy":"Nur Stadt oder Lore-Teilraum belegt","source_map":"cheyenne-content","source_panel":"Cheyenne","description_preview":"The Royal Fortune ist ein benannter Cheyenner Ausgeh- und Kontaktort.","description_full":"The Royal Fortune ist ein benannter Cheyenner Ausgeh- und Kontaktort. Die Position ist auf den belegten Stadt- oder Teilraum angenähert; eine hausgenaue Lage und eine weitergehende eigene Fließtextbeschreibung sind aus dem zugeordneten Datenmaterial nicht sicher ableitbar.","description_source":"The Royal Fortune","description_kind":"Ortsprofil","description_has_more":true,"detail_plans":[],"alternate_locations":[],"sources":[{"bookId":"sr5-shadows-in-focus-city-by-shadow-cheyenne","title":"Shadows in Focus - City by Shadow - Cheyenne","edition":"SR5","citation":"The Royal Fortune","purpose":"description"}],"map_sources":[],"editions":["SR5"],"edition_descriptions":{"SR5":{"kind":"Ortsprofil","preview":"The Royal Fortune ist ein benannter Cheyenner Ausgeh- und Kontaktort.","full":"The Royal Fortune ist ein benannter Cheyenner Ausgeh- und Kontaktort. Die Position ist auf den belegten Stadt- oder Teilraum angenähert; eine hausgenaue Lage und eine weitergehende eigene Fließtextbeschreibung sind aus dem zugeordneten Datenmaterial nicht sicher ableitbar.","hasMore":true,"hasExcerpt":true,"sources":[{"bookId":"sr5-shadows-in-focus-city-by-shadow-cheyenne","title":"Shadows in Focus - City by Shadow - Cheyenne","edition":"SR5","citation":"The Royal Fortune","purpose":"description"}]}}}},{"type":"Feature","geometry":null,"properties":{"id":6,"global_id":"cheyenne:place:6-university-of-cheyenne","name":"University of Cheyenne","aliases":[],"category":"Bildung und Kultur","detail_map":"Cheyenne","source_pages":"University of Cheyenne","map_source":"Shadows in Focus - City by Shadow - Cheyenne","placement_note":"Keine belastbare Einzelposition; Eintrag bleibt im Katalog","accuracy":"Nur Stadt oder Lore-Teilraum belegt","source_map":"cheyenne-content","source_panel":"Cheyenne","description_preview":"Die Universität ist ein wichtiger Bildungs- und Forschungsstandort.","description_full":"Die Universität ist ein wichtiger Bildungs- und Forschungsstandort. Die Position ist auf den belegten Stadt- oder Teilraum angenähert; eine hausgenaue Lage und eine weitergehende eigene Fließtextbeschreibung sind aus dem zugeordneten Datenmaterial nicht sicher ableitbar.","description_source":"University of Cheyenne","description_kind":"Ortsprofil","description_has_more":true,"detail_plans":[],"alternate_locations":[],"sources":[{"bookId":"sr5-shadows-in-focus-city-by-shadow-cheyenne","title":"Shadows in Focus - City by Shadow - Cheyenne","edition":"SR5","citation":"University of Cheyenne","purpose":"description"}],"map_sources":[],"editions":["SR5"],"edition_descriptions":{"SR5":{"kind":"Ortsprofil","preview":"Die Universität ist ein wichtiger Bildungs- und Forschungsstandort.","full":"Die Universität ist ein wichtiger Bildungs- und Forschungsstandort. Die Position ist auf den belegten Stadt- oder Teilraum angenähert; eine hausgenaue Lage und eine weitergehende eigene Fließtextbeschreibung sind aus dem zugeordneten Datenmaterial nicht sicher ableitbar.","hasMore":true,"hasExcerpt":true,"sources":[{"bookId":"sr5-shadows-in-focus-city-by-shadow-cheyenne","title":"Shadows in Focus - City by Shadow - Cheyenne","edition":"SR5","citation":"University of Cheyenne","purpose":"description"}]}}}},{"type":"Feature","geometry":null,"properties":{"id":14,"global_id":"cheyenne:place:14-vintage-wheels","name":"Vintage Wheels","aliases":[],"category":"Einkaufen","detail_map":"Cheyenne","source_pages":"Vintage Wheels","map_source":"Shadows in Focus - City by Shadow - Cheyenne","placement_note":"Keine belastbare Einzelposition; Eintrag bleibt im Katalog","accuracy":"Nur Stadt oder Lore-Teilraum belegt","source_map":"cheyenne-content","source_panel":"Cheyenne","description_preview":"Vintage Wheels ist ein lokaler Fahrzeug- und Szenestandort.","description_full":"Vintage Wheels ist ein lokaler Fahrzeug- und Szenestandort. Die Position ist auf den belegten Stadt- oder Teilraum angenähert; eine hausgenaue Lage und eine weitergehende eigene Fließtextbeschreibung sind aus dem zugeordneten Datenmaterial nicht sicher ableitbar.","description_source":"Vintage Wheels","description_kind":"Ortsprofil","description_has_more":true,"detail_plans":[],"alternate_locations":[],"sources":[{"bookId":"sr5-shadows-in-focus-city-by-shadow-cheyenne","title":"Shadows in Focus - City by Shadow - Cheyenne","edition":"SR5","citation":"Vintage Wheels","purpose":"description"}],"map_sources":[],"editions":["SR5"],"edition_descriptions":{"SR5":{"kind":"Ortsprofil","preview":"Vintage Wheels ist ein lokaler Fahrzeug- und Szenestandort.","full":"Vintage Wheels ist ein lokaler Fahrzeug- und Szenestandort. Die Position ist auf den belegten Stadt- oder Teilraum angenähert; eine hausgenaue Lage und eine weitergehende eigene Fließtextbeschreibung sind aus dem zugeordneten Datenmaterial nicht sicher ableitbar.","hasMore":true,"hasExcerpt":true,"sources":[{"bookId":"sr5-shadows-in-focus-city-by-shadow-cheyenne","title":"Shadows in Focus - City by Shadow - Cheyenne","edition":"SR5","citation":"Vintage Wheels","purpose":"description"}]}}}},{"type":"Feature","geometry":null,"properties":{"id":15,"global_id":"cheyenne:place:15-warpdrive-systems","name":"Warpdrive Systems","aliases":[],"category":"Konzerne","detail_map":"Corporate Zone","source_pages":"Warpdrive Systems","map_source":"Mission Sioux-Nation","placement_note":"Keine belastbare Einzelposition; Eintrag bleibt im Katalog","accuracy":"Nur Stadt oder Lore-Teilraum belegt","source_map":"cheyenne-content","source_panel":"Corporate Zone","description_preview":"Warpdrive Systems ist ein in Cheyenne belegter Technologie- und Konzernstandort.","description_full":"Warpdrive Systems ist ein in Cheyenne belegter Technologie- und Konzernstandort. Die Position ist auf den belegten Stadt- oder Teilraum angenähert; eine hausgenaue Lage und eine weitergehende eigene Fließtextbeschreibung sind aus dem zugeordneten Datenmaterial nicht sicher ableitbar.","description_source":"Warpdrive Systems","description_kind":"Ortsprofil","description_has_more":true,"detail_plans":[],"alternate_locations":[],"sources":[{"bookId":"sr5-mission-sioux-nation","title":"Mission Sioux-Nation","edition":"SR5","citation":"Warpdrive Systems","purpose":"description"}],"map_sources":[],"editions":["SR5"],"edition_descriptions":{"SR5":{"kind":"Ortsprofil","preview":"Warpdrive Systems ist ein in Cheyenne belegter Technologie- und Konzernstandort.","full":"Warpdrive Systems ist ein in Cheyenne belegter Technologie- und Konzernstandort. Die Position ist auf den belegten Stadt- oder Teilraum angenähert; eine hausgenaue Lage und eine weitergehende eigene Fließtextbeschreibung sind aus dem zugeordneten Datenmaterial nicht sicher ableitbar.","hasMore":true,"hasExcerpt":true,"sources":[{"bookId":"sr5-mission-sioux-nation","title":"Mission Sioux-Nation","edition":"SR5","citation":"Warpdrive Systems","purpose":"description"}]}}}},{"type":"Feature","geometry":null,"properties":{"id":16,"global_id":"cheyenne:place:16-yahtos-sports-bar","name":"Yahto’s Sports Bar","aliases":[],"category":"Bars und Kneipen","detail_map":"Cheyenne","source_pages":"Yahto’s Sports Bar","map_source":"Shadows in Focus - City by Shadow - Cheyenne","placement_note":"Keine belastbare Einzelposition; Eintrag bleibt im Katalog","accuracy":"Nur Stadt oder Lore-Teilraum belegt","source_map":"cheyenne-content","source_panel":"Cheyenne","description_preview":"Yahto’s ist eine lokale Sportsbar und ein möglicher Schattenkontaktpunkt.","description_full":"Yahto’s ist eine lokale Sportsbar und ein möglicher Schattenkontaktpunkt. Die Position ist auf den belegten Stadt- oder Teilraum angenähert; eine hausgenaue Lage und eine weitergehende eigene Fließtextbeschreibung sind aus dem zugeordneten Datenmaterial nicht sicher ableitbar.","description_source":"Yahto’s Sports Bar","description_kind":"Ortsprofil","description_has_more":true,"detail_plans":[],"alternate_locations":[],"sources":[{"bookId":"sr5-shadows-in-focus-city-by-shadow-cheyenne","title":"Shadows in Focus - City by Shadow - Cheyenne","edition":"SR5","citation":"Yahto’s Sports Bar","purpose":"description"}],"map_sources":[],"editions":["SR5"],"edition_descriptions":{"SR5":{"kind":"Ortsprofil","preview":"Yahto’s ist eine lokale Sportsbar und ein möglicher Schattenkontaktpunkt.","full":"Yahto’s ist eine lokale Sportsbar und ein möglicher Schattenkontaktpunkt. Die Position ist auf den belegten Stadt- oder Teilraum angenähert; eine hausgenaue Lage und eine weitergehende eigene Fließtextbeschreibung sind aus dem zugeordneten Datenmaterial nicht sicher ableitbar.","hasMore":true,"hasExcerpt":true,"sources":[{"bookId":"sr5-shadows-in-focus-city-by-shadow-cheyenne","title":"Shadows in Focus - City by Shadow - Cheyenne","edition":"SR5","citation":"Yahto’s Sports Bar","purpose":"description"}]}}}}]}
