{"type":"FeatureCollection","name":"Bangkok Orte","features":[{"type":"Feature","geometry":{"type":"Point","coordinates":[100.5018,13.7563]},"properties":{"id":1,"global_id":"bangkok:place:1-bangkok-lore-raum","name":"Bangkok Lore-Raum","aliases":[],"category":"Bezirke","detail_map":"Bangkok Lore-Raum","source_pages":"Stadt- oder Regionalkapitel","map_source":"State of the Art 2073","placement_note":"Geografischer Bezugspunkt des Lore-Distrikts Bangkok Lore-Raum","accuracy":"Lore-Bezirkszentrum; Grenzpolygon noch nicht georeferenziert","source_map":"bangkok-content","source_panel":"Bangkok Lore-Raum","description_preview":"Bangkok ist ein dichtes südostasiatisches Handels-, Vergnügungs-, Militär- und Unterweltzentrum.","description_full":"Bangkok ist ein dichtes südostasiatisches Handels-, Vergnügungs-, Militär- und Unterweltzentrum. Die Position ist auf den belegten Stadt- oder Teilraum angenähert; eine hausgenaue Lage und eine weitergehende eigene Fließtextbeschreibung sind aus dem zugeordneten Datenmaterial nicht sicher ableitbar.","description_source":"Stadt- oder Regionalkapitel","description_kind":"Ortsprofil","description_has_more":true,"detail_plans":[],"alternate_locations":[],"sources":[{"bookId":"sr4-state-of-the-art-2073","title":"State of the Art 2073","edition":"SR4","citation":"Stadt- oder Regionalkapitel","purpose":"description"}],"map_sources":[],"editions":["SR4"],"edition_descriptions":{"SR4":{"kind":"Ortsprofil","preview":"Bangkok ist ein dichtes südostasiatisches Handels-, Vergnügungs-, Militär- und Unterweltzentrum.","full":"Bangkok ist ein dichtes südostasiatisches Handels-, Vergnügungs-, Militär- und Unterweltzentrum. Die Position ist auf den belegten Stadt- oder Teilraum angenähert; eine hausgenaue Lage und eine weitergehende eigene Fließtextbeschreibung sind aus dem zugeordneten Datenmaterial nicht sicher ableitbar.","hasMore":true,"hasExcerpt":true,"sources":[{"bookId":"sr4-state-of-the-art-2073","title":"State of the Art 2073","edition":"SR4","citation":"Stadt- oder Regionalkapitel","purpose":"description"}]}}}}]}
