{"type":"FeatureCollection","name":"Bangkok – geprüfte zusätzliche Quellenorte","features":[{"type":"Feature","geometry":null,"properties":{"id":2,"global_id":"bangkok:source-place:siam-square-sukhumvit-road","name":"Siam Square/Sukhumvit Road","aliases":[],"category":"Sonstige Spots","detail_map":"Bangkok","source_pages":"Textzeile 743","map_source":"99 Bottles","placement_note":"Keine belastbare Einzelposition; Eintrag bleibt im Katalog","accuracy":"Nur Stadt oder Lore-Teilraum belegt","source_map":"source-supplement","source_panel":"Bangkok","description_preview":"Siam Square/Sukhumvit Road ist in 99 Bottles als benannter Schauplatz mit Bezug zu Bangkok belegt.","description_full":"Siam Square/Sukhumvit Road ist in 99 Bottles als benannter Schauplatz mit Bezug zu Bangkok belegt. Das Dossier fasst den belegten Quellenstand redaktionell zusammen; eine nicht belegte Kartenposition wird nicht ergänzt.","description_source":"Textzeile 743","description_kind":"Ortsdossier","description_has_more":true,"detail_plans":[],"alternate_locations":[],"sources":[{"bookId":"sr4-99-bottles","title":"99 Bottles","edition":"SR4","citation":"Textzeile 743","purpose":"description"}],"map_sources":[],"editions":["SR4"],"edition_descriptions":{"SR4":{"kind":"Ortsdossier","preview":"Siam Square/Sukhumvit Road ist in 99 Bottles als benannter Schauplatz mit Bezug zu Bangkok belegt.","full":"Siam Square/Sukhumvit Road ist in 99 Bottles als benannter Schauplatz mit Bezug zu Bangkok belegt. Das Dossier fasst den belegten Quellenstand redaktionell zusammen; eine nicht belegte Kartenposition wird nicht ergänzt.","hasMore":true,"hasExcerpt":true,"sources":[{"bookId":"sr4-99-bottles","title":"99 Bottles","edition":"SR4","citation":"Textzeile 743","purpose":"description"}]}}}}]}
