{"type":"FeatureCollection","name":"Hamburg exterritoriale Konzerngebiete","topology":{"model":"exclusive-corporate-over-normal","unresolved_overlap_area_degrees_squared":0},"features":[{"type":"Feature","geometry":{"type":"Polygon","coordinates":[[[10.0138,53.6003],[10.0153,53.6076],[10.0192,53.6112],[10.0287,53.611],[10.0335,53.6073],[10.0331,53.6002],[10.029,53.5968],[10.0201,53.5965],[10.0138,53.6003]]]},"properties":{"zone_type":"corporate","label":"Exterritoriales Konzerngebiet · Sardinenstadt (City Nord)","color":"#f1cf49","source":"Datapuls: Hamburg, S. 40–41","entity_id":395,"status":"corporate","topology":"disjoint","basis":"Vollständig exterritoriale Sardinenstadt; Außenkante entlang Jahnring/Stadtpark, Hebebrandstraße, Sengelmannstraße und westlicher Bürostadtkante","boundary_review_status":"source-aligned","boundary_review_label":"Mit Datapuls Hamburg und den erkennbaren Straßen- und Blockkanten der City Nord abgeglichen","description_preview":"Die Sardinenstadt ist ein dichtes Geflecht aus Konzernbüros und Wohnhochhäusern und laut Datapuls vollständig exterritorial.","description_full":"Die Sardinenstadt, die frühere City Nord, ist vollständig exterritorial. Zugang und Bewegung unterliegen Konzernkontrollen; die dargestellte Außenkante folgt den heutigen Straßen- und Blockkanten der Bürostadt.","sources":[{"bookId":"datapuls-hamburg-sr5","title":"Datapuls: Hamburg","edition":"SR5","citation":"S. 40–41","purpose":"boundary"}],"editions":["SR5"]}}]}
