{"type":"FeatureCollection","name":"Hamburg – geprüfte zusätzliche Quellenorte","features":[{"type":"Feature","geometry":null,"properties":{"id":410,"global_id":"hamburg-2080:source-place:das-werk-der-ameisen","name":"Das Werk der Ameisen","aliases":[],"category":"Sonstige Spots","detail_map":"Hamburg","source_pages":"Textzeile 16766","map_source":"Datapuls Hamburg","placement_note":"Keine belastbare Einzelposition; Eintrag bleibt im Katalog","accuracy":"Nur Stadt oder Lore-Teilraum belegt","source_map":"source-supplement","source_panel":"Hamburg","description_preview":"Das Werk der Ameisen ist in Datapuls Hamburg als benannter Schauplatz mit Bezug zu Hamburg belegt.","description_full":"Das Werk der Ameisen ist in Datapuls Hamburg als benannter Schauplatz mit Bezug zu Hamburg belegt. Das Dossier fasst den belegten Quellenstand redaktionell zusammen; eine nicht belegte Kartenposition wird nicht ergänzt.","description_source":"Textzeile 16766","description_kind":"Ortsdossier","description_has_more":true,"detail_plans":[],"alternate_locations":[],"sources":[{"bookId":"sr5-datapuls-hamburg","title":"Datapuls Hamburg","edition":"SR5","citation":"Textzeile 16766","purpose":"description"},{"bookId":"sr5-hamburgpaket-hamburg","title":"Hamburgpaket - Hamburg","edition":"SR5","citation":"Textzeile 16939","purpose":"description"}],"map_sources":[],"editions":["SR5"],"edition_descriptions":{"SR5":{"kind":"Ortsdossier","preview":"Das Werk der Ameisen ist in Datapuls Hamburg als benannter Schauplatz mit Bezug zu Hamburg belegt.","full":"Das Werk der Ameisen ist in Datapuls Hamburg als benannter Schauplatz mit Bezug zu Hamburg belegt. Das Dossier fasst den belegten Quellenstand redaktionell zusammen; eine nicht belegte Kartenposition wird nicht ergänzt.","hasMore":true,"hasExcerpt":true,"sources":[{"bookId":"sr5-datapuls-hamburg","title":"Datapuls Hamburg","edition":"SR5","citation":"Textzeile 16766","purpose":"description"},{"bookId":"sr5-hamburgpaket-hamburg","title":"Hamburgpaket - Hamburg","edition":"SR5","citation":"Textzeile 16939","purpose":"description"}]}}}},{"type":"Feature","geometry":null,"properties":{"id":411,"global_id":"hamburg-2080:source-place:harbor-sentry","name":"Harbor Sentry","aliases":[],"category":"Sonstige Spots","detail_map":"Hamburg","source_pages":"Textzeile 17497","map_source":"Datapuls Hamburg","placement_note":"Keine belastbare Einzelposition; Eintrag bleibt im Katalog","accuracy":"Nur Stadt oder Lore-Teilraum belegt","source_map":"source-supplement","source_panel":"Hamburg","description_preview":"Harbor Sentry ist in Datapuls Hamburg als benannter Schauplatz mit Bezug zu Hamburg belegt.","description_full":"Harbor Sentry ist in Datapuls Hamburg als benannter Schauplatz mit Bezug zu Hamburg belegt. Das Dossier fasst den belegten Quellenstand redaktionell zusammen; eine nicht belegte Kartenposition wird nicht ergänzt.","description_source":"Textzeile 17497","description_kind":"Ortsdossier","description_has_more":true,"detail_plans":[],"alternate_locations":[],"sources":[{"bookId":"sr5-datapuls-hamburg","title":"Datapuls Hamburg","edition":"SR5","citation":"Textzeile 17497","purpose":"description"},{"bookId":"sr5-hamburgpaket-hamburg","title":"Hamburgpaket - Hamburg","edition":"SR5","citation":"Textzeile 17677","purpose":"description"}],"map_sources":[],"editions":["SR5"],"edition_descriptions":{"SR5":{"kind":"Ortsdossier","preview":"Harbor Sentry ist in Datapuls Hamburg als benannter Schauplatz mit Bezug zu Hamburg belegt.","full":"Harbor Sentry ist in Datapuls Hamburg als benannter Schauplatz mit Bezug zu Hamburg belegt. Das Dossier fasst den belegten Quellenstand redaktionell zusammen; eine nicht belegte Kartenposition wird nicht ergänzt.","hasMore":true,"hasExcerpt":true,"sources":[{"bookId":"sr5-datapuls-hamburg","title":"Datapuls Hamburg","edition":"SR5","citation":"Textzeile 17497","purpose":"description"},{"bookId":"sr5-hamburgpaket-hamburg","title":"Hamburgpaket - Hamburg","edition":"SR5","citation":"Textzeile 17677","purpose":"description"}]}}}},{"type":"Feature","geometry":null,"properties":{"id":412,"global_id":"hamburg-2080:source-place:terminal-moorfleet","name":"Terminal Moorfleet","aliases":[],"category":"Sonstige Spots","detail_map":"Hamburg","source_pages":"Textzeile 29693","map_source":"Datapuls","placement_note":"Keine belastbare Einzelposition; Eintrag bleibt im Katalog","accuracy":"Nur Stadt oder Lore-Teilraum belegt","source_map":"source-supplement","source_panel":"Hamburg","description_preview":"Terminal Moorfleet ist in Datapuls als benannter Schauplatz mit Bezug zu Hamburg belegt.","description_full":"Terminal Moorfleet ist in Datapuls als benannter Schauplatz mit Bezug zu Hamburg belegt. Das Dossier fasst den belegten Quellenstand redaktionell zusammen; eine nicht belegte Kartenposition wird nicht ergänzt.","description_source":"Textzeile 29693","description_kind":"Ortsdossier","description_has_more":true,"detail_plans":[],"alternate_locations":[],"sources":[{"bookId":"sr5-datapuls","title":"Datapuls","edition":"SR5","citation":"Textzeile 29693","purpose":"description"},{"bookId":"sr5-datapuls-hamburg","title":"Datapuls Hamburg","edition":"SR5","citation":"Textzeile 1923","purpose":"description"},{"bookId":"sr5-hamburgpaket-hamburg","title":"Hamburgpaket - Hamburg","edition":"SR5","citation":"Textzeile 1940","purpose":"description"}],"map_sources":[],"editions":["SR5"],"edition_descriptions":{"SR5":{"kind":"Ortsdossier","preview":"Terminal Moorfleet ist in Datapuls als benannter Schauplatz mit Bezug zu Hamburg belegt.","full":"Terminal Moorfleet ist in Datapuls als benannter Schauplatz mit Bezug zu Hamburg belegt. Das Dossier fasst den belegten Quellenstand redaktionell zusammen; eine nicht belegte Kartenposition wird nicht ergänzt.","hasMore":true,"hasExcerpt":true,"sources":[{"bookId":"sr5-datapuls","title":"Datapuls","edition":"SR5","citation":"Textzeile 29693","purpose":"description"},{"bookId":"sr5-datapuls-hamburg","title":"Datapuls Hamburg","edition":"SR5","citation":"Textzeile 1923","purpose":"description"},{"bookId":"sr5-hamburgpaket-hamburg","title":"Hamburgpaket - Hamburg","edition":"SR5","citation":"Textzeile 1940","purpose":"description"}]}}}},{"type":"Feature","geometry":null,"properties":{"id":413,"global_id":"hamburg-2080:source-place:the-faraday-school","name":"The Faraday School","aliases":[],"category":"Sonstige Spots","detail_map":"Hamburg","source_pages":"Textzeile 16232","map_source":"Vice","placement_note":"Keine belastbare Einzelposition; Eintrag bleibt im Katalog","accuracy":"Nur Stadt oder Lore-Teilraum belegt","source_map":"source-supplement","source_panel":"Hamburg","description_preview":"The Faraday School ist in Vice als benannter Schauplatz mit Bezug zu Hamburg belegt.","description_full":"The Faraday School ist in Vice als benannter Schauplatz mit Bezug zu Hamburg belegt. Das Dossier fasst den belegten Quellenstand redaktionell zusammen; eine nicht belegte Kartenposition wird nicht ergänzt.","description_source":"Textzeile 16232","description_kind":"Ortsdossier","description_has_more":true,"detail_plans":[],"alternate_locations":[],"sources":[{"bookId":"sr4-vice","title":"Vice","edition":"SR4","citation":"Textzeile 16232","purpose":"description"}],"map_sources":[],"editions":["SR4"],"edition_descriptions":{"SR4":{"kind":"Ortsdossier","preview":"The Faraday School ist in Vice als benannter Schauplatz mit Bezug zu Hamburg belegt.","full":"The Faraday School ist in Vice als benannter Schauplatz mit Bezug zu Hamburg belegt. Das Dossier fasst den belegten Quellenstand redaktionell zusammen; eine nicht belegte Kartenposition wird nicht ergänzt.","hasMore":true,"hasExcerpt":true,"sources":[{"bookId":"sr4-vice","title":"Vice","edition":"SR4","citation":"Textzeile 16232","purpose":"description"}]}}}}]}
