{"type":"FeatureCollection","name":"Caracas Orte","features":[{"type":"Feature","geometry":{"type":"Point","coordinates":[-66.914,10.506]},"properties":{"id":6,"global_id":"caracas:place:6-caracas-cathedral","name":"Caracas Cathedral","aliases":[],"category":"Religion und Magie","detail_map":"Caracas","source_pages":"Caracas Cathedral","map_source":"Dawn of the Artifacts 5 - Artifacts Unbound","placement_note":"Erhaltener geographischer Bezugspunkt","accuracy":"Geographischer Bezugspunkt","source_map":"caracas-content","source_panel":"Caracas","description_preview":"Die Kathedrale ist religiöses Wahrzeichen und Abenteuerbezugspunkt.","description_full":"Die Kathedrale ist religiöses Wahrzeichen und Abenteuerbezugspunkt. Die Position folgt einem erhaltenen heutigen Bezugspunkt.","description_source":"Caracas Cathedral","description_kind":"Ortsprofil","description_has_more":true,"detail_plans":[],"alternate_locations":[],"sources":[{"bookId":"sr4-dawn-of-the-artifacts-5-artifacts-unbound","title":"Dawn of the Artifacts 5 - Artifacts Unbound","edition":"SR4","citation":"Caracas Cathedral","purpose":"description"}],"map_sources":[],"editions":["SR4"],"edition_descriptions":{"SR4":{"kind":"Ortsprofil","preview":"Die Kathedrale ist religiöses Wahrzeichen und Abenteuerbezugspunkt.","full":"Die Kathedrale ist religiöses Wahrzeichen und Abenteuerbezugspunkt. Die Position folgt einem erhaltenen heutigen Bezugspunkt.","hasMore":true,"hasExcerpt":true,"sources":[{"bookId":"sr4-dawn-of-the-artifacts-5-artifacts-unbound","title":"Dawn of the Artifacts 5 - Artifacts Unbound","edition":"SR4","citation":"Caracas Cathedral","purpose":"description"}]}}}},{"type":"Feature","geometry":{"type":"Point","coordinates":[-66.9036,10.4806]},"properties":{"id":1,"global_id":"caracas:place:1-caracas-lore-raum","name":"Caracas Lore-Raum","aliases":[],"category":"Bezirke","detail_map":"Caracas Lore-Raum","source_pages":"Stadt- oder Regionalkapitel","map_source":"Shadowrun 4D Geisterkartelle","placement_note":"Geografischer Bezugspunkt des Lore-Distrikts Caracas Lore-Raum","accuracy":"Lore-Bezirkszentrum; Grenzpolygon noch nicht georeferenziert","source_map":"caracas-content","source_panel":"Caracas Lore-Raum","description_preview":"Caracas verbindet den Hochlandsprawl mit dem Hafen La Guaira und ist ein Brennpunkt der Geisterkartell-Konflikte.","description_full":"Caracas verbindet den Hochlandsprawl mit dem Hafen La Guaira und ist ein Brennpunkt der Geisterkartell-Konflikte. Die Position ist auf den belegten Stadt- oder Teilraum angenähert; eine hausgenaue Lage und eine weitergehende eigene Fließtextbeschreibung sind aus dem zugeordneten Datenmaterial nicht sicher ableitbar.","description_source":"Stadt- oder Regionalkapitel","description_kind":"Ortsprofil","description_has_more":true,"detail_plans":[],"alternate_locations":[],"sources":[{"bookId":"sr4-shadowrun-4d-geisterkartelle","title":"Shadowrun 4D Geisterkartelle","edition":"SR4","citation":"Stadt- oder Regionalkapitel","purpose":"description"}],"map_sources":[],"editions":["SR4"],"edition_descriptions":{"SR4":{"kind":"Ortsprofil","preview":"Caracas verbindet den Hochlandsprawl mit dem Hafen La Guaira und ist ein Brennpunkt der Geisterkartell-Konflikte.","full":"Caracas verbindet den Hochlandsprawl mit dem Hafen La Guaira und ist ein Brennpunkt der Geisterkartell-Konflikte. Die Position ist auf den belegten Stadt- oder Teilraum angenähert; eine hausgenaue Lage und eine weitergehende eigene Fließtextbeschreibung sind aus dem zugeordneten Datenmaterial nicht sicher ableitbar.","hasMore":true,"hasExcerpt":true,"sources":[{"bookId":"sr4-shadowrun-4d-geisterkartelle","title":"Shadowrun 4D Geisterkartelle","edition":"SR4","citation":"Stadt- oder Regionalkapitel","purpose":"description"}]}}}},{"type":"Feature","geometry":null,"properties":{"id":4,"global_id":"caracas:place:4-el-picaruelo","name":"El Picaruelo","aliases":[],"category":"Bars und Kneipen","detail_map":"La Guaira","source_pages":"El Picaruelo","map_source":"Shadowrun 4D Geisterkartelle","placement_note":"Keine belastbare Einzelposition; Eintrag bleibt im Katalog","accuracy":"Nur Stadt oder Lore-Teilraum belegt","source_map":"caracas-content","source_panel":"La Guaira","description_preview":"El Picaruelo ist ein im Hafenraum belegter Schauplatz.","description_full":"El Picaruelo ist ein im Hafenraum belegter Schauplatz. Die Position ist auf den belegten Stadt- oder Teilraum angenähert; eine hausgenaue Lage und eine weitergehende eigene Fließtextbeschreibung sind aus dem zugeordneten Datenmaterial nicht sicher ableitbar.","description_source":"El Picaruelo","description_kind":"Ortsprofil","description_has_more":true,"detail_plans":[],"alternate_locations":[],"sources":[{"bookId":"sr4-shadowrun-4d-geisterkartelle","title":"Shadowrun 4D Geisterkartelle","edition":"SR4","citation":"El Picaruelo","purpose":"description"}],"map_sources":[],"editions":["SR4"],"edition_descriptions":{"SR4":{"kind":"Ortsprofil","preview":"El Picaruelo ist ein im Hafenraum belegter Schauplatz.","full":"El Picaruelo ist ein im Hafenraum belegter Schauplatz. Die Position ist auf den belegten Stadt- oder Teilraum angenähert; eine hausgenaue Lage und eine weitergehende eigene Fließtextbeschreibung sind aus dem zugeordneten Datenmaterial nicht sicher ableitbar.","hasMore":true,"hasExcerpt":true,"sources":[{"bookId":"sr4-shadowrun-4d-geisterkartelle","title":"Shadowrun 4D Geisterkartelle","edition":"SR4","citation":"El Picaruelo","purpose":"description"}]}}}},{"type":"Feature","geometry":{"type":"Point","coordinates":[-66.933,10.603]},"properties":{"id":2,"global_id":"caracas:place:2-hafen-la-guaira","name":"Hafen La Guaira","aliases":[],"category":"Verkehr","detail_map":"Caracas","source_pages":"Hafen La Guaira (Caracas)","map_source":"Shadowrun 4D Geisterkartelle","placement_note":"Erhaltener geographischer Bezugspunkt","accuracy":"Geographischer Bezugspunkt","source_map":"caracas-content","source_panel":"Caracas","description_preview":"Der Hafen ist Verkehrs-, Schmuggel- und Kartellschwerpunkt.","description_full":"Der Hafen ist Verkehrs-, Schmuggel- und Kartellschwerpunkt. Die Position folgt einem erhaltenen heutigen Bezugspunkt.","description_source":"Hafen La Guaira (Caracas)","description_kind":"Ortsprofil","description_has_more":true,"detail_plans":[],"alternate_locations":[],"sources":[{"bookId":"sr4-shadowrun-4d-geisterkartelle","title":"Shadowrun 4D Geisterkartelle","edition":"SR4","citation":"Hafen La Guaira (Caracas)","purpose":"description"}],"map_sources":[],"editions":["SR4"],"edition_descriptions":{"SR4":{"kind":"Ortsprofil","preview":"Der Hafen ist Verkehrs-, Schmuggel- und Kartellschwerpunkt.","full":"Der Hafen ist Verkehrs-, Schmuggel- und Kartellschwerpunkt. Die Position folgt einem erhaltenen heutigen Bezugspunkt.","hasMore":true,"hasExcerpt":true,"sources":[{"bookId":"sr4-shadowrun-4d-geisterkartelle","title":"Shadowrun 4D Geisterkartelle","edition":"SR4","citation":"Hafen La Guaira (Caracas)","purpose":"description"}]}}}},{"type":"Feature","geometry":null,"properties":{"id":3,"global_id":"caracas:place:3-meson-gordo-restaurant","name":"Mesón Gordo Restaurant","aliases":[],"category":"Restaurants","detail_map":"Caracas","source_pages":"Méson Gordo Restaurant","map_source":"Ghost Cartels","placement_note":"Keine belastbare Einzelposition; Eintrag bleibt im Katalog","accuracy":"Nur Stadt oder Lore-Teilraum belegt","source_map":"caracas-content","source_panel":"Caracas","description_preview":"Das Restaurant ist ein lokaler Treff- und Missionsort.","description_full":"Das Restaurant ist ein lokaler Treff- und Missionsort. Die Position ist auf den belegten Stadt- oder Teilraum angenähert; eine hausgenaue Lage und eine weitergehende eigene Fließtextbeschreibung sind aus dem zugeordneten Datenmaterial nicht sicher ableitbar.","description_source":"Méson Gordo Restaurant","description_kind":"Ortsprofil","description_has_more":true,"detail_plans":[],"alternate_locations":[],"sources":[{"bookId":"sr4-ghost-cartels","title":"Ghost Cartels","edition":"SR4","citation":"Méson Gordo Restaurant","purpose":"description"}],"map_sources":[],"editions":["SR4"],"edition_descriptions":{"SR4":{"kind":"Ortsprofil","preview":"Das Restaurant ist ein lokaler Treff- und Missionsort.","full":"Das Restaurant ist ein lokaler Treff- und Missionsort. Die Position ist auf den belegten Stadt- oder Teilraum angenähert; eine hausgenaue Lage und eine weitergehende eigene Fließtextbeschreibung sind aus dem zugeordneten Datenmaterial nicht sicher ableitbar.","hasMore":true,"hasExcerpt":true,"sources":[{"bookId":"sr4-ghost-cartels","title":"Ghost Cartels","edition":"SR4","citation":"Méson Gordo Restaurant","purpose":"description"}]}}}},{"type":"Feature","geometry":null,"properties":{"id":5,"global_id":"caracas:place:5-ramos-villa","name":"Ramos Villa","aliases":[],"category":"Wohnen","detail_map":"El Ávila","source_pages":"Ramos Villa","map_source":"Ghost Cartels","placement_note":"Keine belastbare Einzelposition; Eintrag bleibt im Katalog","accuracy":"Nur Stadt oder Lore-Teilraum belegt","source_map":"caracas-content","source_panel":"El Ávila","description_preview":"Die Villa liegt im El-Ávila-Raum und dient als Missionsschauplatz.","description_full":"Die Villa liegt im El-Ávila-Raum und dient als Missionsschauplatz. Die Position ist auf den belegten Stadt- oder Teilraum angenähert; eine hausgenaue Lage und eine weitergehende eigene Fließtextbeschreibung sind aus dem zugeordneten Datenmaterial nicht sicher ableitbar.","description_source":"Ramos Villa","description_kind":"Ortsprofil","description_has_more":true,"detail_plans":[],"alternate_locations":[],"sources":[{"bookId":"sr4-ghost-cartels","title":"Ghost Cartels","edition":"SR4","citation":"Ramos Villa","purpose":"description"}],"map_sources":[],"editions":["SR4"],"edition_descriptions":{"SR4":{"kind":"Ortsprofil","preview":"Die Villa liegt im El-Ávila-Raum und dient als Missionsschauplatz.","full":"Die Villa liegt im El-Ávila-Raum und dient als Missionsschauplatz. Die Position ist auf den belegten Stadt- oder Teilraum angenähert; eine hausgenaue Lage und eine weitergehende eigene Fließtextbeschreibung sind aus dem zugeordneten Datenmaterial nicht sicher ableitbar.","hasMore":true,"hasExcerpt":true,"sources":[{"bookId":"sr4-ghost-cartels","title":"Ghost Cartels","edition":"SR4","citation":"Ramos Villa","purpose":"description"}]}}}}]}
