{"type":"FeatureCollection","name":"Caracas – geprüfte zusätzliche Quellenorte","features":[{"type":"Feature","geometry":null,"properties":{"id":7,"global_id":"caracas:source-place:the-churchs-feint","name":"The Church’s Feint","aliases":[],"category":"Sonstige Spots","detail_map":"Caracas","source_pages":"Textzeile 4892","map_source":"Dawn of the Artifacts 5 - Artifacts Unbound","placement_note":"Keine belastbare Einzelposition; Eintrag bleibt im Katalog","accuracy":"Nur Stadt oder Lore-Teilraum belegt","source_map":"source-supplement","source_panel":"Caracas","description_preview":"The Church’s Feint ist in Dawn of the Artifacts 5 - Artifacts Unbound als benannter Schauplatz mit Bezug zu Caracas belegt.","description_full":"The Church’s Feint ist in Dawn of the Artifacts 5 - Artifacts Unbound als benannter Schauplatz mit Bezug zu Caracas belegt. Das Dossier fasst den belegten Quellenstand redaktionell zusammen; eine nicht belegte Kartenposition wird nicht ergänzt.","description_source":"Textzeile 4892","description_kind":"Ortsdossier","description_has_more":true,"detail_plans":[],"alternate_locations":[],"sources":[{"bookId":"sr4-dawn-of-the-artifacts-5-artifacts-unbound","title":"Dawn of the Artifacts 5 - Artifacts Unbound","edition":"SR4","citation":"Textzeile 4892","purpose":"description"}],"map_sources":[],"editions":["SR4"],"edition_descriptions":{"SR4":{"kind":"Ortsdossier","preview":"The Church’s Feint ist in Dawn of the Artifacts 5 - Artifacts Unbound als benannter Schauplatz mit Bezug zu Caracas belegt.","full":"The Church’s Feint ist in Dawn of the Artifacts 5 - Artifacts Unbound als benannter Schauplatz mit Bezug zu Caracas belegt. Das Dossier fasst den belegten Quellenstand redaktionell zusammen; eine nicht belegte Kartenposition wird nicht ergänzt.","hasMore":true,"hasExcerpt":true,"sources":[{"bookId":"sr4-dawn-of-the-artifacts-5-artifacts-unbound","title":"Dawn of the Artifacts 5 - Artifacts Unbound","edition":"SR4","citation":"Textzeile 4892","purpose":"description"}]}}}}]}
