{"type":"FeatureCollection","name":"New Orleans Orte","features":[{"type":"Feature","geometry":null,"properties":{"id":5,"global_id":"new-orleans:place:5-boutique-bougie","name":"Boutique Bougie","aliases":[],"category":"Einkaufen","detail_map":"New Orleans","source_pages":"Boutique Bougie","map_source":"Shadows in Focus - Easy Come Easy Go (New Orleans)","placement_note":"Keine belastbare Einzelposition; Eintrag bleibt im Katalog","accuracy":"Nur Stadt oder Lore-Teilraum belegt","source_map":"new-orleans-content","source_panel":"New Orleans","description_preview":"Boutique Bougie ist ein im Stadtquellenband benannter Geschäfts- und Szenestandort.","description_full":"Boutique Bougie ist ein im Stadtquellenband benannter Geschäfts- und Szenestandort. Die Position ist auf den belegten Stadt- oder Teilraum angenähert; eine hausgenaue Lage und eine weitergehende eigene Fließtextbeschreibung sind aus dem zugeordneten Datenmaterial nicht sicher ableitbar.","description_source":"Boutique Bougie","description_kind":"Ortsprofil","description_has_more":true,"detail_plans":[],"alternate_locations":[],"sources":[{"bookId":"sr6-shadows-in-focus-easy-come-easy-go-new-orleans","title":"Shadows in Focus - Easy Come Easy Go (New Orleans)","edition":"SR6","citation":"Boutique Bougie","purpose":"description"}],"map_sources":[],"editions":["SR6"],"edition_descriptions":{"SR6":{"kind":"Ortsprofil","preview":"Boutique Bougie ist ein im Stadtquellenband benannter Geschäfts- und Szenestandort.","full":"Boutique Bougie ist ein im Stadtquellenband benannter Geschäfts- und Szenestandort. Die Position ist auf den belegten Stadt- oder Teilraum angenähert; eine hausgenaue Lage und eine weitergehende eigene Fließtextbeschreibung sind aus dem zugeordneten Datenmaterial nicht sicher ableitbar.","hasMore":true,"hasExcerpt":true,"sources":[{"bookId":"sr6-shadows-in-focus-easy-come-easy-go-new-orleans","title":"Shadows in Focus - Easy Come Easy Go (New Orleans)","edition":"SR6","citation":"Boutique Bougie","purpose":"description"}]}}}},{"type":"Feature","geometry":{"type":"Point","coordinates":[-90.075,29.95]},"properties":{"id":1,"global_id":"new-orleans:place:1-business-district","name":"Business District","aliases":[],"category":"Bezirke","detail_map":"Business District","source_pages":"Business District","map_source":"Shadows in Focus - Easy Come Easy Go (New Orleans)","placement_note":"Geografischer Bezugspunkt des Lore-Distrikts Business District","accuracy":"Lore-Bezirkszentrum; Grenzpolygon noch nicht georeferenziert","source_map":"new-orleans-content","source_panel":"Business District","description_preview":"Der Business District bildet den wirtschaftlichen Kern der Stadt.","description_full":"Der Business District bildet den wirtschaftlichen Kern der Stadt. Die Position ist auf den belegten Stadt- oder Teilraum angenähert; eine hausgenaue Lage und eine weitergehende eigene Fließtextbeschreibung sind aus dem zugeordneten Datenmaterial nicht sicher ableitbar.","description_source":"Business District","description_kind":"Ortsprofil","description_has_more":true,"detail_plans":[],"alternate_locations":[],"sources":[{"bookId":"sr6-shadows-in-focus-easy-come-easy-go-new-orleans","title":"Shadows in Focus - Easy Come Easy Go (New Orleans)","edition":"SR6","citation":"Business District","purpose":"description"}],"map_sources":[],"editions":["SR6"],"edition_descriptions":{"SR6":{"kind":"Ortsprofil","preview":"Der Business District bildet den wirtschaftlichen Kern der Stadt.","full":"Der Business District bildet den wirtschaftlichen Kern der Stadt. Die Position ist auf den belegten Stadt- oder Teilraum angenähert; eine hausgenaue Lage und eine weitergehende eigene Fließtextbeschreibung sind aus dem zugeordneten Datenmaterial nicht sicher ableitbar.","hasMore":true,"hasExcerpt":true,"sources":[{"bookId":"sr6-shadows-in-focus-easy-come-easy-go-new-orleans","title":"Shadows in Focus - Easy Come Easy Go (New Orleans)","edition":"SR6","citation":"Business District","purpose":"description"}]}}}},{"type":"Feature","geometry":{"type":"Point","coordinates":[-90.083,29.962]},"properties":{"id":2,"global_id":"new-orleans:place:2-business-zone","name":"Business Zone","aliases":[],"category":"Bezirke","detail_map":"Business Zone","source_pages":"Business Zone","map_source":"Shadows in Focus - Easy Come Easy Go (New Orleans)","placement_note":"Geografischer Bezugspunkt des Lore-Distrikts Business Zone","accuracy":"Lore-Bezirkszentrum; Grenzpolygon noch nicht georeferenziert","source_map":"new-orleans-content","source_panel":"Business Zone","description_preview":"Die Business Zone ist ein besonders kommerziell und konzerngeprägter Teilraum.","description_full":"Die Business Zone ist ein besonders kommerziell und konzerngeprägter Teilraum. Die Position ist auf den belegten Stadt- oder Teilraum angenähert; eine hausgenaue Lage und eine weitergehende eigene Fließtextbeschreibung sind aus dem zugeordneten Datenmaterial nicht sicher ableitbar.","description_source":"Business Zone","description_kind":"Ortsprofil","description_has_more":true,"detail_plans":[],"alternate_locations":[],"sources":[{"bookId":"sr6-shadows-in-focus-easy-come-easy-go-new-orleans","title":"Shadows in Focus - Easy Come Easy Go (New Orleans)","edition":"SR6","citation":"Business Zone","purpose":"description"}],"map_sources":[],"editions":["SR6"],"edition_descriptions":{"SR6":{"kind":"Ortsprofil","preview":"Die Business Zone ist ein besonders kommerziell und konzerngeprägter Teilraum.","full":"Die Business Zone ist ein besonders kommerziell und konzerngeprägter Teilraum. Die Position ist auf den belegten Stadt- oder Teilraum angenähert; eine hausgenaue Lage und eine weitergehende eigene Fließtextbeschreibung sind aus dem zugeordneten Datenmaterial nicht sicher ableitbar.","hasMore":true,"hasExcerpt":true,"sources":[{"bookId":"sr6-shadows-in-focus-easy-come-easy-go-new-orleans","title":"Shadows in Focus - Easy Come Easy Go (New Orleans)","edition":"SR6","citation":"Business Zone","purpose":"description"}]}}}},{"type":"Feature","geometry":{"type":"Point","coordinates":[-90.11,30.002]},"properties":{"id":3,"global_id":"new-orleans:place:3-lakeview","name":"Lakeview","aliases":[],"category":"Bezirke","detail_map":"Lakeview","source_pages":"Lakeview","map_source":"Shadows in Focus - Easy Come Easy Go (New Orleans)","placement_note":"Geografischer Bezugspunkt des Lore-Distrikts Lakeview","accuracy":"Lore-Bezirkszentrum; Grenzpolygon noch nicht georeferenziert","source_map":"new-orleans-content","source_panel":"Lakeview","description_preview":"Lakeview zieht sich entlang des Lake Pontchartrain und bildet einen nördlichen Siedlungsraum.","description_full":"Lakeview zieht sich entlang des Lake Pontchartrain und bildet einen nördlichen Siedlungsraum. Die Position ist auf den belegten Stadt- oder Teilraum angenähert; eine hausgenaue Lage und eine weitergehende eigene Fließtextbeschreibung sind aus dem zugeordneten Datenmaterial nicht sicher ableitbar.","description_source":"Lakeview","description_kind":"Ortsprofil","description_has_more":true,"detail_plans":[],"alternate_locations":[],"sources":[{"bookId":"sr6-shadows-in-focus-easy-come-easy-go-new-orleans","title":"Shadows in Focus - Easy Come Easy Go (New Orleans)","edition":"SR6","citation":"Lakeview","purpose":"description"}],"map_sources":[],"editions":["SR6"],"edition_descriptions":{"SR6":{"kind":"Ortsprofil","preview":"Lakeview zieht sich entlang des Lake Pontchartrain und bildet einen nördlichen Siedlungsraum.","full":"Lakeview zieht sich entlang des Lake Pontchartrain und bildet einen nördlichen Siedlungsraum. Die Position ist auf den belegten Stadt- oder Teilraum angenähert; eine hausgenaue Lage und eine weitergehende eigene Fließtextbeschreibung sind aus dem zugeordneten Datenmaterial nicht sicher ableitbar.","hasMore":true,"hasExcerpt":true,"sources":[{"bookId":"sr6-shadows-in-focus-easy-come-easy-go-new-orleans","title":"Shadows in Focus - Easy Come Easy Go (New Orleans)","edition":"SR6","citation":"Lakeview","purpose":"description"}]}}}},{"type":"Feature","geometry":null,"properties":{"id":6,"global_id":"new-orleans:place:6-liars-medium","name":"Liar’s Medium","aliases":[],"category":"Bars und Clubs","detail_map":"New Orleans","source_pages":"Liar’s Medium","map_source":"Shadows in Focus - Easy Come Easy Go (New Orleans)","placement_note":"Keine belastbare Einzelposition; Eintrag bleibt im Katalog","accuracy":"Nur Stadt oder Lore-Teilraum belegt","source_map":"new-orleans-content","source_panel":"New Orleans","description_preview":"Liar’s Medium ist ein lokaler Treffpunkt mit Bezug zur magischen und medialen Szene.","description_full":"Liar’s Medium ist ein lokaler Treffpunkt mit Bezug zur magischen und medialen Szene. Die Position ist auf den belegten Stadt- oder Teilraum angenähert; eine hausgenaue Lage und eine weitergehende eigene Fließtextbeschreibung sind aus dem zugeordneten Datenmaterial nicht sicher ableitbar.","description_source":"Liar’s Medium","description_kind":"Ortsprofil","description_has_more":true,"detail_plans":[],"alternate_locations":[],"sources":[{"bookId":"sr6-shadows-in-focus-easy-come-easy-go-new-orleans","title":"Shadows in Focus - Easy Come Easy Go (New Orleans)","edition":"SR6","citation":"Liar’s Medium","purpose":"description"}],"map_sources":[],"editions":["SR6"],"edition_descriptions":{"SR6":{"kind":"Ortsprofil","preview":"Liar’s Medium ist ein lokaler Treffpunkt mit Bezug zur magischen und medialen Szene.","full":"Liar’s Medium ist ein lokaler Treffpunkt mit Bezug zur magischen und medialen Szene. Die Position ist auf den belegten Stadt- oder Teilraum angenähert; eine hausgenaue Lage und eine weitergehende eigene Fließtextbeschreibung sind aus dem zugeordneten Datenmaterial nicht sicher ableitbar.","hasMore":true,"hasExcerpt":true,"sources":[{"bookId":"sr6-shadows-in-focus-easy-come-easy-go-new-orleans","title":"Shadows in Focus - Easy Come Easy Go (New Orleans)","edition":"SR6","citation":"Liar’s Medium","purpose":"description"}]}}}},{"type":"Feature","geometry":{"type":"Point","coordinates":[-90.02,29.98]},"properties":{"id":4,"global_id":"new-orleans:place:4-the-barrens","name":"The Barrens","aliases":[],"category":"Bezirke","detail_map":"The Barrens","source_pages":"The Barrens","map_source":"Shadows in Focus - Easy Come Easy Go (New Orleans)","placement_note":"Geografischer Bezugspunkt des Lore-Distrikts The Barrens","accuracy":"Lore-Bezirkszentrum; Grenzpolygon noch nicht georeferenziert","source_map":"new-orleans-content","source_panel":"The Barrens","description_preview":"The Barrens ist ein prekärer und gefährlicher Teilraum außerhalb der wohlhabenden Kernzonen.","description_full":"The Barrens ist ein prekärer und gefährlicher Teilraum außerhalb der wohlhabenden Kernzonen. Die Position ist auf den belegten Stadt- oder Teilraum angenähert; eine hausgenaue Lage und eine weitergehende eigene Fließtextbeschreibung sind aus dem zugeordneten Datenmaterial nicht sicher ableitbar.","description_source":"The Barrens","description_kind":"Ortsprofil","description_has_more":true,"detail_plans":[],"alternate_locations":[],"sources":[{"bookId":"sr6-shadows-in-focus-easy-come-easy-go-new-orleans","title":"Shadows in Focus - Easy Come Easy Go (New Orleans)","edition":"SR6","citation":"The Barrens","purpose":"description"}],"map_sources":[],"editions":["SR6"],"edition_descriptions":{"SR6":{"kind":"Ortsprofil","preview":"The Barrens ist ein prekärer und gefährlicher Teilraum außerhalb der wohlhabenden Kernzonen.","full":"The Barrens ist ein prekärer und gefährlicher Teilraum außerhalb der wohlhabenden Kernzonen. Die Position ist auf den belegten Stadt- oder Teilraum angenähert; eine hausgenaue Lage und eine weitergehende eigene Fließtextbeschreibung sind aus dem zugeordneten Datenmaterial nicht sicher ableitbar.","hasMore":true,"hasExcerpt":true,"sources":[{"bookId":"sr6-shadows-in-focus-easy-come-easy-go-new-orleans","title":"Shadows in Focus - Easy Come Easy Go (New Orleans)","edition":"SR6","citation":"The Barrens","purpose":"description"}]}}}}]}
