{"type":"FeatureCollection","name":"New Orleans – geprüfte zusätzliche Quellenorte","features":[{"type":"Feature","geometry":null,"properties":{"id":7,"global_id":"new-orleans:source-place:bourbon-street-blues","name":"Bourbon Street Blues","aliases":[],"category":"Sonstige Spots","detail_map":"New Orleans","source_pages":"Textzeile 14141","map_source":"Brainscan","placement_note":"Keine belastbare Einzelposition; Eintrag bleibt im Katalog","accuracy":"Nur Stadt oder Lore-Teilraum belegt","source_map":"source-supplement","source_panel":"New Orleans","description_preview":"Bourbon Street Blues ist in Brainscan als benannter Schauplatz mit Bezug zu New Orleans belegt.","description_full":"Bourbon Street Blues ist in Brainscan als benannter Schauplatz mit Bezug zu New Orleans belegt. Das Dossier fasst den belegten Quellenstand redaktionell zusammen; eine nicht belegte Kartenposition wird nicht ergänzt.","description_source":"Textzeile 14141","description_kind":"Ortsdossier","description_has_more":true,"detail_plans":[],"alternate_locations":[],"sources":[{"bookId":"sr3-brainscan","title":"Brainscan","edition":"SR3","citation":"Textzeile 14141","purpose":"description"},{"bookId":"sr3-brainscan","title":"Brainscan","edition":"SR3","citation":"PDF-Seite 65","purpose":"description"}],"map_sources":[],"editions":["SR3"],"edition_descriptions":{"SR3":{"kind":"Ortsdossier","preview":"Bourbon Street Blues ist in Brainscan als benannter Schauplatz mit Bezug zu New Orleans belegt.","full":"Bourbon Street Blues ist in Brainscan als benannter Schauplatz mit Bezug zu New Orleans belegt. Das Dossier fasst den belegten Quellenstand redaktionell zusammen; eine nicht belegte Kartenposition wird nicht ergänzt.","hasMore":true,"hasExcerpt":true,"sources":[{"bookId":"sr3-brainscan","title":"Brainscan","edition":"SR3","citation":"Textzeile 14141","purpose":"description"},{"bookId":"sr3-brainscan","title":"Brainscan","edition":"SR3","citation":"PDF-Seite 65","purpose":"description"}]}}}},{"type":"Feature","geometry":null,"properties":{"id":8,"global_id":"new-orleans:source-place:bridge-lakefront-corporate-airport","name":"Bridge, Lakefront Corporate Airport","aliases":[],"category":"Verkehr und Infrastruktur","detail_map":"New Orleans","source_pages":"Textzeile 1047","map_source":"Shadows in Focus - Easy Come Easy Go (New Orleans)","placement_note":"Keine belastbare Einzelposition; Eintrag bleibt im Katalog","accuracy":"Nur Stadt oder Lore-Teilraum belegt","source_map":"source-supplement","source_panel":"New Orleans","description_preview":"Bridge, Lakefront Corporate Airport ist in Shadows in Focus - Easy Come Easy Go (New Orleans) als benannter Schauplatz mit Bezug zu New Orleans belegt.","description_full":"Bridge, Lakefront Corporate Airport ist in Shadows in Focus - Easy Come Easy Go (New Orleans) als benannter Schauplatz mit Bezug zu New Orleans belegt. Das Dossier fasst den belegten Quellenstand redaktionell zusammen; eine nicht belegte Kartenposition wird nicht ergänzt.","description_source":"Textzeile 1047","description_kind":"Ortsdossier","description_has_more":true,"detail_plans":[],"alternate_locations":[],"sources":[{"bookId":"sr6-shadows-in-focus-easy-come-easy-go-new-orleans","title":"Shadows in Focus - Easy Come Easy Go (New Orleans)","edition":"SR6","citation":"Textzeile 1047","purpose":"description"}],"map_sources":[],"editions":["SR6"],"edition_descriptions":{"SR6":{"kind":"Ortsdossier","preview":"Bridge, Lakefront Corporate Airport ist in Shadows in Focus - Easy Come Easy Go (New Orleans) als benannter Schauplatz mit Bezug zu New Orleans belegt.","full":"Bridge, Lakefront Corporate Airport ist in Shadows in Focus - Easy Come Easy Go (New Orleans) als benannter Schauplatz mit Bezug zu New Orleans belegt. Das Dossier fasst den belegten Quellenstand redaktionell zusammen; eine nicht belegte Kartenposition wird nicht ergänzt.","hasMore":true,"hasExcerpt":true,"sources":[{"bookId":"sr6-shadows-in-focus-easy-come-easy-go-new-orleans","title":"Shadows in Focus - Easy Come Easy Go (New Orleans)","edition":"SR6","citation":"Textzeile 1047","purpose":"description"}]}}}},{"type":"Feature","geometry":null,"properties":{"id":9,"global_id":"new-orleans:source-place:entregry-tower-alfried-krupp-clinic","name":"Entregry Tower, Alfried Krupp Clinic","aliases":[],"category":"Medizin und Versorgung","detail_map":"New Orleans","source_pages":"Textzeile 659","map_source":"Shadows in Focus - Easy Come Easy Go (New Orleans)","placement_note":"Keine belastbare Einzelposition; Eintrag bleibt im Katalog","accuracy":"Nur Stadt oder Lore-Teilraum belegt","source_map":"source-supplement","source_panel":"New Orleans","description_preview":"Entregry Tower, Alfried Krupp Clinic ist in Shadows in Focus - Easy Come Easy Go (New Orleans) als benannter Schauplatz mit Bezug zu New Orleans belegt.","description_full":"Entregry Tower, Alfried Krupp Clinic ist in Shadows in Focus - Easy Come Easy Go (New Orleans) als benannter Schauplatz mit Bezug zu New Orleans belegt. Das Dossier fasst den belegten Quellenstand redaktionell zusammen; eine nicht belegte Kartenposition wird nicht ergänzt.","description_source":"Textzeile 659","description_kind":"Ortsdossier","description_has_more":true,"detail_plans":[],"alternate_locations":[],"sources":[{"bookId":"sr6-shadows-in-focus-easy-come-easy-go-new-orleans","title":"Shadows in Focus - Easy Come Easy Go (New Orleans)","edition":"SR6","citation":"Textzeile 659","purpose":"description"}],"map_sources":[],"editions":["SR6"],"edition_descriptions":{"SR6":{"kind":"Ortsdossier","preview":"Entregry Tower, Alfried Krupp Clinic ist in Shadows in Focus - Easy Come Easy Go (New Orleans) als benannter Schauplatz mit Bezug zu New Orleans belegt.","full":"Entregry Tower, Alfried Krupp Clinic ist in Shadows in Focus - Easy Come Easy Go (New Orleans) als benannter Schauplatz mit Bezug zu New Orleans belegt. Das Dossier fasst den belegten Quellenstand redaktionell zusammen; eine nicht belegte Kartenposition wird nicht ergänzt.","hasMore":true,"hasExcerpt":true,"sources":[{"bookId":"sr6-shadows-in-focus-easy-come-easy-go-new-orleans","title":"Shadows in Focus - Easy Come Easy Go (New Orleans)","edition":"SR6","citation":"Textzeile 659","purpose":"description"}]}}}}]}
