{"type":"FeatureCollection","name":"Melbourne Orte","features":[{"type":"Feature","geometry":{"type":"Point","coordinates":[144.9631,-37.8136]},"properties":{"id":1,"global_id":"melbourne:place:1-melbourne-lore-raum","name":"Melbourne Lore-Raum","aliases":[],"category":"Bezirke","detail_map":"Melbourne Lore-Raum","source_pages":"Stadt- oder Regionalkapitel","map_source":"Target Awakened Lands","placement_note":"Geografischer Bezugspunkt des Lore-Distrikts Melbourne Lore-Raum","accuracy":"Lore-Bezirkszentrum; Grenzpolygon noch nicht georeferenziert","source_map":"melbourne-content","source_panel":"Melbourne Lore-Raum","description_preview":"Melbourne ist ein südostaustralischer Kultur-, Konzern- und Unterweltplex.","description_full":"Melbourne ist ein südostaustralischer Kultur-, Konzern- und Unterweltplex. Die Position ist auf den belegten Stadt- oder Teilraum angenähert; eine hausgenaue Lage und eine weitergehende eigene Fließtextbeschreibung sind aus dem zugeordneten Datenmaterial nicht sicher ableitbar.","description_source":"Stadt- oder Regionalkapitel","description_kind":"Ortsprofil","description_has_more":true,"detail_plans":[],"alternate_locations":[],"sources":[{"bookId":"sr3-target-awakened-lands","title":"Target Awakened Lands","edition":"SR3","citation":"Stadt- oder Regionalkapitel","purpose":"description"}],"map_sources":[],"editions":["SR3"],"edition_descriptions":{"SR3":{"kind":"Ortsprofil","preview":"Melbourne ist ein südostaustralischer Kultur-, Konzern- und Unterweltplex.","full":"Melbourne ist ein südostaustralischer Kultur-, Konzern- und Unterweltplex. Die Position ist auf den belegten Stadt- oder Teilraum angenähert; eine hausgenaue Lage und eine weitergehende eigene Fließtextbeschreibung sind aus dem zugeordneten Datenmaterial nicht sicher ableitbar.","hasMore":true,"hasExcerpt":true,"sources":[{"bookId":"sr3-target-awakened-lands","title":"Target Awakened Lands","edition":"SR3","citation":"Stadt- oder Regionalkapitel","purpose":"description"}]}}}}]}
