{"type":"FeatureCollection","name":"München Orte","features":[{"type":"Feature","geometry":{"type":"Point","coordinates":[11.578,48.14]},"properties":{"id":1,"global_id":"muenchen:place:1-altstadt-lehel","name":"Altstadt-Lehel","aliases":[],"category":"Bezirke","detail_map":"Altstadt-Lehel","source_pages":"S. 5–8","map_source":"Datapuls - München","placement_note":"Geografischer Bezugspunkt des Lore-Distrikts Altstadt-Lehel","accuracy":"Lore-Bezirkszentrum; Grenzpolygon noch nicht georeferenziert","source_map":"muenchen-content","source_panel":"Altstadt-Lehel","description_preview":"Altstadt-Lehel umfasst das historische Zentrum, Einkaufsachsen und besonders teure Wohnlagen.","description_full":"Altstadt-Lehel umfasst das historische Zentrum, Einkaufsachsen und besonders teure Wohnlagen. Die Position ist auf den belegten Stadt- oder Teilraum angenähert; eine hausgenaue Lage und eine weitergehende eigene Fließtextbeschreibung sind aus dem zugeordneten Datenmaterial nicht sicher ableitbar.","description_source":"S. 5–8","description_kind":"Ortsprofil","description_has_more":true,"detail_plans":[],"alternate_locations":[],"sources":[{"bookId":"sr6-datapuls-munchen","title":"Datapuls - München","edition":"SR6","citation":"S. 5–8","purpose":"description"}],"map_sources":[],"editions":["SR6"],"edition_descriptions":{"SR6":{"kind":"Ortsprofil","preview":"Altstadt-Lehel umfasst das historische Zentrum, Einkaufsachsen und besonders teure Wohnlagen.","full":"Altstadt-Lehel umfasst das historische Zentrum, Einkaufsachsen und besonders teure Wohnlagen. Die Position ist auf den belegten Stadt- oder Teilraum angenähert; eine hausgenaue Lage und eine weitergehende eigene Fließtextbeschreibung sind aus dem zugeordneten Datenmaterial nicht sicher ableitbar.","hasMore":true,"hasExcerpt":true,"sources":[{"bookId":"sr6-datapuls-munchen","title":"Datapuls - München","edition":"SR6","citation":"S. 5–8","purpose":"description"}]}}}},{"type":"Feature","geometry":null,"properties":{"id":16,"global_id":"muenchen:place:16-anna-excelsior-hotel","name":"Anna Excelsior Hotel","aliases":[],"category":"Hotels","detail_map":"Altstadt-Lehel","source_pages":"S. 5","map_source":"Datapuls - München","placement_note":"Keine belastbare Einzelposition; Eintrag bleibt im Katalog","accuracy":"Nur Stadt oder Lore-Teilraum belegt","source_map":"muenchen-content","source_panel":"Altstadt-Lehel","description_preview":"Das Anna Excelsior bietet diskrete Unterbringung nahe dem Hauptbahnhof.","description_full":"Das Anna Excelsior bietet diskrete Unterbringung nahe dem Hauptbahnhof. Die Position ist auf den belegten Stadt- oder Teilraum angenähert; eine hausgenaue Lage und eine weitergehende eigene Fließtextbeschreibung sind aus dem zugeordneten Datenmaterial nicht sicher ableitbar.","description_source":"S. 5","description_kind":"Ortsprofil","description_has_more":true,"detail_plans":[],"alternate_locations":[],"sources":[{"bookId":"sr6-datapuls-munchen","title":"Datapuls - München","edition":"SR6","citation":"S. 5","purpose":"description"}],"map_sources":[],"editions":["SR6"],"edition_descriptions":{"SR6":{"kind":"Ortsprofil","preview":"Das Anna Excelsior bietet diskrete Unterbringung nahe dem Hauptbahnhof.","full":"Das Anna Excelsior bietet diskrete Unterbringung nahe dem Hauptbahnhof. Die Position ist auf den belegten Stadt- oder Teilraum angenähert; eine hausgenaue Lage und eine weitergehende eigene Fließtextbeschreibung sind aus dem zugeordneten Datenmaterial nicht sicher ableitbar.","hasMore":true,"hasExcerpt":true,"sources":[{"bookId":"sr6-datapuls-munchen","title":"Datapuls - München","edition":"SR6","citation":"S. 5","purpose":"description"}]}}}},{"type":"Feature","geometry":{"type":"Point","coordinates":[11.5701,48.1405]},"properties":{"id":14,"global_id":"muenchen:place:14-bayrischer-hof","name":"Bayrischer Hof","aliases":[],"category":"Hotels","detail_map":"Altstadt-Lehel","source_pages":"S. 5","map_source":"Datapuls - München","placement_note":"Erhaltener geographischer Bezugspunkt","accuracy":"Geographischer Bezugspunkt","source_map":"muenchen-content","source_panel":"Altstadt-Lehel","description_preview":"Der Bayrische Hof ist eine Spitzenadresse und neutraler Treffpunkt für Reiche, Politiker und Manager.","description_full":"Der Bayrische Hof ist eine Spitzenadresse und neutraler Treffpunkt für Reiche, Politiker und Manager. Die Position folgt einem erhaltenen heutigen Bezugspunkt.","description_source":"S. 5","description_kind":"Ortsprofil","description_has_more":true,"detail_plans":[],"alternate_locations":[],"sources":[{"bookId":"sr6-datapuls-munchen","title":"Datapuls - München","edition":"SR6","citation":"S. 5","purpose":"description"}],"map_sources":[],"editions":["SR6"],"edition_descriptions":{"SR6":{"kind":"Ortsprofil","preview":"Der Bayrische Hof ist eine Spitzenadresse und neutraler Treffpunkt für Reiche, Politiker und Manager.","full":"Der Bayrische Hof ist eine Spitzenadresse und neutraler Treffpunkt für Reiche, Politiker und Manager. Die Position folgt einem erhaltenen heutigen Bezugspunkt.","hasMore":true,"hasExcerpt":true,"sources":[{"bookId":"sr6-datapuls-munchen","title":"Datapuls - München","edition":"SR6","citation":"S. 5","purpose":"description"}]}}}},{"type":"Feature","geometry":null,"properties":{"id":29,"global_id":"muenchen:place:29-bmw-stammwerk","name":"BMW Stammwerk","aliases":[],"category":"Konzerne","detail_map":"Milbertshofen","source_pages":"PDF-Seite 20","map_source":"München Noir","placement_note":"Keine belastbare Einzelposition; Eintrag bleibt im Katalog","accuracy":"Nur Stadt oder Lore-Teilraum belegt","source_map":"muenchen-content","source_panel":"Milbertshofen","description_preview":"Das Münchner BMW-Stammwerk gilt als historisches Herz des heutigen Saeder-Krupp-Konzerns.","description_full":"Das Münchner BMW-Stammwerk gilt als historisches Herz des heutigen Saeder-Krupp-Konzerns. Die Position ist auf den belegten Stadt- oder Teilraum angenähert; eine hausgenaue Lage und eine weitergehende eigene Fließtextbeschreibung sind aus dem zugeordneten Datenmaterial nicht sicher ableitbar.","description_source":"PDF-Seite 20","description_kind":"Ortsprofil","description_has_more":true,"detail_plans":[],"alternate_locations":[],"sources":[{"bookId":"sr4-munchen-noir","title":"München Noir","edition":"SR4","citation":"PDF-Seite 20","purpose":"description"}],"map_sources":[],"editions":["SR4"],"edition_descriptions":{"SR4":{"kind":"Ortsprofil","preview":"Das Münchner BMW-Stammwerk gilt als historisches Herz des heutigen Saeder-Krupp-Konzerns.","full":"Das Münchner BMW-Stammwerk gilt als historisches Herz des heutigen Saeder-Krupp-Konzerns. Die Position ist auf den belegten Stadt- oder Teilraum angenähert; eine hausgenaue Lage und eine weitergehende eigene Fließtextbeschreibung sind aus dem zugeordneten Datenmaterial nicht sicher ableitbar.","hasMore":true,"hasExcerpt":true,"sources":[{"bookId":"sr4-munchen-noir","title":"München Noir","edition":"SR4","citation":"PDF-Seite 20","purpose":"description"}]}}}},{"type":"Feature","geometry":{"type":"Point","coordinates":[11.633,48.154]},"properties":{"id":3,"global_id":"muenchen:place:3-bogenhausen","name":"Bogenhausen","aliases":[],"category":"Bezirke","detail_map":"Bogenhausen","source_pages":"PDF-Seite 9","map_source":"München Noir","placement_note":"Geografischer Bezugspunkt des Lore-Distrikts Bogenhausen","accuracy":"Lore-Bezirkszentrum; Grenzpolygon noch nicht georeferenziert","source_map":"muenchen-content","source_panel":"Bogenhausen","description_preview":"Bogenhausen ist ein gehobener östlicher Wohn- und Konzernraum.","description_full":"Bogenhausen ist ein gehobener östlicher Wohn- und Konzernraum. Die Position ist auf den belegten Stadt- oder Teilraum angenähert; eine hausgenaue Lage und eine weitergehende eigene Fließtextbeschreibung sind aus dem zugeordneten Datenmaterial nicht sicher ableitbar.","description_source":"PDF-Seite 9","description_kind":"Ortsprofil","description_has_more":true,"detail_plans":[],"alternate_locations":[],"sources":[{"bookId":"sr4-munchen-noir","title":"München Noir","edition":"SR4","citation":"PDF-Seite 9","purpose":"description"}],"map_sources":[],"editions":["SR4"],"edition_descriptions":{"SR4":{"kind":"Ortsprofil","preview":"Bogenhausen ist ein gehobener östlicher Wohn- und Konzernraum.","full":"Bogenhausen ist ein gehobener östlicher Wohn- und Konzernraum. Die Position ist auf den belegten Stadt- oder Teilraum angenähert; eine hausgenaue Lage und eine weitergehende eigene Fließtextbeschreibung sind aus dem zugeordneten Datenmaterial nicht sicher ableitbar.","hasMore":true,"hasExcerpt":true,"sources":[{"bookId":"sr4-munchen-noir","title":"München Noir","edition":"SR4","citation":"PDF-Seite 9","purpose":"description"}]}}}},{"type":"Feature","geometry":null,"properties":{"id":28,"global_id":"muenchen:place:28-cafe-ambach","name":"Café Ambach","aliases":[],"category":"Restaurants","detail_map":"München","source_pages":"PDF-Seite 66","map_source":"München Noir","placement_note":"Keine belastbare Einzelposition; Eintrag bleibt im Katalog","accuracy":"Nur Stadt oder Lore-Teilraum belegt","source_map":"muenchen-content","source_panel":"München","description_preview":"Das Café Ambach ist ein lokaler Szenetreff im Besitz des früheren anarchistischen Aktivisten Manni Gerber.","description_full":"Das Café Ambach ist ein lokaler Szenetreff im Besitz des früheren anarchistischen Aktivisten Manni Gerber. Die Position ist auf den belegten Stadt- oder Teilraum angenähert; eine hausgenaue Lage und eine weitergehende eigene Fließtextbeschreibung sind aus dem zugeordneten Datenmaterial nicht sicher ableitbar.","description_source":"PDF-Seite 66","description_kind":"Ortsprofil","description_has_more":true,"detail_plans":[],"alternate_locations":[],"sources":[{"bookId":"sr4-munchen-noir","title":"München Noir","edition":"SR4","citation":"PDF-Seite 66","purpose":"description"}],"map_sources":[],"editions":["SR4"],"edition_descriptions":{"SR4":{"kind":"Ortsprofil","preview":"Das Café Ambach ist ein lokaler Szenetreff im Besitz des früheren anarchistischen Aktivisten Manni Gerber.","full":"Das Café Ambach ist ein lokaler Szenetreff im Besitz des früheren anarchistischen Aktivisten Manni Gerber. Die Position ist auf den belegten Stadt- oder Teilraum angenähert; eine hausgenaue Lage und eine weitergehende eigene Fließtextbeschreibung sind aus dem zugeordneten Datenmaterial nicht sicher ableitbar.","hasMore":true,"hasExcerpt":true,"sources":[{"bookId":"sr4-munchen-noir","title":"München Noir","edition":"SR4","citation":"PDF-Seite 66","purpose":"description"}]}}}},{"type":"Feature","geometry":null,"properties":{"id":26,"global_id":"muenchen:place:26-cafe-kafer","name":"Café Käfer","aliases":[],"category":"Restaurants","detail_map":"Altstadt-Lehel","source_pages":"PDF-Seite 40","map_source":"München Noir","placement_note":"Keine belastbare Einzelposition; Eintrag bleibt im Katalog","accuracy":"Nur Stadt oder Lore-Teilraum belegt","source_map":"muenchen-content","source_panel":"Altstadt-Lehel","description_preview":"Café Käfer ist ein Treffpunkt der gehobenen Münchner Szene.","description_full":"Café Käfer ist ein Treffpunkt der gehobenen Münchner Szene. Die Position ist auf den belegten Stadt- oder Teilraum angenähert; eine hausgenaue Lage und eine weitergehende eigene Fließtextbeschreibung sind aus dem zugeordneten Datenmaterial nicht sicher ableitbar.","description_source":"PDF-Seite 40","description_kind":"Ortsprofil","description_has_more":true,"detail_plans":[],"alternate_locations":[],"sources":[{"bookId":"sr4-munchen-noir","title":"München Noir","edition":"SR4","citation":"PDF-Seite 40","purpose":"description"}],"map_sources":[],"editions":["SR4"],"edition_descriptions":{"SR4":{"kind":"Ortsprofil","preview":"Café Käfer ist ein Treffpunkt der gehobenen Münchner Szene.","full":"Café Käfer ist ein Treffpunkt der gehobenen Münchner Szene. Die Position ist auf den belegten Stadt- oder Teilraum angenähert; eine hausgenaue Lage und eine weitergehende eigene Fließtextbeschreibung sind aus dem zugeordneten Datenmaterial nicht sicher ableitbar.","hasMore":true,"hasExcerpt":true,"sources":[{"bookId":"sr4-munchen-noir","title":"München Noir","edition":"SR4","citation":"PDF-Seite 40","purpose":"description"}]}}}},{"type":"Feature","geometry":null,"properties":{"id":30,"global_id":"muenchen:place:30-dark-euphoria","name":"Dark Euphoria","aliases":[],"category":"Bars und Clubs","detail_map":"Kunstpark Nord","source_pages":"PDF-Seite 67","map_source":"München Noir","placement_note":"Keine belastbare Einzelposition; Eintrag bleibt im Katalog","accuracy":"Nur Stadt oder Lore-Teilraum belegt","source_map":"muenchen-content","source_panel":"Kunstpark Nord","description_preview":"Dark Euphoria ist ein angesagter Nordpark-Club für Konzerner, Medienleute und Filmstars.","description_full":"Dark Euphoria ist ein angesagter Nordpark-Club für Konzerner, Medienleute und Filmstars. Die Position ist auf den belegten Stadt- oder Teilraum angenähert; eine hausgenaue Lage und eine weitergehende eigene Fließtextbeschreibung sind aus dem zugeordneten Datenmaterial nicht sicher ableitbar.","description_source":"PDF-Seite 67","description_kind":"Ortsprofil","description_has_more":true,"detail_plans":[],"alternate_locations":[],"sources":[{"bookId":"sr4-munchen-noir","title":"München Noir","edition":"SR4","citation":"PDF-Seite 67","purpose":"description"}],"map_sources":[],"editions":["SR4"],"edition_descriptions":{"SR4":{"kind":"Ortsprofil","preview":"Dark Euphoria ist ein angesagter Nordpark-Club für Konzerner, Medienleute und Filmstars.","full":"Dark Euphoria ist ein angesagter Nordpark-Club für Konzerner, Medienleute und Filmstars. Die Position ist auf den belegten Stadt- oder Teilraum angenähert; eine hausgenaue Lage und eine weitergehende eigene Fließtextbeschreibung sind aus dem zugeordneten Datenmaterial nicht sicher ableitbar.","hasMore":true,"hasExcerpt":true,"sources":[{"bookId":"sr4-munchen-noir","title":"München Noir","edition":"SR4","citation":"PDF-Seite 67","purpose":"description"}]}}}},{"type":"Feature","geometry":{"type":"Point","coordinates":[11.6035,48.1642]},"properties":{"id":18,"global_id":"muenchen:place:18-englischer-garten","name":"Englischer Garten","aliases":[],"category":"Freizeit und Natur","detail_map":"Schwabing","source_pages":"S. 7","map_source":"Datapuls - München","placement_note":"Erhaltener geographischer Bezugspunkt","accuracy":"Geographischer Bezugspunkt","source_map":"muenchen-content","source_panel":"Schwabing","description_preview":"Der Englische Garten ist zentraler Grünraum, Sportort und Teil der Münchner Identität.","description_full":"Der Englische Garten ist zentraler Grünraum, Sportort und Teil der Münchner Identität. Die Position folgt einem erhaltenen heutigen Bezugspunkt.","description_source":"S. 7","description_kind":"Ortsprofil","description_has_more":true,"detail_plans":[],"alternate_locations":[],"sources":[{"bookId":"sr6-datapuls-munchen","title":"Datapuls - München","edition":"SR6","citation":"S. 7","purpose":"description"}],"map_sources":[],"editions":["SR6"],"edition_descriptions":{"SR6":{"kind":"Ortsprofil","preview":"Der Englische Garten ist zentraler Grünraum, Sportort und Teil der Münchner Identität.","full":"Der Englische Garten ist zentraler Grünraum, Sportort und Teil der Münchner Identität. Die Position folgt einem erhaltenen heutigen Bezugspunkt.","hasMore":true,"hasExcerpt":true,"sources":[{"bookId":"sr6-datapuls-munchen","title":"Datapuls - München","edition":"SR6","citation":"S. 7","purpose":"description"}]}}}},{"type":"Feature","geometry":{"type":"Point","coordinates":[11.748,48.402]},"properties":{"id":9,"global_id":"muenchen:place:9-freising","name":"Freising","aliases":[],"category":"Bezirke","detail_map":"Freising","source_pages":"S. 9","map_source":"Datapuls - München","placement_note":"Geografischer Bezugspunkt des Lore-Distrikts Freising","accuracy":"Lore-Bezirkszentrum; Grenzpolygon noch nicht georeferenziert","source_map":"muenchen-content","source_panel":"Freising","description_preview":"Freising ist Regierungssitz Bayerns, bleibt aber eine eigenständige Gemeinde außerhalb des Münchner Sprawls.","description_full":"Freising ist Regierungssitz Bayerns, bleibt aber eine eigenständige Gemeinde außerhalb des Münchner Sprawls. Die Position ist auf den belegten Stadt- oder Teilraum angenähert; eine hausgenaue Lage und eine weitergehende eigene Fließtextbeschreibung sind aus dem zugeordneten Datenmaterial nicht sicher ableitbar.","description_source":"S. 9","description_kind":"Ortsprofil","description_has_more":true,"detail_plans":[],"alternate_locations":[],"sources":[{"bookId":"sr6-datapuls-munchen","title":"Datapuls - München","edition":"SR6","citation":"S. 9","purpose":"description"}],"map_sources":[],"editions":["SR6"],"edition_descriptions":{"SR6":{"kind":"Ortsprofil","preview":"Freising ist Regierungssitz Bayerns, bleibt aber eine eigenständige Gemeinde außerhalb des Münchner Sprawls.","full":"Freising ist Regierungssitz Bayerns, bleibt aber eine eigenständige Gemeinde außerhalb des Münchner Sprawls. Die Position ist auf den belegten Stadt- oder Teilraum angenähert; eine hausgenaue Lage und eine weitergehende eigene Fließtextbeschreibung sind aus dem zugeordneten Datenmaterial nicht sicher ableitbar.","hasMore":true,"hasExcerpt":true,"sources":[{"bookId":"sr6-datapuls-munchen","title":"Datapuls - München","edition":"SR6","citation":"S. 9","purpose":"description"}]}}}},{"type":"Feature","geometry":{"type":"Point","coordinates":[11.653,48.249]},"properties":{"id":11,"global_id":"muenchen:place:11-garching","name":"Garching","aliases":[],"category":"Bezirke","detail_map":"Garching","source_pages":"Kapitel Garching","map_source":"Datapuls - München","placement_note":"Geografischer Bezugspunkt des Lore-Distrikts Garching","accuracy":"Lore-Bezirkszentrum; Grenzpolygon noch nicht georeferenziert","source_map":"muenchen-content","source_panel":"Garching","description_preview":"Garching entwickelte sich mit der Technischen Universität und den Patentämtern zu einem teuren Forschungs- und Technologiestandort.","description_full":"Garching entwickelte sich mit der Technischen Universität und den Patentämtern zu einem teuren Forschungs- und Technologiestandort. Die Position ist auf den belegten Stadt- oder Teilraum angenähert; eine hausgenaue Lage und eine weitergehende eigene Fließtextbeschreibung sind aus dem zugeordneten Datenmaterial nicht sicher ableitbar.","description_source":"Kapitel Garching","description_kind":"Ortsprofil","description_has_more":true,"detail_plans":[],"alternate_locations":[],"sources":[{"bookId":"sr6-datapuls-munchen","title":"Datapuls - München","edition":"SR6","citation":"Kapitel Garching","purpose":"description"}],"map_sources":[],"editions":["SR6"],"edition_descriptions":{"SR6":{"kind":"Ortsprofil","preview":"Garching entwickelte sich mit der Technischen Universität und den Patentämtern zu einem teuren Forschungs- und Technologiestandort.","full":"Garching entwickelte sich mit der Technischen Universität und den Patentämtern zu einem teuren Forschungs- und Technologiestandort. Die Position ist auf den belegten Stadt- oder Teilraum angenähert; eine hausgenaue Lage und eine weitergehende eigene Fließtextbeschreibung sind aus dem zugeordneten Datenmaterial nicht sicher ableitbar.","hasMore":true,"hasExcerpt":true,"sources":[{"bookId":"sr6-datapuls-munchen","title":"Datapuls - München","edition":"SR6","citation":"Kapitel Garching","purpose":"description"}]}}}},{"type":"Feature","geometry":null,"properties":{"id":27,"global_id":"muenchen:place:27-gorky-park","name":"Gorky Park","aliases":[],"category":"Bars und Clubs","detail_map":"München","source_pages":"PDF-Seite 66","map_source":"München Noir","placement_note":"Keine belastbare Einzelposition; Eintrag bleibt im Katalog","accuracy":"Nur Stadt oder Lore-Teilraum belegt","source_map":"muenchen-content","source_panel":"München","description_preview":"Gorky Park ist ein benannter Münchner Szenetreff.","description_full":"Gorky Park ist ein benannter Münchner Szenetreff. Die Position ist auf den belegten Stadt- oder Teilraum angenähert; eine hausgenaue Lage und eine weitergehende eigene Fließtextbeschreibung sind aus dem zugeordneten Datenmaterial nicht sicher ableitbar.","description_source":"PDF-Seite 66","description_kind":"Ortsprofil","description_has_more":true,"detail_plans":[],"alternate_locations":[],"sources":[{"bookId":"sr4-munchen-noir","title":"München Noir","edition":"SR4","citation":"PDF-Seite 66","purpose":"description"}],"map_sources":[],"editions":["SR4"],"edition_descriptions":{"SR4":{"kind":"Ortsprofil","preview":"Gorky Park ist ein benannter Münchner Szenetreff.","full":"Gorky Park ist ein benannter Münchner Szenetreff. Die Position ist auf den belegten Stadt- oder Teilraum angenähert; eine hausgenaue Lage und eine weitergehende eigene Fließtextbeschreibung sind aus dem zugeordneten Datenmaterial nicht sicher ableitbar.","hasMore":true,"hasExcerpt":true,"sources":[{"bookId":"sr4-munchen-noir","title":"München Noir","edition":"SR4","citation":"PDF-Seite 66","purpose":"description"}]}}}},{"type":"Feature","geometry":{"type":"Point","coordinates":[11.523,48.041]},"properties":{"id":12,"global_id":"muenchen:place:12-grunwald","name":"Grünwald","aliases":[],"category":"Bezirke","detail_map":"Grünwald","source_pages":"Kapitel Grünwald","map_source":"Datapuls - München","placement_note":"Geografischer Bezugspunkt des Lore-Distrikts Grünwald","accuracy":"Lore-Bezirkszentrum; Grenzpolygon noch nicht georeferenziert","source_map":"muenchen-content","source_panel":"Grünwald","description_preview":"Grünwald ist ein südliches Villenviertel der reichen und prominenten Münchner Gesellschaft.","description_full":"Grünwald ist ein südliches Villenviertel der reichen und prominenten Münchner Gesellschaft. Die Position ist auf den belegten Stadt- oder Teilraum angenähert; eine hausgenaue Lage und eine weitergehende eigene Fließtextbeschreibung sind aus dem zugeordneten Datenmaterial nicht sicher ableitbar.","description_source":"Kapitel Grünwald","description_kind":"Ortsprofil","description_has_more":true,"detail_plans":[],"alternate_locations":[],"sources":[{"bookId":"sr6-datapuls-munchen","title":"Datapuls - München","edition":"SR6","citation":"Kapitel Grünwald","purpose":"description"}],"map_sources":[],"editions":["SR6"],"edition_descriptions":{"SR6":{"kind":"Ortsprofil","preview":"Grünwald ist ein südliches Villenviertel der reichen und prominenten Münchner Gesellschaft.","full":"Grünwald ist ein südliches Villenviertel der reichen und prominenten Münchner Gesellschaft. Die Position ist auf den belegten Stadt- oder Teilraum angenähert; eine hausgenaue Lage und eine weitergehende eigene Fließtextbeschreibung sind aus dem zugeordneten Datenmaterial nicht sicher ableitbar.","hasMore":true,"hasExcerpt":true,"sources":[{"bookId":"sr6-datapuls-munchen","title":"Datapuls - München","edition":"SR6","citation":"Kapitel Grünwald","purpose":"description"}]}}}},{"type":"Feature","geometry":{"type":"Point","coordinates":[11.5803,48.1376]},"properties":{"id":21,"global_id":"muenchen:place:21-hofbrauhaus","name":"Hofbräuhaus","aliases":[],"category":"Restaurants","detail_map":"Altstadt-Lehel","source_pages":"PDF-Seite 40","map_source":"München Noir","placement_note":"Erhaltener geographischer Bezugspunkt","accuracy":"Geographischer Bezugspunkt","source_map":"muenchen-content","source_panel":"Altstadt-Lehel","description_preview":"Das Hofbräuhaus ist Wahrzeichen, Gastronomie- und Touristentreffpunkt.","description_full":"Das Hofbräuhaus ist Wahrzeichen, Gastronomie- und Touristentreffpunkt. Die Position folgt einem erhaltenen heutigen Bezugspunkt.","description_source":"PDF-Seite 40","description_kind":"Ortsprofil","description_has_more":true,"detail_plans":[],"alternate_locations":[],"sources":[{"bookId":"sr4-munchen-noir","title":"München Noir","edition":"SR4","citation":"PDF-Seite 40","purpose":"description"}],"map_sources":[],"editions":["SR4"],"edition_descriptions":{"SR4":{"kind":"Ortsprofil","preview":"Das Hofbräuhaus ist Wahrzeichen, Gastronomie- und Touristentreffpunkt.","full":"Das Hofbräuhaus ist Wahrzeichen, Gastronomie- und Touristentreffpunkt. Die Position folgt einem erhaltenen heutigen Bezugspunkt.","hasMore":true,"hasExcerpt":true,"sources":[{"bookId":"sr4-munchen-noir","title":"München Noir","edition":"SR4","citation":"PDF-Seite 40","purpose":"description"}]}}}},{"type":"Feature","geometry":null,"properties":{"id":22,"global_id":"muenchen:place:22-kunstpark-nord","name":"Kunstpark Nord","aliases":[],"category":"Bars und Clubs","detail_map":"Milbertshofen","source_pages":"PDF-Seite 41","map_source":"München Noir","placement_note":"Keine belastbare Einzelposition; Eintrag bleibt im Katalog","accuracy":"Nur Stadt oder Lore-Teilraum belegt","source_map":"muenchen-content","source_panel":"Milbertshofen","description_preview":"Kunstpark Nord ist ein großer Ausgeh- und Szenekomplex.","description_full":"Kunstpark Nord ist ein großer Ausgeh- und Szenekomplex. Die Position ist auf den belegten Stadt- oder Teilraum angenähert; eine hausgenaue Lage und eine weitergehende eigene Fließtextbeschreibung sind aus dem zugeordneten Datenmaterial nicht sicher ableitbar.","description_source":"PDF-Seite 41","description_kind":"Ortsprofil","description_has_more":true,"detail_plans":[],"alternate_locations":[],"sources":[{"bookId":"sr4-munchen-noir","title":"München Noir","edition":"SR4","citation":"PDF-Seite 41","purpose":"description"}],"map_sources":[],"editions":["SR4"],"edition_descriptions":{"SR4":{"kind":"Ortsprofil","preview":"Kunstpark Nord ist ein großer Ausgeh- und Szenekomplex.","full":"Kunstpark Nord ist ein großer Ausgeh- und Szenekomplex. Die Position ist auf den belegten Stadt- oder Teilraum angenähert; eine hausgenaue Lage und eine weitergehende eigene Fließtextbeschreibung sind aus dem zugeordneten Datenmaterial nicht sicher ableitbar.","hasMore":true,"hasExcerpt":true,"sources":[{"bookId":"sr4-munchen-noir","title":"München Noir","edition":"SR4","citation":"PDF-Seite 41","purpose":"description"}]}}}},{"type":"Feature","geometry":{"type":"Point","coordinates":[11.5,48.14]},"properties":{"id":8,"global_id":"muenchen:place:8-laim-stadtkrieg-arena","name":"Laim Stadtkrieg-Arena","aliases":[],"category":"Bezirke","detail_map":"Laim Stadtkrieg-Arena","source_pages":"S. 9","map_source":"Datapuls - München","placement_note":"Geografischer Bezugspunkt des Lore-Distrikts Laim Stadtkrieg-Arena","accuracy":"Lore-Bezirkszentrum; Grenzpolygon noch nicht georeferenziert","source_map":"muenchen-content","source_panel":"Laim Stadtkrieg-Arena","description_preview":"Laim wurde in eine großflächige Stadtkrieg-Arena umgewandelt.","description_full":"Laim wurde in eine großflächige Stadtkrieg-Arena umgewandelt. Die Position ist auf den belegten Stadt- oder Teilraum angenähert; eine hausgenaue Lage und eine weitergehende eigene Fließtextbeschreibung sind aus dem zugeordneten Datenmaterial nicht sicher ableitbar.","description_source":"S. 9","description_kind":"Ortsprofil","description_has_more":true,"detail_plans":[],"alternate_locations":[],"sources":[{"bookId":"sr6-datapuls-munchen","title":"Datapuls - München","edition":"SR6","citation":"S. 9","purpose":"description"}],"map_sources":[],"editions":["SR6"],"edition_descriptions":{"SR6":{"kind":"Ortsprofil","preview":"Laim wurde in eine großflächige Stadtkrieg-Arena umgewandelt.","full":"Laim wurde in eine großflächige Stadtkrieg-Arena umgewandelt. Die Position ist auf den belegten Stadt- oder Teilraum angenähert; eine hausgenaue Lage und eine weitergehende eigene Fließtextbeschreibung sind aus dem zugeordneten Datenmaterial nicht sicher ableitbar.","hasMore":true,"hasExcerpt":true,"sources":[{"bookId":"sr6-datapuls-munchen","title":"Datapuls - München","edition":"SR6","citation":"S. 9","purpose":"description"}]}}}},{"type":"Feature","geometry":{"type":"Point","coordinates":[11.7861,48.3538]},"properties":{"id":25,"global_id":"muenchen:place:25-m-airport","name":"M-Airport","aliases":[],"category":"Verkehr","detail_map":"Freising","source_pages":"PDF-Seite 24","map_source":"München Noir","placement_note":"Erhaltener geographischer Bezugspunkt","accuracy":"Geographischer Bezugspunkt","source_map":"muenchen-content","source_panel":"Freising","description_preview":"Der Großflughafen bei Freising ist das internationale Luftverkehrstor des Plexes.","description_full":"Der Großflughafen bei Freising ist das internationale Luftverkehrstor des Plexes. Die Position folgt einem erhaltenen heutigen Bezugspunkt.","description_source":"PDF-Seite 24","description_kind":"Ortsprofil","description_has_more":true,"detail_plans":[],"alternate_locations":[],"sources":[{"bookId":"sr4-munchen-noir","title":"München Noir","edition":"SR4","citation":"PDF-Seite 24","purpose":"description"}],"map_sources":[],"editions":["SR4"],"edition_descriptions":{"SR4":{"kind":"Ortsprofil","preview":"Der Großflughafen bei Freising ist das internationale Luftverkehrstor des Plexes.","full":"Der Großflughafen bei Freising ist das internationale Luftverkehrstor des Plexes. Die Position folgt einem erhaltenen heutigen Bezugspunkt.","hasMore":true,"hasExcerpt":true,"sources":[{"bookId":"sr4-munchen-noir","title":"München Noir","edition":"SR4","citation":"PDF-Seite 24","purpose":"description"}]}}}},{"type":"Feature","geometry":null,"properties":{"id":23,"global_id":"muenchen:place:23-medienpark","name":"Medienpark","aliases":[],"category":"Konzerne","detail_map":"München","source_pages":"PDF-Seite 30","map_source":"München Noir","placement_note":"Keine belastbare Einzelposition; Eintrag bleibt im Katalog","accuracy":"Nur Stadt oder Lore-Teilraum belegt","source_map":"muenchen-content","source_panel":"München","description_preview":"Der Medienpark konzentriert Studios und Unternehmen der Münchner Medienindustrie.","description_full":"Der Medienpark konzentriert Studios und Unternehmen der Münchner Medienindustrie. Die Position ist auf den belegten Stadt- oder Teilraum angenähert; eine hausgenaue Lage und eine weitergehende eigene Fließtextbeschreibung sind aus dem zugeordneten Datenmaterial nicht sicher ableitbar.","description_source":"PDF-Seite 30","description_kind":"Ortsprofil","description_has_more":true,"detail_plans":[],"alternate_locations":[],"sources":[{"bookId":"sr4-munchen-noir","title":"München Noir","edition":"SR4","citation":"PDF-Seite 30","purpose":"description"}],"map_sources":[],"editions":["SR4"],"edition_descriptions":{"SR4":{"kind":"Ortsprofil","preview":"Der Medienpark konzentriert Studios und Unternehmen der Münchner Medienindustrie.","full":"Der Medienpark konzentriert Studios und Unternehmen der Münchner Medienindustrie. Die Position ist auf den belegten Stadt- oder Teilraum angenähert; eine hausgenaue Lage und eine weitergehende eigene Fließtextbeschreibung sind aus dem zugeordneten Datenmaterial nicht sicher ableitbar.","hasMore":true,"hasExcerpt":true,"sources":[{"bookId":"sr4-munchen-noir","title":"München Noir","edition":"SR4","citation":"PDF-Seite 30","purpose":"description"}]}}}},{"type":"Feature","geometry":{"type":"Point","coordinates":[11.575,48.182]},"properties":{"id":4,"global_id":"muenchen:place:4-milbertshofen","name":"Milbertshofen","aliases":[],"category":"Bezirke","detail_map":"Milbertshofen","source_pages":"Kapitel Konzerne","map_source":"Datapuls - München","placement_note":"Geografischer Bezugspunkt des Lore-Distrikts Milbertshofen","accuracy":"Lore-Bezirkszentrum; Grenzpolygon noch nicht georeferenziert","source_map":"muenchen-content","source_panel":"Milbertshofen","description_preview":"Milbertshofen ist stark von BMW, Industrie und großen Anlagen geprägt.","description_full":"Milbertshofen ist stark von BMW, Industrie und großen Anlagen geprägt. Die Position ist auf den belegten Stadt- oder Teilraum angenähert; eine hausgenaue Lage und eine weitergehende eigene Fließtextbeschreibung sind aus dem zugeordneten Datenmaterial nicht sicher ableitbar.","description_source":"Kapitel Konzerne","description_kind":"Ortsprofil","description_has_more":true,"detail_plans":[],"alternate_locations":[],"sources":[{"bookId":"sr6-datapuls-munchen","title":"Datapuls - München","edition":"SR6","citation":"Kapitel Konzerne","purpose":"description"}],"map_sources":[],"editions":["SR6"],"edition_descriptions":{"SR6":{"kind":"Ortsprofil","preview":"Milbertshofen ist stark von BMW, Industrie und großen Anlagen geprägt.","full":"Milbertshofen ist stark von BMW, Industrie und großen Anlagen geprägt. Die Position ist auf den belegten Stadt- oder Teilraum angenähert; eine hausgenaue Lage und eine weitergehende eigene Fließtextbeschreibung sind aus dem zugeordneten Datenmaterial nicht sicher ableitbar.","hasMore":true,"hasExcerpt":true,"sources":[{"bookId":"sr6-datapuls-munchen","title":"Datapuls - München","edition":"SR6","citation":"Kapitel Konzerne","purpose":"description"}]}}}},{"type":"Feature","geometry":null,"properties":{"id":15,"global_id":"muenchen:place:15-munchen-hosuto","name":"München Hosuto","aliases":[],"category":"Hotels","detail_map":"Altstadt-Lehel","source_pages":"S. 5","map_source":"Datapuls - München","placement_note":"Keine belastbare Einzelposition; Eintrag bleibt im Katalog","accuracy":"Nur Stadt oder Lore-Teilraum belegt","source_map":"muenchen-content","source_panel":"Altstadt-Lehel","description_preview":"Das München Hosuto ist ein Luxushotel und bevorzugter Treffpunkt japanischer Geschäftsleute.","description_full":"Das München Hosuto ist ein Luxushotel und bevorzugter Treffpunkt japanischer Geschäftsleute. Die Position ist auf den belegten Stadt- oder Teilraum angenähert; eine hausgenaue Lage und eine weitergehende eigene Fließtextbeschreibung sind aus dem zugeordneten Datenmaterial nicht sicher ableitbar.","description_source":"S. 5","description_kind":"Ortsprofil","description_has_more":true,"detail_plans":[],"alternate_locations":[],"sources":[{"bookId":"sr6-datapuls-munchen","title":"Datapuls - München","edition":"SR6","citation":"S. 5","purpose":"description"}],"map_sources":[],"editions":["SR6"],"edition_descriptions":{"SR6":{"kind":"Ortsprofil","preview":"Das München Hosuto ist ein Luxushotel und bevorzugter Treffpunkt japanischer Geschäftsleute.","full":"Das München Hosuto ist ein Luxushotel und bevorzugter Treffpunkt japanischer Geschäftsleute. Die Position ist auf den belegten Stadt- oder Teilraum angenähert; eine hausgenaue Lage und eine weitergehende eigene Fließtextbeschreibung sind aus dem zugeordneten Datenmaterial nicht sicher ableitbar.","hasMore":true,"hasExcerpt":true,"sources":[{"bookId":"sr6-datapuls-munchen","title":"Datapuls - München","edition":"SR6","citation":"S. 5","purpose":"description"}]}}}},{"type":"Feature","geometry":null,"properties":{"id":31,"global_id":"muenchen:place:31-neonet-bavaria-simsinn-studios","name":"NeoNET Bavaria SimSinn-Studios","aliases":[],"category":"Konzerne","detail_map":"München","source_pages":"PDF-Seite 31","map_source":"München Noir","placement_note":"Keine belastbare Einzelposition; Eintrag bleibt im Katalog","accuracy":"Nur Stadt oder Lore-Teilraum belegt","source_map":"muenchen-content","source_panel":"München","description_preview":"Die Bavaria SimSinn-Studios sind ein traditionsreicher Schwerpunkt der Münchner Medienindustrie.","description_full":"Die Bavaria SimSinn-Studios sind ein traditionsreicher Schwerpunkt der Münchner Medienindustrie. Die Position ist auf den belegten Stadt- oder Teilraum angenähert; eine hausgenaue Lage und eine weitergehende eigene Fließtextbeschreibung sind aus dem zugeordneten Datenmaterial nicht sicher ableitbar.","description_source":"PDF-Seite 31","description_kind":"Ortsprofil","description_has_more":true,"detail_plans":[],"alternate_locations":[],"sources":[{"bookId":"sr4-munchen-noir","title":"München Noir","edition":"SR4","citation":"PDF-Seite 31","purpose":"description"}],"map_sources":[],"editions":["SR4"],"edition_descriptions":{"SR4":{"kind":"Ortsprofil","preview":"Die Bavaria SimSinn-Studios sind ein traditionsreicher Schwerpunkt der Münchner Medienindustrie.","full":"Die Bavaria SimSinn-Studios sind ein traditionsreicher Schwerpunkt der Münchner Medienindustrie. Die Position ist auf den belegten Stadt- oder Teilraum angenähert; eine hausgenaue Lage und eine weitergehende eigene Fließtextbeschreibung sind aus dem zugeordneten Datenmaterial nicht sicher ableitbar.","hasMore":true,"hasExcerpt":true,"sources":[{"bookId":"sr4-munchen-noir","title":"München Noir","edition":"SR4","citation":"PDF-Seite 31","purpose":"description"}]}}}},{"type":"Feature","geometry":null,"properties":{"id":24,"global_id":"muenchen:place:24-renraku-arkologie-europa","name":"Renraku Arkologie Europa","aliases":[],"category":"Konzerne","detail_map":"München","source_pages":"PDF-Seite 11","map_source":"München Noir","placement_note":"Keine belastbare Einzelposition; Eintrag bleibt im Katalog","accuracy":"Nur Stadt oder Lore-Teilraum belegt","source_map":"muenchen-content","source_panel":"München","description_preview":"Die Renraku-Arkologie Europa in Harlaching ist ein dominanter extraterritorialer Konzernstandort.","description_full":"Die Renraku-Arkologie Europa in Harlaching ist ein dominanter extraterritorialer Konzernstandort. Die Position ist auf den belegten Stadt- oder Teilraum angenähert; eine hausgenaue Lage und eine weitergehende eigene Fließtextbeschreibung sind aus dem zugeordneten Datenmaterial nicht sicher ableitbar.","description_source":"PDF-Seite 11","description_kind":"Ortsprofil","description_has_more":true,"detail_plans":[],"alternate_locations":[],"sources":[{"bookId":"sr4-munchen-noir","title":"München Noir","edition":"SR4","citation":"PDF-Seite 11","purpose":"description"}],"map_sources":[],"editions":["SR4"],"edition_descriptions":{"SR4":{"kind":"Ortsprofil","preview":"Die Renraku-Arkologie Europa in Harlaching ist ein dominanter extraterritorialer Konzernstandort.","full":"Die Renraku-Arkologie Europa in Harlaching ist ein dominanter extraterritorialer Konzernstandort. Die Position ist auf den belegten Stadt- oder Teilraum angenähert; eine hausgenaue Lage und eine weitergehende eigene Fließtextbeschreibung sind aus dem zugeordneten Datenmaterial nicht sicher ableitbar.","hasMore":true,"hasExcerpt":true,"sources":[{"bookId":"sr4-munchen-noir","title":"München Noir","edition":"SR4","citation":"PDF-Seite 11","purpose":"description"}]}}}},{"type":"Feature","geometry":{"type":"Point","coordinates":[11.576,48.134]},"properties":{"id":19,"global_id":"muenchen:place:19-schrannenhalle","name":"Schrannenhalle","aliases":[],"category":"Einkaufen","detail_map":"Altstadt-Lehel","source_pages":"S. 6","map_source":"Datapuls - München","placement_note":"Erhaltener geographischer Bezugspunkt","accuracy":"Geographischer Bezugspunkt","source_map":"muenchen-content","source_panel":"Altstadt-Lehel","description_preview":"Die Schrannenhalle ist ein hochwertiger Lebensmittelmarkt und Informationsumschlagplatz der Oberschicht.","description_full":"Die Schrannenhalle ist ein hochwertiger Lebensmittelmarkt und Informationsumschlagplatz der Oberschicht. Die Position folgt einem erhaltenen heutigen Bezugspunkt.","description_source":"S. 6","description_kind":"Ortsprofil","description_has_more":true,"detail_plans":[],"alternate_locations":[],"sources":[{"bookId":"sr6-datapuls-munchen","title":"Datapuls - München","edition":"SR6","citation":"S. 6","purpose":"description"}],"map_sources":[],"editions":["SR6"],"edition_descriptions":{"SR6":{"kind":"Ortsprofil","preview":"Die Schrannenhalle ist ein hochwertiger Lebensmittelmarkt und Informationsumschlagplatz der Oberschicht.","full":"Die Schrannenhalle ist ein hochwertiger Lebensmittelmarkt und Informationsumschlagplatz der Oberschicht. Die Position folgt einem erhaltenen heutigen Bezugspunkt.","hasMore":true,"hasExcerpt":true,"sources":[{"bookId":"sr6-datapuls-munchen","title":"Datapuls - München","edition":"SR6","citation":"S. 6","purpose":"description"}]}}}},{"type":"Feature","geometry":{"type":"Point","coordinates":[11.586,48.166]},"properties":{"id":2,"global_id":"muenchen:place:2-schwabing","name":"Schwabing","aliases":[],"category":"Bezirke","detail_map":"Schwabing","source_pages":"S. 7–8","map_source":"Datapuls - München","placement_note":"Geografischer Bezugspunkt des Lore-Distrikts Schwabing","accuracy":"Lore-Bezirkszentrum; Grenzpolygon noch nicht georeferenziert","source_map":"muenchen-content","source_panel":"Schwabing","description_preview":"Schwabing verbindet Universität, Szene, teure Wohnlagen und den Englischen Garten.","description_full":"Schwabing verbindet Universität, Szene, teure Wohnlagen und den Englischen Garten. Die Position ist auf den belegten Stadt- oder Teilraum angenähert; eine hausgenaue Lage und eine weitergehende eigene Fließtextbeschreibung sind aus dem zugeordneten Datenmaterial nicht sicher ableitbar.","description_source":"S. 7–8","description_kind":"Ortsprofil","description_has_more":true,"detail_plans":[],"alternate_locations":[],"sources":[{"bookId":"sr6-datapuls-munchen","title":"Datapuls - München","edition":"SR6","citation":"S. 7–8","purpose":"description"}],"map_sources":[],"editions":["SR6"],"edition_descriptions":{"SR6":{"kind":"Ortsprofil","preview":"Schwabing verbindet Universität, Szene, teure Wohnlagen und den Englischen Garten.","full":"Schwabing verbindet Universität, Szene, teure Wohnlagen und den Englischen Garten. Die Position ist auf den belegten Stadt- oder Teilraum angenähert; eine hausgenaue Lage und eine weitergehende eigene Fließtextbeschreibung sind aus dem zugeordneten Datenmaterial nicht sicher ableitbar.","hasMore":true,"hasExcerpt":true,"sources":[{"bookId":"sr6-datapuls-munchen","title":"Datapuls - München","edition":"SR6","citation":"S. 7–8","purpose":"description"}]}}}},{"type":"Feature","geometry":{"type":"Point","coordinates":[11.569,48.168]},"properties":{"id":13,"global_id":"muenchen:place:13-schwabing-west","name":"Schwabing-West","aliases":[],"category":"Bezirke","detail_map":"Schwabing-West","source_pages":"PDF-Seite 12","map_source":"München Noir","placement_note":"Geografischer Bezugspunkt des Lore-Distrikts Schwabing-West","accuracy":"Lore-Bezirkszentrum; Grenzpolygon noch nicht georeferenziert","source_map":"muenchen-content","source_panel":"Schwabing-West","description_preview":"Schwabing-West verbindet studentisches Leben, Gastronomie, Second-Hand-Läden und teure Wohnlagen.","description_full":"Schwabing-West verbindet studentisches Leben, Gastronomie, Second-Hand-Läden und teure Wohnlagen. Die Position ist auf den belegten Stadt- oder Teilraum angenähert; eine hausgenaue Lage und eine weitergehende eigene Fließtextbeschreibung sind aus dem zugeordneten Datenmaterial nicht sicher ableitbar.","description_source":"PDF-Seite 12","description_kind":"Ortsprofil","description_has_more":true,"detail_plans":[],"alternate_locations":[],"sources":[{"bookId":"sr4-munchen-noir","title":"München Noir","edition":"SR4","citation":"PDF-Seite 12","purpose":"description"}],"map_sources":[],"editions":["SR4"],"edition_descriptions":{"SR4":{"kind":"Ortsprofil","preview":"Schwabing-West verbindet studentisches Leben, Gastronomie, Second-Hand-Läden und teure Wohnlagen.","full":"Schwabing-West verbindet studentisches Leben, Gastronomie, Second-Hand-Läden und teure Wohnlagen. Die Position ist auf den belegten Stadt- oder Teilraum angenähert; eine hausgenaue Lage und eine weitergehende eigene Fließtextbeschreibung sind aus dem zugeordneten Datenmaterial nicht sicher ableitbar.","hasMore":true,"hasExcerpt":true,"sources":[{"bookId":"sr4-munchen-noir","title":"München Noir","edition":"SR4","citation":"PDF-Seite 12","purpose":"description"}]}}}},{"type":"Feature","geometry":{"type":"Point","coordinates":[11.465,48.108]},"properties":{"id":7,"global_id":"muenchen:place:7-sonderverwaltungszone-groried","name":"Sonderverwaltungszone Großried","aliases":[],"category":"Bezirke","detail_map":"Sonderverwaltungszone Großried","source_pages":"S. 9","map_source":"Datapuls - München","placement_note":"Geografischer Bezugspunkt des Lore-Distrikts Sonderverwaltungszone Großried","accuracy":"Lore-Bezirkszentrum; Grenzpolygon noch nicht georeferenziert","source_map":"muenchen-content","source_panel":"Sonderverwaltungszone Großried","description_preview":"Großried umfasst Großhadern, Klinik- und Universitätsanlagen sowie prekäre Wohnräume.","description_full":"Großried umfasst Großhadern, Klinik- und Universitätsanlagen sowie prekäre Wohnräume. Die Position ist auf den belegten Stadt- oder Teilraum angenähert; eine hausgenaue Lage und eine weitergehende eigene Fließtextbeschreibung sind aus dem zugeordneten Datenmaterial nicht sicher ableitbar.","description_source":"S. 9","description_kind":"Ortsprofil","description_has_more":true,"detail_plans":[],"alternate_locations":[],"sources":[{"bookId":"sr6-datapuls-munchen","title":"Datapuls - München","edition":"SR6","citation":"S. 9","purpose":"description"}],"map_sources":[],"editions":["SR6"],"edition_descriptions":{"SR6":{"kind":"Ortsprofil","preview":"Großried umfasst Großhadern, Klinik- und Universitätsanlagen sowie prekäre Wohnräume.","full":"Großried umfasst Großhadern, Klinik- und Universitätsanlagen sowie prekäre Wohnräume. Die Position ist auf den belegten Stadt- oder Teilraum angenähert; eine hausgenaue Lage und eine weitergehende eigene Fließtextbeschreibung sind aus dem zugeordneten Datenmaterial nicht sicher ableitbar.","hasMore":true,"hasExcerpt":true,"sources":[{"bookId":"sr6-datapuls-munchen","title":"Datapuls - München","edition":"SR6","citation":"S. 9","purpose":"description"}]}}}},{"type":"Feature","geometry":{"type":"Point","coordinates":[11.555,48.213]},"properties":{"id":5,"global_id":"muenchen:place:5-sonderverwaltungszone-hasenbergl","name":"Sonderverwaltungszone Hasenbergl","aliases":[],"category":"Bezirke","detail_map":"Sonderverwaltungszone Hasenbergl","source_pages":"S. 9","map_source":"Datapuls - München","placement_note":"Geografischer Bezugspunkt des Lore-Distrikts Sonderverwaltungszone Hasenbergl","accuracy":"Lore-Bezirkszentrum; Grenzpolygon noch nicht georeferenziert","source_map":"muenchen-content","source_panel":"Sonderverwaltungszone Hasenbergl","description_preview":"Hasenbergl ist eine abgeriegelte Problemzone im Münchner Norden.","description_full":"Hasenbergl ist eine abgeriegelte Problemzone im Münchner Norden. Die Position ist auf den belegten Stadt- oder Teilraum angenähert; eine hausgenaue Lage und eine weitergehende eigene Fließtextbeschreibung sind aus dem zugeordneten Datenmaterial nicht sicher ableitbar.","description_source":"S. 9","description_kind":"Ortsprofil","description_has_more":true,"detail_plans":[],"alternate_locations":[],"sources":[{"bookId":"sr6-datapuls-munchen","title":"Datapuls - München","edition":"SR6","citation":"S. 9","purpose":"description"}],"map_sources":[],"editions":["SR6"],"edition_descriptions":{"SR6":{"kind":"Ortsprofil","preview":"Hasenbergl ist eine abgeriegelte Problemzone im Münchner Norden.","full":"Hasenbergl ist eine abgeriegelte Problemzone im Münchner Norden. Die Position ist auf den belegten Stadt- oder Teilraum angenähert; eine hausgenaue Lage und eine weitergehende eigene Fließtextbeschreibung sind aus dem zugeordneten Datenmaterial nicht sicher ableitbar.","hasMore":true,"hasExcerpt":true,"sources":[{"bookId":"sr6-datapuls-munchen","title":"Datapuls - München","edition":"SR6","citation":"S. 9","purpose":"description"}]}}}},{"type":"Feature","geometry":{"type":"Point","coordinates":[11.63,48.1]},"properties":{"id":6,"global_id":"muenchen:place:6-sonderverwaltungszone-perlach","name":"Sonderverwaltungszone Perlach","aliases":[],"category":"Bezirke","detail_map":"Sonderverwaltungszone Perlach","source_pages":"S. 9","map_source":"Datapuls - München","placement_note":"Geografischer Bezugspunkt des Lore-Distrikts Sonderverwaltungszone Perlach","accuracy":"Lore-Bezirkszentrum; Grenzpolygon noch nicht georeferenziert","source_map":"muenchen-content","source_panel":"Sonderverwaltungszone Perlach","description_preview":"Perlach ist eine von Armut, Gewalt und harter Sicherheitsverwaltung geprägte Sonderzone.","description_full":"Perlach ist eine von Armut, Gewalt und harter Sicherheitsverwaltung geprägte Sonderzone. Die Position ist auf den belegten Stadt- oder Teilraum angenähert; eine hausgenaue Lage und eine weitergehende eigene Fließtextbeschreibung sind aus dem zugeordneten Datenmaterial nicht sicher ableitbar.","description_source":"S. 9","description_kind":"Ortsprofil","description_has_more":true,"detail_plans":[],"alternate_locations":[],"sources":[{"bookId":"sr6-datapuls-munchen","title":"Datapuls - München","edition":"SR6","citation":"S. 9","purpose":"description"}],"map_sources":[],"editions":["SR6"],"edition_descriptions":{"SR6":{"kind":"Ortsprofil","preview":"Perlach ist eine von Armut, Gewalt und harter Sicherheitsverwaltung geprägte Sonderzone.","full":"Perlach ist eine von Armut, Gewalt und harter Sicherheitsverwaltung geprägte Sonderzone. Die Position ist auf den belegten Stadt- oder Teilraum angenähert; eine hausgenaue Lage und eine weitergehende eigene Fließtextbeschreibung sind aus dem zugeordneten Datenmaterial nicht sicher ableitbar.","hasMore":true,"hasExcerpt":true,"sources":[{"bookId":"sr6-datapuls-munchen","title":"Datapuls - München","edition":"SR6","citation":"S. 9","purpose":"description"}]}}}},{"type":"Feature","geometry":{"type":"Point","coordinates":[11.468,48.27]},"properties":{"id":10,"global_id":"muenchen:place:10-sperrgebiet-dachau","name":"Sperrgebiet Dachau","aliases":[],"category":"Bezirke","detail_map":"Sperrgebiet Dachau","source_pages":"S. 8–9","map_source":"Datapuls - München","placement_note":"Geografischer Bezugspunkt des Lore-Distrikts Sperrgebiet Dachau","accuracy":"Lore-Bezirkszentrum; Grenzpolygon noch nicht georeferenziert","source_map":"muenchen-content","source_panel":"Sperrgebiet Dachau","description_preview":"Der Osten Dachaus ist seit dem Erwachen ein astral verseuchtes Sperrgebiet.","description_full":"Der Osten Dachaus ist seit dem Erwachen ein astral verseuchtes Sperrgebiet. Die Position ist auf den belegten Stadt- oder Teilraum angenähert; eine hausgenaue Lage und eine weitergehende eigene Fließtextbeschreibung sind aus dem zugeordneten Datenmaterial nicht sicher ableitbar.","description_source":"S. 8–9","description_kind":"Ortsprofil","description_has_more":true,"detail_plans":[],"alternate_locations":[],"sources":[{"bookId":"sr6-datapuls-munchen","title":"Datapuls - München","edition":"SR6","citation":"S. 8–9","purpose":"description"}],"map_sources":[],"editions":["SR6"],"edition_descriptions":{"SR6":{"kind":"Ortsprofil","preview":"Der Osten Dachaus ist seit dem Erwachen ein astral verseuchtes Sperrgebiet.","full":"Der Osten Dachaus ist seit dem Erwachen ein astral verseuchtes Sperrgebiet. Die Position ist auf den belegten Stadt- oder Teilraum angenähert; eine hausgenaue Lage und eine weitergehende eigene Fließtextbeschreibung sind aus dem zugeordneten Datenmaterial nicht sicher ableitbar.","hasMore":true,"hasExcerpt":true,"sources":[{"bookId":"sr6-datapuls-munchen","title":"Datapuls - München","edition":"SR6","citation":"S. 8–9","purpose":"description"}]}}}},{"type":"Feature","geometry":{"type":"Point","coordinates":[11.576,48.142]},"properties":{"id":20,"global_id":"muenchen:place:20-theatinerstrae","name":"Theatinerstraße","aliases":[],"category":"Einkaufen","detail_map":"Altstadt-Lehel","source_pages":"S. 6","map_source":"Datapuls - München","placement_note":"Erhaltener geographischer Bezugspunkt","accuracy":"Geographischer Bezugspunkt","source_map":"muenchen-content","source_panel":"Altstadt-Lehel","description_preview":"Die Theatinerstraße ist eine exklusive Einkaufsachse.","description_full":"Die Theatinerstraße ist eine exklusive Einkaufsachse. Die Position folgt einem erhaltenen heutigen Bezugspunkt.","description_source":"S. 6","description_kind":"Ortsprofil","description_has_more":true,"detail_plans":[],"alternate_locations":[],"sources":[{"bookId":"sr6-datapuls-munchen","title":"Datapuls - München","edition":"SR6","citation":"S. 6","purpose":"description"}],"map_sources":[],"editions":["SR6"],"edition_descriptions":{"SR6":{"kind":"Ortsprofil","preview":"Die Theatinerstraße ist eine exklusive Einkaufsachse.","full":"Die Theatinerstraße ist eine exklusive Einkaufsachse. Die Position folgt einem erhaltenen heutigen Bezugspunkt.","hasMore":true,"hasExcerpt":true,"sources":[{"bookId":"sr6-datapuls-munchen","title":"Datapuls - München","edition":"SR6","citation":"S. 6","purpose":"description"}]}}}},{"type":"Feature","geometry":null,"properties":{"id":32,"global_id":"muenchen:place:32-tir-na-nog","name":"Tir na nOg","aliases":[],"category":"Bars und Kneipen","detail_map":"Schwanthaler Höhe","source_pages":"PDF-Seite 67","map_source":"München Noir","placement_note":"Keine belastbare Einzelposition; Eintrag bleibt im Katalog","accuracy":"Nur Stadt oder Lore-Teilraum belegt","source_map":"muenchen-content","source_panel":"Schwanthaler Höhe","description_preview":"Das Tir na nOg ist ein Irish Pub und ein besonders beliebter Treffpunkt der Münchner Elfenszene.","description_full":"Das Tir na nOg ist ein Irish Pub und ein besonders beliebter Treffpunkt der Münchner Elfenszene. Die Position ist auf den belegten Stadt- oder Teilraum angenähert; eine hausgenaue Lage und eine weitergehende eigene Fließtextbeschreibung sind aus dem zugeordneten Datenmaterial nicht sicher ableitbar.","description_source":"PDF-Seite 67","description_kind":"Ortsprofil","description_has_more":true,"detail_plans":[],"alternate_locations":[],"sources":[{"bookId":"sr4-munchen-noir","title":"München Noir","edition":"SR4","citation":"PDF-Seite 67","purpose":"description"}],"map_sources":[],"editions":["SR4"],"edition_descriptions":{"SR4":{"kind":"Ortsprofil","preview":"Das Tir na nOg ist ein Irish Pub und ein besonders beliebter Treffpunkt der Münchner Elfenszene.","full":"Das Tir na nOg ist ein Irish Pub und ein besonders beliebter Treffpunkt der Münchner Elfenszene. Die Position ist auf den belegten Stadt- oder Teilraum angenähert; eine hausgenaue Lage und eine weitergehende eigene Fließtextbeschreibung sind aus dem zugeordneten Datenmaterial nicht sicher ableitbar.","hasMore":true,"hasExcerpt":true,"sources":[{"bookId":"sr4-munchen-noir","title":"München Noir","edition":"SR4","citation":"PDF-Seite 67","purpose":"description"}]}}}},{"type":"Feature","geometry":null,"properties":{"id":17,"global_id":"muenchen:place:17-two-towers","name":"Two Towers","aliases":[],"category":"Hotels","detail_map":"Milbertshofen","source_pages":"S. 5","map_source":"Datapuls - München","placement_note":"Keine belastbare Einzelposition; Eintrag bleibt im Katalog","accuracy":"Nur Stadt oder Lore-Teilraum belegt","source_map":"muenchen-content","source_panel":"Milbertshofen","description_preview":"Two Towers ist ein Geschäftshotel am Mittleren Ring.","description_full":"Two Towers ist ein Geschäftshotel am Mittleren Ring. Die Position ist auf den belegten Stadt- oder Teilraum angenähert; eine hausgenaue Lage und eine weitergehende eigene Fließtextbeschreibung sind aus dem zugeordneten Datenmaterial nicht sicher ableitbar.","description_source":"S. 5","description_kind":"Ortsprofil","description_has_more":true,"detail_plans":[],"alternate_locations":[],"sources":[{"bookId":"sr6-datapuls-munchen","title":"Datapuls - München","edition":"SR6","citation":"S. 5","purpose":"description"}],"map_sources":[],"editions":["SR6"],"edition_descriptions":{"SR6":{"kind":"Ortsprofil","preview":"Two Towers ist ein Geschäftshotel am Mittleren Ring.","full":"Two Towers ist ein Geschäftshotel am Mittleren Ring. Die Position ist auf den belegten Stadt- oder Teilraum angenähert; eine hausgenaue Lage und eine weitergehende eigene Fließtextbeschreibung sind aus dem zugeordneten Datenmaterial nicht sicher ableitbar.","hasMore":true,"hasExcerpt":true,"sources":[{"bookId":"sr6-datapuls-munchen","title":"Datapuls - München","edition":"SR6","citation":"S. 5","purpose":"description"}]}}}}]}
