{"type":"FeatureCollection","name":"München – geprüfte zusätzliche Quellenorte","features":[{"type":"Feature","geometry":null,"properties":{"id":33,"global_id":"muenchen:source-place:clty-center-aaa","name":"Clty Center (AAA)","aliases":[],"category":"Sonstige Spots","detail_map":"München","source_pages":"PDF-Seite 87","map_source":"Germany Sourcebook","placement_note":"Keine belastbare Einzelposition; Eintrag bleibt im Katalog","accuracy":"Nur Stadt oder Lore-Teilraum belegt","source_map":"source-supplement","source_panel":"München","description_preview":"Clty Center (AAA) ist in Germany Sourcebook als benannter Schauplatz mit Bezug zu München belegt.","description_full":"Clty Center (AAA) ist in Germany Sourcebook als benannter Schauplatz mit Bezug zu München belegt. Das Dossier fasst den belegten Quellenstand redaktionell zusammen; eine nicht belegte Kartenposition wird nicht ergänzt.","description_source":"PDF-Seite 87","description_kind":"Ortsdossier","description_has_more":true,"detail_plans":[],"alternate_locations":[],"sources":[{"bookId":"sr2-germany-sourcebook","title":"Germany Sourcebook","edition":"SR2","citation":"PDF-Seite 87","purpose":"description"}],"map_sources":[],"editions":["SR2"],"edition_descriptions":{"SR2":{"kind":"Ortsdossier","preview":"Clty Center (AAA) ist in Germany Sourcebook als benannter Schauplatz mit Bezug zu München belegt.","full":"Clty Center (AAA) ist in Germany Sourcebook als benannter Schauplatz mit Bezug zu München belegt. Das Dossier fasst den belegten Quellenstand redaktionell zusammen; eine nicht belegte Kartenposition wird nicht ergänzt.","hasMore":true,"hasExcerpt":true,"sources":[{"bookId":"sr2-germany-sourcebook","title":"Germany Sourcebook","edition":"SR2","citation":"PDF-Seite 87","purpose":"description"}]}}}},{"type":"Feature","geometry":null,"properties":{"id":34,"global_id":"muenchen:source-place:suden-schwabings-die-ludwig-maximilians-universitat","name":"Süden Schwabings die Ludwig-Maximilians-Universität","aliases":[],"category":"Sonstige Spots","detail_map":"München","source_pages":"PDF-Seite 12","map_source":"München Noir","placement_note":"Keine belastbare Einzelposition; Eintrag bleibt im Katalog","accuracy":"Nur Stadt oder Lore-Teilraum belegt","source_map":"source-supplement","source_panel":"München","description_preview":"Süden Schwabings die Ludwig-Maximilians-Universität ist in München Noir als benannter Schauplatz mit Bezug zu München belegt.","description_full":"Süden Schwabings die Ludwig-Maximilians-Universität ist in München Noir als benannter Schauplatz mit Bezug zu München belegt. Das Dossier fasst den belegten Quellenstand redaktionell zusammen; eine nicht belegte Kartenposition wird nicht ergänzt.","description_source":"PDF-Seite 12","description_kind":"Ortsdossier","description_has_more":true,"detail_plans":[],"alternate_locations":[],"sources":[{"bookId":"sr4-munchen-noir","title":"München Noir","edition":"SR4","citation":"PDF-Seite 12","purpose":"description"}],"map_sources":[],"editions":["SR4"],"edition_descriptions":{"SR4":{"kind":"Ortsdossier","preview":"Süden Schwabings die Ludwig-Maximilians-Universität ist in München Noir als benannter Schauplatz mit Bezug zu München belegt.","full":"Süden Schwabings die Ludwig-Maximilians-Universität ist in München Noir als benannter Schauplatz mit Bezug zu München belegt. Das Dossier fasst den belegten Quellenstand redaktionell zusammen; eine nicht belegte Kartenposition wird nicht ergänzt.","hasMore":true,"hasExcerpt":true,"sources":[{"bookId":"sr4-munchen-noir","title":"München Noir","edition":"SR4","citation":"PDF-Seite 12","purpose":"description"}]}}}}]}
