{"type":"FeatureCollection","name":"Montréal Orte","features":[{"type":"Feature","geometry":{"type":"Point","coordinates":[-73.567,45.502]},"properties":{"id":1,"global_id":"montreal:place:1-montreal-core","name":"Montréal Core","aliases":[],"category":"Bezirke","detail_map":"Montréal Core","source_pages":"Kapitel Montréal","map_source":"Shadows of North America","placement_note":"Geografischer Bezugspunkt des Lore-Distrikts Montréal Core","accuracy":"Lore-Bezirkszentrum; Grenzpolygon noch nicht georeferenziert","source_map":"montreal-content","source_panel":"Montréal Core","description_preview":"Der Kernraum bündelt Verwaltung, Wirtschaft, Kultur und die wichtigsten Verkehrsachsen.","description_full":"Der Kernraum bündelt Verwaltung, Wirtschaft, Kultur und die wichtigsten Verkehrsachsen. Die Position ist auf den belegten Stadt- oder Teilraum angenähert; eine hausgenaue Lage und eine weitergehende eigene Fließtextbeschreibung sind aus dem zugeordneten Datenmaterial nicht sicher ableitbar.","description_source":"Kapitel Montréal","description_kind":"Ortsprofil","description_has_more":true,"detail_plans":[],"alternate_locations":[],"sources":[{"bookId":"sr3-shadows-of-north-america","title":"Shadows of North America","edition":"SR3","citation":"Kapitel Montréal","purpose":"description"}],"map_sources":[],"editions":["SR3"],"edition_descriptions":{"SR3":{"kind":"Ortsprofil","preview":"Der Kernraum bündelt Verwaltung, Wirtschaft, Kultur und die wichtigsten Verkehrsachsen.","full":"Der Kernraum bündelt Verwaltung, Wirtschaft, Kultur und die wichtigsten Verkehrsachsen. Die Position ist auf den belegten Stadt- oder Teilraum angenähert; eine hausgenaue Lage und eine weitergehende eigene Fließtextbeschreibung sind aus dem zugeordneten Datenmaterial nicht sicher ableitbar.","hasMore":true,"hasExcerpt":true,"sources":[{"bookId":"sr3-shadows-of-north-america","title":"Shadows of North America","edition":"SR3","citation":"Kapitel Montréal","purpose":"description"}]}}}}]}
