{"type":"FeatureCollection","name":"Havanna Orte","features":[{"type":"Feature","geometry":null,"properties":{"id":2,"global_id":"havanna:place:2-avery-tower","name":"Avery Tower","aliases":[],"category":"Konzerne","detail_map":"Havanna","source_pages":"Avery Tower","map_source":"Hard Targets","placement_note":"Keine belastbare Einzelposition; Eintrag bleibt im Katalog","accuracy":"Nur Stadt oder Lore-Teilraum belegt","source_map":"havanna-content","source_panel":"Havanna","description_preview":"Der Avery Tower ist ein markanter Hochhaus- und Konzernstandort.","description_full":"Der Avery Tower ist ein markanter Hochhaus- und Konzernstandort. Die Position ist auf den belegten Stadt- oder Teilraum angenähert; eine hausgenaue Lage und eine weitergehende eigene Fließtextbeschreibung sind aus dem zugeordneten Datenmaterial nicht sicher ableitbar.","description_source":"Avery Tower","description_kind":"Ortsprofil","description_has_more":true,"detail_plans":[],"alternate_locations":[],"sources":[{"bookId":"sr5-hard-targets","title":"Hard Targets","edition":"SR5","citation":"Avery Tower","purpose":"description"}],"map_sources":[],"editions":["SR5"],"edition_descriptions":{"SR5":{"kind":"Ortsprofil","preview":"Der Avery Tower ist ein markanter Hochhaus- und Konzernstandort.","full":"Der Avery Tower ist ein markanter Hochhaus- und Konzernstandort. Die Position ist auf den belegten Stadt- oder Teilraum angenähert; eine hausgenaue Lage und eine weitergehende eigene Fließtextbeschreibung sind aus dem zugeordneten Datenmaterial nicht sicher ableitbar.","hasMore":true,"hasExcerpt":true,"sources":[{"bookId":"sr5-hard-targets","title":"Hard Targets","edition":"SR5","citation":"Avery Tower","purpose":"description"}]}}}},{"type":"Feature","geometry":null,"properties":{"id":3,"global_id":"havanna:place:3-barrens-am-guachinango","name":"Barrens am Guachinango","aliases":[],"category":"Sondergebiete","detail_map":"Havanna","source_pages":"Barrens am Guachinango","map_source":"Harte Ziele","placement_note":"Keine belastbare Einzelposition; Eintrag bleibt im Katalog","accuracy":"Nur Stadt oder Lore-Teilraum belegt","source_map":"havanna-content","source_panel":"Havanna","description_preview":"Die Barrens bilden einen prekären und gefährlichen Stadtraum.","description_full":"Die Barrens bilden einen prekären und gefährlichen Stadtraum. Die Position ist auf den belegten Stadt- oder Teilraum angenähert; eine hausgenaue Lage und eine weitergehende eigene Fließtextbeschreibung sind aus dem zugeordneten Datenmaterial nicht sicher ableitbar.","description_source":"Barrens am Guachinango","description_kind":"Ortsprofil","description_has_more":true,"detail_plans":[],"alternate_locations":[],"sources":[{"bookId":"sr5-harte-ziele","title":"Harte Ziele","edition":"SR5","citation":"Barrens am Guachinango","purpose":"description"}],"map_sources":[],"editions":["SR5"],"edition_descriptions":{"SR5":{"kind":"Ortsprofil","preview":"Die Barrens bilden einen prekären und gefährlichen Stadtraum.","full":"Die Barrens bilden einen prekären und gefährlichen Stadtraum. Die Position ist auf den belegten Stadt- oder Teilraum angenähert; eine hausgenaue Lage und eine weitergehende eigene Fließtextbeschreibung sind aus dem zugeordneten Datenmaterial nicht sicher ableitbar.","hasMore":true,"hasExcerpt":true,"sources":[{"bookId":"sr5-harte-ziele","title":"Harte Ziele","edition":"SR5","citation":"Barrens am Guachinango","purpose":"description"}]}}}},{"type":"Feature","geometry":null,"properties":{"id":6,"global_id":"havanna:place:6-boyer-os-national-park","name":"Boyer(os) National Park","aliases":[],"category":"Freizeit und Natur","detail_map":"Havanna","source_pages":"The Boyeros National Park","map_source":"Hard Targets","placement_note":"Keine belastbare Einzelposition; Eintrag bleibt im Katalog","accuracy":"Nur Stadt oder Lore-Teilraum belegt","source_map":"havanna-content","source_panel":"Havanna","description_preview":"Der Park ist ein benannter Natur- und Freizeitstandort.","description_full":"Der Park ist ein benannter Natur- und Freizeitstandort. Die Position ist auf den belegten Stadt- oder Teilraum angenähert; eine hausgenaue Lage und eine weitergehende eigene Fließtextbeschreibung sind aus dem zugeordneten Datenmaterial nicht sicher ableitbar.","description_source":"The Boyeros National Park","description_kind":"Ortsprofil","description_has_more":true,"detail_plans":[],"alternate_locations":[],"sources":[{"bookId":"sr5-hard-targets","title":"Hard Targets","edition":"SR5","citation":"The Boyeros National Park","purpose":"description"}],"map_sources":[],"editions":["SR5"],"edition_descriptions":{"SR5":{"kind":"Ortsprofil","preview":"Der Park ist ein benannter Natur- und Freizeitstandort.","full":"Der Park ist ein benannter Natur- und Freizeitstandort. Die Position ist auf den belegten Stadt- oder Teilraum angenähert; eine hausgenaue Lage und eine weitergehende eigene Fließtextbeschreibung sind aus dem zugeordneten Datenmaterial nicht sicher ableitbar.","hasMore":true,"hasExcerpt":true,"sources":[{"bookId":"sr5-hard-targets","title":"Hard Targets","edition":"SR5","citation":"The Boyeros National Park","purpose":"description"}]}}}},{"type":"Feature","geometry":{"type":"Point","coordinates":[-82.409,22.989]},"properties":{"id":5,"global_id":"havanna:place:5-havana-international-airport","name":"Havana International Airport","aliases":[],"category":"Verkehr","detail_map":"Havanna","source_pages":"International Airport","map_source":"Hard Targets","placement_note":"Erhaltener geographischer Bezugspunkt","accuracy":"Geographischer Bezugspunkt","source_map":"havanna-content","source_panel":"Havanna","description_preview":"Der internationale Flughafen ist der wichtigste Luftverkehrszugang.","description_full":"Der internationale Flughafen ist der wichtigste Luftverkehrszugang. Die Position folgt einem erhaltenen heutigen Bezugspunkt.","description_source":"International Airport","description_kind":"Ortsprofil","description_has_more":true,"detail_plans":[],"alternate_locations":[],"sources":[{"bookId":"sr5-hard-targets","title":"Hard Targets","edition":"SR5","citation":"International Airport","purpose":"description"}],"map_sources":[],"editions":["SR5"],"edition_descriptions":{"SR5":{"kind":"Ortsprofil","preview":"Der internationale Flughafen ist der wichtigste Luftverkehrszugang.","full":"Der internationale Flughafen ist der wichtigste Luftverkehrszugang. Die Position folgt einem erhaltenen heutigen Bezugspunkt.","hasMore":true,"hasExcerpt":true,"sources":[{"bookId":"sr5-hard-targets","title":"Hard Targets","edition":"SR5","citation":"International Airport","purpose":"description"}]}}}},{"type":"Feature","geometry":{"type":"Point","coordinates":[-82.3666,23.1136]},"properties":{"id":1,"global_id":"havanna:place:1-havanna-lore-raum","name":"Havanna Lore-Raum","aliases":[],"category":"Bezirke","detail_map":"Havanna Lore-Raum","source_pages":"Stadt- oder Regionalkapitel","map_source":"Hard Targets","placement_note":"Geografischer Bezugspunkt des Lore-Distrikts Havanna Lore-Raum","accuracy":"Lore-Bezirkszentrum; Grenzpolygon noch nicht georeferenziert","source_map":"havanna-content","source_panel":"Havanna Lore-Raum","description_preview":"Havanna ist Hauptstadt der Karibischen Liga, Tourismus-, Geheimdienst- und Unterweltzentrum.","description_full":"Havanna ist Hauptstadt der Karibischen Liga, Tourismus-, Geheimdienst- und Unterweltzentrum. Die Position ist auf den belegten Stadt- oder Teilraum angenähert; eine hausgenaue Lage und eine weitergehende eigene Fließtextbeschreibung sind aus dem zugeordneten Datenmaterial nicht sicher ableitbar.","description_source":"Stadt- oder Regionalkapitel","description_kind":"Ortsprofil","description_has_more":true,"detail_plans":[],"alternate_locations":[],"sources":[{"bookId":"sr5-hard-targets","title":"Hard Targets","edition":"SR5","citation":"Stadt- oder Regionalkapitel","purpose":"description"}],"map_sources":[],"editions":["SR5"],"edition_descriptions":{"SR5":{"kind":"Ortsprofil","preview":"Havanna ist Hauptstadt der Karibischen Liga, Tourismus-, Geheimdienst- und Unterweltzentrum.","full":"Havanna ist Hauptstadt der Karibischen Liga, Tourismus-, Geheimdienst- und Unterweltzentrum. Die Position ist auf den belegten Stadt- oder Teilraum angenähert; eine hausgenaue Lage und eine weitergehende eigene Fließtextbeschreibung sind aus dem zugeordneten Datenmaterial nicht sicher ableitbar.","hasMore":true,"hasExcerpt":true,"sources":[{"bookId":"sr5-hard-targets","title":"Hard Targets","edition":"SR5","citation":"Stadt- oder Regionalkapitel","purpose":"description"}]}}}},{"type":"Feature","geometry":{"type":"Point","coordinates":[-82.396,23.144]},"properties":{"id":4,"global_id":"havanna:place:4-hotel-nacional","name":"Hotel Nacional","aliases":[],"category":"Hotels","detail_map":"Havanna","source_pages":"Hotel Nacional","map_source":"Hard Targets","placement_note":"Erhaltener geographischer Bezugspunkt","accuracy":"Geographischer Bezugspunkt","source_map":"havanna-content","source_panel":"Havanna","description_preview":"Das Hotel Nacional ist ein traditionsreicher Hotel- und Geschäftstreff.","description_full":"Das Hotel Nacional ist ein traditionsreicher Hotel- und Geschäftstreff. Die Position folgt einem erhaltenen heutigen Bezugspunkt.","description_source":"Hotel Nacional","description_kind":"Ortsprofil","description_has_more":true,"detail_plans":[],"alternate_locations":[],"sources":[{"bookId":"sr5-hard-targets","title":"Hard Targets","edition":"SR5","citation":"Hotel Nacional","purpose":"description"}],"map_sources":[],"editions":["SR5"],"edition_descriptions":{"SR5":{"kind":"Ortsprofil","preview":"Das Hotel Nacional ist ein traditionsreicher Hotel- und Geschäftstreff.","full":"Das Hotel Nacional ist ein traditionsreicher Hotel- und Geschäftstreff. Die Position folgt einem erhaltenen heutigen Bezugspunkt.","hasMore":true,"hasExcerpt":true,"sources":[{"bookId":"sr5-hard-targets","title":"Hard Targets","edition":"SR5","citation":"Hotel Nacional","purpose":"description"}]}}}},{"type":"Feature","geometry":{"type":"Point","coordinates":[-82.449,23.097]},"properties":{"id":7,"global_id":"havanna:place:7-tropicana-club","name":"Tropicana Club","aliases":[],"category":"Bars und Clubs","detail_map":"Havanna","source_pages":"Tropicana Club","map_source":"Hard Targets","placement_note":"Erhaltener geographischer Bezugspunkt","accuracy":"Geographischer Bezugspunkt","source_map":"havanna-content","source_panel":"Havanna","description_preview":"Das Tropicana ist ein weltbekannter Unterhaltungs- und Kontaktort.","description_full":"Das Tropicana ist ein weltbekannter Unterhaltungs- und Kontaktort. Die Position folgt einem erhaltenen heutigen Bezugspunkt.","description_source":"Tropicana Club","description_kind":"Ortsprofil","description_has_more":true,"detail_plans":[],"alternate_locations":[],"sources":[{"bookId":"sr5-hard-targets","title":"Hard Targets","edition":"SR5","citation":"Tropicana Club","purpose":"description"}],"map_sources":[],"editions":["SR5"],"edition_descriptions":{"SR5":{"kind":"Ortsprofil","preview":"Das Tropicana ist ein weltbekannter Unterhaltungs- und Kontaktort.","full":"Das Tropicana ist ein weltbekannter Unterhaltungs- und Kontaktort. Die Position folgt einem erhaltenen heutigen Bezugspunkt.","hasMore":true,"hasExcerpt":true,"sources":[{"bookId":"sr5-hard-targets","title":"Hard Targets","edition":"SR5","citation":"Tropicana Club","purpose":"description"}]}}}}]}
