{"type":"FeatureCollection","name":"Havanna – geprüfte zusätzliche Quellenorte","features":[{"type":"Feature","geometry":null,"properties":{"id":8,"global_id":"havanna:source-place:bahnhof-la-coubre","name":"Bahnhof La Coubre","aliases":[],"category":"Verkehr und Infrastruktur","detail_map":"Havanna","source_pages":"Textzeile 9341","map_source":"Harte Ziele","placement_note":"Keine belastbare Einzelposition; Eintrag bleibt im Katalog","accuracy":"Nur Stadt oder Lore-Teilraum belegt","source_map":"source-supplement","source_panel":"Havanna","description_preview":"Bahnhof La Coubre ist in Harte Ziele als benannter Schauplatz mit Bezug zu Havanna belegt.","description_full":"Bahnhof La Coubre ist in Harte Ziele als benannter Schauplatz mit Bezug zu Havanna belegt. Das Dossier fasst den belegten Quellenstand redaktionell zusammen; eine nicht belegte Kartenposition wird nicht ergänzt.","description_source":"Textzeile 9341","description_kind":"Ortsdossier","description_has_more":true,"detail_plans":[],"alternate_locations":[],"sources":[{"bookId":"sr5-harte-ziele","title":"Harte Ziele","edition":"SR5","citation":"Textzeile 9341","purpose":"description"}],"map_sources":[],"editions":["SR5"],"edition_descriptions":{"SR5":{"kind":"Ortsdossier","preview":"Bahnhof La Coubre ist in Harte Ziele als benannter Schauplatz mit Bezug zu Havanna belegt.","full":"Bahnhof La Coubre ist in Harte Ziele als benannter Schauplatz mit Bezug zu Havanna belegt. Das Dossier fasst den belegten Quellenstand redaktionell zusammen; eine nicht belegte Kartenposition wird nicht ergänzt.","hasMore":true,"hasExcerpt":true,"sources":[{"bookId":"sr5-harte-ziele","title":"Harte Ziele","edition":"SR5","citation":"Textzeile 9341","purpose":"description"}]}}}},{"type":"Feature","geometry":null,"properties":{"id":9,"global_id":"havanna:source-place:knight-errant-castle","name":"Knight Errant Castle","aliases":[],"category":"Sonstige Spots","detail_map":"Havanna","source_pages":"Textzeile 10022","map_source":"Hard Targets","placement_note":"Keine belastbare Einzelposition; Eintrag bleibt im Katalog","accuracy":"Nur Stadt oder Lore-Teilraum belegt","source_map":"source-supplement","source_panel":"Havanna","description_preview":"Knight Errant Castle ist in Hard Targets als benannter Schauplatz mit Bezug zu Havanna belegt.","description_full":"Knight Errant Castle ist in Hard Targets als benannter Schauplatz mit Bezug zu Havanna belegt. Das Dossier fasst den belegten Quellenstand redaktionell zusammen; eine nicht belegte Kartenposition wird nicht ergänzt.","description_source":"Textzeile 10022","description_kind":"Ortsdossier","description_has_more":true,"detail_plans":[],"alternate_locations":[],"sources":[{"bookId":"sr5-hard-targets","title":"Hard Targets","edition":"SR5","citation":"Textzeile 10022","purpose":"description"}],"map_sources":[],"editions":["SR5"],"edition_descriptions":{"SR5":{"kind":"Ortsdossier","preview":"Knight Errant Castle ist in Hard Targets als benannter Schauplatz mit Bezug zu Havanna belegt.","full":"Knight Errant Castle ist in Hard Targets als benannter Schauplatz mit Bezug zu Havanna belegt. Das Dossier fasst den belegten Quellenstand redaktionell zusammen; eine nicht belegte Kartenposition wird nicht ergänzt.","hasMore":true,"hasExcerpt":true,"sources":[{"bookId":"sr5-hard-targets","title":"Hard Targets","edition":"SR5","citation":"Textzeile 10022","purpose":"description"}]}}}},{"type":"Feature","geometry":null,"properties":{"id":10,"global_id":"havanna:source-place:oberschicht-im-krankenhaus","name":"Oberschicht / Im Krankenhaus","aliases":[],"category":"Medizin und Versorgung","detail_map":"Havanna","source_pages":"Textzeile 13525","map_source":"Harte Ziele","placement_note":"Keine belastbare Einzelposition; Eintrag bleibt im Katalog","accuracy":"Nur Stadt oder Lore-Teilraum belegt","source_map":"source-supplement","source_panel":"Havanna","description_preview":"Oberschicht / Im Krankenhaus ist in Harte Ziele als benannter Schauplatz mit Bezug zu Havanna belegt.","description_full":"Oberschicht / Im Krankenhaus ist in Harte Ziele als benannter Schauplatz mit Bezug zu Havanna belegt. Das Dossier fasst den belegten Quellenstand redaktionell zusammen; eine nicht belegte Kartenposition wird nicht ergänzt.","description_source":"Textzeile 13525","description_kind":"Ortsdossier","description_has_more":true,"detail_plans":[],"alternate_locations":[],"sources":[{"bookId":"sr5-harte-ziele","title":"Harte Ziele","edition":"SR5","citation":"Textzeile 13525","purpose":"description"}],"map_sources":[],"editions":["SR5"],"edition_descriptions":{"SR5":{"kind":"Ortsdossier","preview":"Oberschicht / Im Krankenhaus ist in Harte Ziele als benannter Schauplatz mit Bezug zu Havanna belegt.","full":"Oberschicht / Im Krankenhaus ist in Harte Ziele als benannter Schauplatz mit Bezug zu Havanna belegt. Das Dossier fasst den belegten Quellenstand redaktionell zusammen; eine nicht belegte Kartenposition wird nicht ergänzt.","hasMore":true,"hasExcerpt":true,"sources":[{"bookId":"sr5-harte-ziele","title":"Harte Ziele","edition":"SR5","citation":"Textzeile 13525","purpose":"description"}]}}}},{"type":"Feature","geometry":null,"properties":{"id":11,"global_id":"havanna:source-place:plaza-vieja","name":"Plaza Vieja","aliases":[],"category":"Sonstige Spots","detail_map":"Havanna","source_pages":"Textzeile 9484","map_source":"Harte Ziele","placement_note":"Keine belastbare Einzelposition; Eintrag bleibt im Katalog","accuracy":"Nur Stadt oder Lore-Teilraum belegt","source_map":"source-supplement","source_panel":"Havanna","description_preview":"Plaza Vieja ist in Harte Ziele als benannter Schauplatz mit Bezug zu Havanna belegt.","description_full":"Plaza Vieja ist in Harte Ziele als benannter Schauplatz mit Bezug zu Havanna belegt. Das Dossier fasst den belegten Quellenstand redaktionell zusammen; eine nicht belegte Kartenposition wird nicht ergänzt.","description_source":"Textzeile 9484","description_kind":"Ortsdossier","description_has_more":true,"detail_plans":[],"alternate_locations":[],"sources":[{"bookId":"sr5-harte-ziele","title":"Harte Ziele","edition":"SR5","citation":"Textzeile 9484","purpose":"description"}],"map_sources":[],"editions":["SR5"],"edition_descriptions":{"SR5":{"kind":"Ortsdossier","preview":"Plaza Vieja ist in Harte Ziele als benannter Schauplatz mit Bezug zu Havanna belegt.","full":"Plaza Vieja ist in Harte Ziele als benannter Schauplatz mit Bezug zu Havanna belegt. Das Dossier fasst den belegten Quellenstand redaktionell zusammen; eine nicht belegte Kartenposition wird nicht ergänzt.","hasMore":true,"hasExcerpt":true,"sources":[{"bookId":"sr5-harte-ziele","title":"Harte Ziele","edition":"SR5","citation":"Textzeile 9484","purpose":"description"}]}}}},{"type":"Feature","geometry":null,"properties":{"id":12,"global_id":"havanna:source-place:raue-wohngegend","name":"Raue Wohngegend","aliases":[],"category":"Sonstige Spots","detail_map":"Havanna","source_pages":"Textzeile 13795","map_source":"Harte Ziele","placement_note":"Keine belastbare Einzelposition; Eintrag bleibt im Katalog","accuracy":"Nur Stadt oder Lore-Teilraum belegt","source_map":"source-supplement","source_panel":"Havanna","description_preview":"Raue Wohngegend ist in Harte Ziele als benannter Schauplatz mit Bezug zu Havanna belegt.","description_full":"Raue Wohngegend ist in Harte Ziele als benannter Schauplatz mit Bezug zu Havanna belegt. Das Dossier fasst den belegten Quellenstand redaktionell zusammen; eine nicht belegte Kartenposition wird nicht ergänzt.","description_source":"Textzeile 13795","description_kind":"Ortsdossier","description_has_more":true,"detail_plans":[],"alternate_locations":[],"sources":[{"bookId":"sr5-harte-ziele","title":"Harte Ziele","edition":"SR5","citation":"Textzeile 13795","purpose":"description"}],"map_sources":[],"editions":["SR5"],"edition_descriptions":{"SR5":{"kind":"Ortsdossier","preview":"Raue Wohngegend ist in Harte Ziele als benannter Schauplatz mit Bezug zu Havanna belegt.","full":"Raue Wohngegend ist in Harte Ziele als benannter Schauplatz mit Bezug zu Havanna belegt. Das Dossier fasst den belegten Quellenstand redaktionell zusammen; eine nicht belegte Kartenposition wird nicht ergänzt.","hasMore":true,"hasExcerpt":true,"sources":[{"bookId":"sr5-harte-ziele","title":"Harte Ziele","edition":"SR5","citation":"Textzeile 13795","purpose":"description"}]}}}},{"type":"Feature","geometry":null,"properties":{"id":13,"global_id":"havanna:source-place:revolution-plaza","name":"Revolution Plaza","aliases":[],"category":"Sonstige Spots","detail_map":"Havanna","source_pages":"Textzeile 10577","map_source":"Hard Targets","placement_note":"Keine belastbare Einzelposition; Eintrag bleibt im Katalog","accuracy":"Nur Stadt oder Lore-Teilraum belegt","source_map":"source-supplement","source_panel":"Havanna","description_preview":"Revolution Plaza ist in Hard Targets als benannter Schauplatz mit Bezug zu Havanna belegt.","description_full":"Revolution Plaza ist in Hard Targets als benannter Schauplatz mit Bezug zu Havanna belegt. Das Dossier fasst den belegten Quellenstand redaktionell zusammen; eine nicht belegte Kartenposition wird nicht ergänzt.","description_source":"Textzeile 10577","description_kind":"Ortsdossier","description_has_more":true,"detail_plans":[],"alternate_locations":[],"sources":[{"bookId":"sr5-hard-targets","title":"Hard Targets","edition":"SR5","citation":"Textzeile 10577","purpose":"description"}],"map_sources":[],"editions":["SR5"],"edition_descriptions":{"SR5":{"kind":"Ortsdossier","preview":"Revolution Plaza ist in Hard Targets als benannter Schauplatz mit Bezug zu Havanna belegt.","full":"Revolution Plaza ist in Hard Targets als benannter Schauplatz mit Bezug zu Havanna belegt. Das Dossier fasst den belegten Quellenstand redaktionell zusammen; eine nicht belegte Kartenposition wird nicht ergänzt.","hasMore":true,"hasExcerpt":true,"sources":[{"bookId":"sr5-hard-targets","title":"Hard Targets","edition":"SR5","citation":"Textzeile 10577","purpose":"description"}]}}}},{"type":"Feature","geometry":null,"properties":{"id":14,"global_id":"havanna:source-place:revolution-square","name":"Revolution Square","aliases":[],"category":"Sonstige Spots","detail_map":"Havanna","source_pages":"Textzeile 10763","map_source":"Hard Targets","placement_note":"Keine belastbare Einzelposition; Eintrag bleibt im Katalog","accuracy":"Nur Stadt oder Lore-Teilraum belegt","source_map":"source-supplement","source_panel":"Havanna","description_preview":"Revolution Square ist in Hard Targets als benannter Schauplatz mit Bezug zu Havanna belegt.","description_full":"Revolution Square ist in Hard Targets als benannter Schauplatz mit Bezug zu Havanna belegt. Das Dossier fasst den belegten Quellenstand redaktionell zusammen; eine nicht belegte Kartenposition wird nicht ergänzt.","description_source":"Textzeile 10763","description_kind":"Ortsdossier","description_has_more":true,"detail_plans":[],"alternate_locations":[],"sources":[{"bookId":"sr5-hard-targets","title":"Hard Targets","edition":"SR5","citation":"Textzeile 10763","purpose":"description"}],"map_sources":[],"editions":["SR5"],"edition_descriptions":{"SR5":{"kind":"Ortsdossier","preview":"Revolution Square ist in Hard Targets als benannter Schauplatz mit Bezug zu Havanna belegt.","full":"Revolution Square ist in Hard Targets als benannter Schauplatz mit Bezug zu Havanna belegt. Das Dossier fasst den belegten Quellenstand redaktionell zusammen; eine nicht belegte Kartenposition wird nicht ergänzt.","hasMore":true,"hasExcerpt":true,"sources":[{"bookId":"sr5-hard-targets","title":"Hard Targets","edition":"SR5","citation":"Textzeile 10763","purpose":"description"}]}}}},{"type":"Feature","geometry":null,"properties":{"id":15,"global_id":"havanna:source-place:tabakplantage","name":"Tabakplantage","aliases":[],"category":"Sonstige Spots","detail_map":"Havanna","source_pages":"Textzeile 13985","map_source":"Harte Ziele","placement_note":"Keine belastbare Einzelposition; Eintrag bleibt im Katalog","accuracy":"Nur Stadt oder Lore-Teilraum belegt","source_map":"source-supplement","source_panel":"Havanna","description_preview":"Tabakplantage ist in Harte Ziele als benannter Schauplatz mit Bezug zu Havanna belegt.","description_full":"Tabakplantage ist in Harte Ziele als benannter Schauplatz mit Bezug zu Havanna belegt. Das Dossier fasst den belegten Quellenstand redaktionell zusammen; eine nicht belegte Kartenposition wird nicht ergänzt.","description_source":"Textzeile 13985","description_kind":"Ortsdossier","description_has_more":true,"detail_plans":[],"alternate_locations":[],"sources":[{"bookId":"sr5-harte-ziele","title":"Harte Ziele","edition":"SR5","citation":"Textzeile 13985","purpose":"description"}],"map_sources":[],"editions":["SR5"],"edition_descriptions":{"SR5":{"kind":"Ortsdossier","preview":"Tabakplantage ist in Harte Ziele als benannter Schauplatz mit Bezug zu Havanna belegt.","full":"Tabakplantage ist in Harte Ziele als benannter Schauplatz mit Bezug zu Havanna belegt. Das Dossier fasst den belegten Quellenstand redaktionell zusammen; eine nicht belegte Kartenposition wird nicht ergänzt.","hasMore":true,"hasExcerpt":true,"sources":[{"bookId":"sr5-harte-ziele","title":"Harte Ziele","edition":"SR5","citation":"Textzeile 13985","purpose":"description"}]}}}}]}
