{"type":"FeatureCollection","name":"Boston Orte","features":[{"type":"Feature","geometry":null,"properties":{"id":7,"global_id":"boston:place:7-aqua-arcana","name":"Aqua Arcana","aliases":[],"category":"Magie und Erwachte","detail_map":"Boston Harbor","source_pages":"Orte in Boston","map_source":"Lockdown","placement_note":"Keine belastbare Einzelposition; Eintrag bleibt im Katalog","accuracy":"Nur Stadt oder Lore-Teilraum belegt","source_map":"boston-content","source_panel":"Boston Harbor","description_preview":"Aqua Arcana ist ein benannter Bostoner Schauplatz.","description_full":"Aqua Arcana ist ein benannter Bostoner Schauplatz. Die Position ist auf den belegten Stadt- oder Teilraum angenähert; eine hausgenaue Lage und eine weitergehende eigene Fließtextbeschreibung sind aus dem zugeordneten Datenmaterial nicht sicher ableitbar.","description_source":"Orte in Boston","description_kind":"Ortsprofil","description_has_more":true,"detail_plans":[],"alternate_locations":[],"sources":[{"bookId":"sr5-lockdown","title":"Lockdown","edition":"SR5","citation":"Orte in Boston","purpose":"description"}],"map_sources":[],"editions":["SR5"],"edition_descriptions":{"SR5":{"kind":"Ortsprofil","preview":"Aqua Arcana ist ein benannter Bostoner Schauplatz.","full":"Aqua Arcana ist ein benannter Bostoner Schauplatz. Die Position ist auf den belegten Stadt- oder Teilraum angenähert; eine hausgenaue Lage und eine weitergehende eigene Fließtextbeschreibung sind aus dem zugeordneten Datenmaterial nicht sicher ableitbar.","hasMore":true,"hasExcerpt":true,"sources":[{"bookId":"sr5-lockdown","title":"Lockdown","edition":"SR5","citation":"Orte in Boston","purpose":"description"}]}}}},{"type":"Feature","geometry":null,"properties":{"id":8,"global_id":"boston:place:8-aurelius-academy","name":"Aurelius Academy","aliases":[],"category":"Bildung und Kultur","detail_map":"Boston Lockdown Zone","source_pages":"Orte in Boston","map_source":"Lockdown","placement_note":"Keine belastbare Einzelposition; Eintrag bleibt im Katalog","accuracy":"Nur Stadt oder Lore-Teilraum belegt","source_map":"boston-content","source_panel":"Boston Lockdown Zone","description_preview":"Die Aurelius Academy ist ein Bildungs- und Forschungsschauplatz.","description_full":"Die Aurelius Academy ist ein Bildungs- und Forschungsschauplatz. Die Position ist auf den belegten Stadt- oder Teilraum angenähert; eine hausgenaue Lage und eine weitergehende eigene Fließtextbeschreibung sind aus dem zugeordneten Datenmaterial nicht sicher ableitbar.","description_source":"Orte in Boston","description_kind":"Ortsprofil","description_has_more":true,"detail_plans":[],"alternate_locations":[],"sources":[{"bookId":"sr5-lockdown","title":"Lockdown","edition":"SR5","citation":"Orte in Boston","purpose":"description"}],"map_sources":[],"editions":["SR5"],"edition_descriptions":{"SR5":{"kind":"Ortsprofil","preview":"Die Aurelius Academy ist ein Bildungs- und Forschungsschauplatz.","full":"Die Aurelius Academy ist ein Bildungs- und Forschungsschauplatz. Die Position ist auf den belegten Stadt- oder Teilraum angenähert; eine hausgenaue Lage und eine weitergehende eigene Fließtextbeschreibung sind aus dem zugeordneten Datenmaterial nicht sicher ableitbar.","hasMore":true,"hasExcerpt":true,"sources":[{"bookId":"sr5-lockdown","title":"Lockdown","edition":"SR5","citation":"Orte in Boston","purpose":"description"}]}}}},{"type":"Feature","geometry":null,"properties":{"id":19,"global_id":"boston:place:19-aztechnology-swampscott-high-school","name":"Aztechnology Swampscott High School","aliases":[],"category":"Konzerne","detail_map":"Swampscott","source_pages":"Konzernprofil Aztechnology","map_source":"Sperrzone Boston","placement_note":"Keine belastbare Einzelposition; Eintrag bleibt im Katalog","accuracy":"Nur Stadt oder Lore-Teilraum belegt","source_map":"boston-content","source_panel":"Swampscott","description_preview":"Aztechnology übernahm die Swampscott High School und nutzt den Standort als lokale Operationsbasis.","description_full":"Aztechnology übernahm die Swampscott High School und nutzt den Standort als lokale Operationsbasis. Die Position ist auf den belegten Stadt- oder Teilraum angenähert; eine hausgenaue Lage und eine weitergehende eigene Fließtextbeschreibung sind aus dem zugeordneten Datenmaterial nicht sicher ableitbar.","description_source":"Konzernprofil Aztechnology","description_kind":"Ortsprofil","description_has_more":true,"detail_plans":[],"alternate_locations":[],"sources":[{"bookId":"sr5-sperrzone-boston","title":"Sperrzone Boston","edition":"SR5","citation":"Konzernprofil Aztechnology","purpose":"description"}],"map_sources":[],"editions":["SR5"],"edition_descriptions":{"SR5":{"kind":"Ortsprofil","preview":"Aztechnology übernahm die Swampscott High School und nutzt den Standort als lokale Operationsbasis.","full":"Aztechnology übernahm die Swampscott High School und nutzt den Standort als lokale Operationsbasis. Die Position ist auf den belegten Stadt- oder Teilraum angenähert; eine hausgenaue Lage und eine weitergehende eigene Fließtextbeschreibung sind aus dem zugeordneten Datenmaterial nicht sicher ableitbar.","hasMore":true,"hasExcerpt":true,"sources":[{"bookId":"sr5-sperrzone-boston","title":"Sperrzone Boston","edition":"SR5","citation":"Konzernprofil Aztechnology","purpose":"description"}]}}}},{"type":"Feature","geometry":{"type":"Point","coordinates":[-70.99,42.355]},"properties":{"id":5,"global_id":"boston:place:5-boston-harbor","name":"Boston Harbor","aliases":[],"category":"Bezirke","detail_map":"Boston Harbor","source_pages":"Kapitel Hafen","map_source":"Sperrzone Boston","placement_note":"Geografischer Bezugspunkt des Lore-Distrikts Boston Harbor","accuracy":"Lore-Bezirkszentrum; Grenzpolygon noch nicht georeferenziert","source_map":"boston-content","source_panel":"Boston Harbor","description_preview":"Der Hafen bleibt Verkehrsweg, Fluchtroute und Schauplatz konkurrierender Operationen.","description_full":"Der Hafen bleibt Verkehrsweg, Fluchtroute und Schauplatz konkurrierender Operationen. Die Position ist auf den belegten Stadt- oder Teilraum angenähert; eine hausgenaue Lage und eine weitergehende eigene Fließtextbeschreibung sind aus dem zugeordneten Datenmaterial nicht sicher ableitbar.","description_source":"Kapitel Hafen","description_kind":"Ortsprofil","description_has_more":true,"detail_plans":[],"alternate_locations":[],"sources":[{"bookId":"sr5-sperrzone-boston","title":"Sperrzone Boston","edition":"SR5","citation":"Kapitel Hafen","purpose":"description"}],"map_sources":[],"editions":["SR5"],"edition_descriptions":{"SR5":{"kind":"Ortsprofil","preview":"Der Hafen bleibt Verkehrsweg, Fluchtroute und Schauplatz konkurrierender Operationen.","full":"Der Hafen bleibt Verkehrsweg, Fluchtroute und Schauplatz konkurrierender Operationen. Die Position ist auf den belegten Stadt- oder Teilraum angenähert; eine hausgenaue Lage und eine weitergehende eigene Fließtextbeschreibung sind aus dem zugeordneten Datenmaterial nicht sicher ableitbar.","hasMore":true,"hasExcerpt":true,"sources":[{"bookId":"sr5-sperrzone-boston","title":"Sperrzone Boston","edition":"SR5","citation":"Kapitel Hafen","purpose":"description"}]}}}},{"type":"Feature","geometry":{"type":"Point","coordinates":[-71.0589,42.3601]},"properties":{"id":1,"global_id":"boston:place:1-boston-lockdown-zone","name":"Boston Lockdown Zone","aliases":[],"category":"Bezirke","detail_map":"Boston Lockdown Zone","source_pages":"Kapitel Sperrzone","map_source":"Sperrzone Boston","placement_note":"Geografischer Bezugspunkt des Lore-Distrikts Boston Lockdown Zone","accuracy":"Lore-Bezirkszentrum; Grenzpolygon noch nicht georeferenziert","source_map":"boston-content","source_panel":"Boston Lockdown Zone","description_preview":"Die abgeriegelte Bostoner Zone bildet den räumlichen Rahmen der KFS-Krise.","description_full":"Die abgeriegelte Bostoner Zone bildet den räumlichen Rahmen der KFS-Krise. Die Position ist auf den belegten Stadt- oder Teilraum angenähert; eine hausgenaue Lage und eine weitergehende eigene Fließtextbeschreibung sind aus dem zugeordneten Datenmaterial nicht sicher ableitbar.","description_source":"Kapitel Sperrzone","description_kind":"Ortsprofil","description_has_more":true,"detail_plans":[],"alternate_locations":[],"sources":[{"bookId":"sr5-sperrzone-boston","title":"Sperrzone Boston","edition":"SR5","citation":"Kapitel Sperrzone","purpose":"description"}],"map_sources":[],"editions":["SR5"],"edition_descriptions":{"SR5":{"kind":"Ortsprofil","preview":"Die abgeriegelte Bostoner Zone bildet den räumlichen Rahmen der KFS-Krise.","full":"Die abgeriegelte Bostoner Zone bildet den räumlichen Rahmen der KFS-Krise. Die Position ist auf den belegten Stadt- oder Teilraum angenähert; eine hausgenaue Lage und eine weitergehende eigene Fließtextbeschreibung sind aus dem zugeordneten Datenmaterial nicht sicher ableitbar.","hasMore":true,"hasExcerpt":true,"sources":[{"bookId":"sr5-sperrzone-boston","title":"Sperrzone Boston","edition":"SR5","citation":"Kapitel Sperrzone","purpose":"description"}]}}}},{"type":"Feature","geometry":{"type":"Point","coordinates":[-71.1097,42.3736]},"properties":{"id":2,"global_id":"boston:place:2-cambridge","name":"Cambridge","aliases":[],"category":"Bezirke","detail_map":"Cambridge","source_pages":"Kapitel Cambridge","map_source":"Sperrzone Boston","placement_note":"Geografischer Bezugspunkt des Lore-Distrikts Cambridge","accuracy":"Lore-Bezirkszentrum; Grenzpolygon noch nicht georeferenziert","source_map":"boston-content","source_panel":"Cambridge","description_preview":"Cambridge ist Wissenschafts- und Universitätszentrum sowie Brennpunkt der MIT&T-Ereignisse.","description_full":"Cambridge ist Wissenschafts- und Universitätszentrum sowie Brennpunkt der MIT&T-Ereignisse. Die Position ist auf den belegten Stadt- oder Teilraum angenähert; eine hausgenaue Lage und eine weitergehende eigene Fließtextbeschreibung sind aus dem zugeordneten Datenmaterial nicht sicher ableitbar.","description_source":"Kapitel Cambridge","description_kind":"Ortsprofil","description_has_more":true,"detail_plans":[],"alternate_locations":[],"sources":[{"bookId":"sr5-sperrzone-boston","title":"Sperrzone Boston","edition":"SR5","citation":"Kapitel Cambridge","purpose":"description"}],"map_sources":[],"editions":["SR5"],"edition_descriptions":{"SR5":{"kind":"Ortsprofil","preview":"Cambridge ist Wissenschafts- und Universitätszentrum sowie Brennpunkt der MIT&T-Ereignisse.","full":"Cambridge ist Wissenschafts- und Universitätszentrum sowie Brennpunkt der MIT&T-Ereignisse. Die Position ist auf den belegten Stadt- oder Teilraum angenähert; eine hausgenaue Lage und eine weitergehende eigene Fließtextbeschreibung sind aus dem zugeordneten Datenmaterial nicht sicher ableitbar.","hasMore":true,"hasExcerpt":true,"sources":[{"bookId":"sr5-sperrzone-boston","title":"Sperrzone Boston","edition":"SR5","citation":"Kapitel Cambridge","purpose":"description"}]}}}},{"type":"Feature","geometry":{"type":"Point","coordinates":[-71.0328,42.3918]},"properties":{"id":6,"global_id":"boston:place:6-chelsea","name":"Chelsea","aliases":[],"category":"Bezirke","detail_map":"Chelsea","source_pages":"Kapitel Chelsea","map_source":"Lockdown","placement_note":"Geografischer Bezugspunkt des Lore-Distrikts Chelsea","accuracy":"Lore-Bezirkszentrum; Grenzpolygon noch nicht georeferenziert","source_map":"boston-content","source_panel":"Chelsea","description_preview":"Chelsea ist als eigener Teilraum im Bostoner Sperrzonenmaterial belegt.","description_full":"Chelsea ist als eigener Teilraum im Bostoner Sperrzonenmaterial belegt. Die Position ist auf den belegten Stadt- oder Teilraum angenähert; eine hausgenaue Lage und eine weitergehende eigene Fließtextbeschreibung sind aus dem zugeordneten Datenmaterial nicht sicher ableitbar.","description_source":"Kapitel Chelsea","description_kind":"Ortsprofil","description_has_more":true,"detail_plans":[],"alternate_locations":[],"sources":[{"bookId":"sr5-lockdown","title":"Lockdown","edition":"SR5","citation":"Kapitel Chelsea","purpose":"description"}],"map_sources":[],"editions":["SR5"],"edition_descriptions":{"SR5":{"kind":"Ortsprofil","preview":"Chelsea ist als eigener Teilraum im Bostoner Sperrzonenmaterial belegt.","full":"Chelsea ist als eigener Teilraum im Bostoner Sperrzonenmaterial belegt. Die Position ist auf den belegten Stadt- oder Teilraum angenähert; eine hausgenaue Lage und eine weitergehende eigene Fließtextbeschreibung sind aus dem zugeordneten Datenmaterial nicht sicher ableitbar.","hasMore":true,"hasExcerpt":true,"sources":[{"bookId":"sr5-lockdown","title":"Lockdown","edition":"SR5","citation":"Kapitel Chelsea","purpose":"description"}]}}}},{"type":"Feature","geometry":null,"properties":{"id":20,"global_id":"boston:place:20-der-schwarze-basar","name":"Der Schwarze Basar","aliases":[],"category":"Einkaufen","detail_map":"Boston Lockdown Zone","source_pages":"Schauplatz Der Schwarze Basar","map_source":"Sperrzone Boston","placement_note":"Keine belastbare Einzelposition; Eintrag bleibt im Katalog","accuracy":"Nur Stadt oder Lore-Teilraum belegt","source_map":"boston-content","source_panel":"Boston Lockdown Zone","description_preview":"Der mobile Schwarze Basar ist ein gefährlicher, regelmäßig verlegter Markt innerhalb der Sperrzone.","description_full":"Der mobile Schwarze Basar ist ein gefährlicher, regelmäßig verlegter Markt innerhalb der Sperrzone. Die Position ist auf den belegten Stadt- oder Teilraum angenähert; eine hausgenaue Lage und eine weitergehende eigene Fließtextbeschreibung sind aus dem zugeordneten Datenmaterial nicht sicher ableitbar.","description_source":"Schauplatz Der Schwarze Basar","description_kind":"Ortsprofil","description_has_more":true,"detail_plans":[],"alternate_locations":[],"sources":[{"bookId":"sr5-sperrzone-boston","title":"Sperrzone Boston","edition":"SR5","citation":"Schauplatz Der Schwarze Basar","purpose":"description"}],"map_sources":[],"editions":["SR5"],"edition_descriptions":{"SR5":{"kind":"Ortsprofil","preview":"Der mobile Schwarze Basar ist ein gefährlicher, regelmäßig verlegter Markt innerhalb der Sperrzone.","full":"Der mobile Schwarze Basar ist ein gefährlicher, regelmäßig verlegter Markt innerhalb der Sperrzone. Die Position ist auf den belegten Stadt- oder Teilraum angenähert; eine hausgenaue Lage und eine weitergehende eigene Fließtextbeschreibung sind aus dem zugeordneten Datenmaterial nicht sicher ableitbar.","hasMore":true,"hasExcerpt":true,"sources":[{"bookId":"sr5-sperrzone-boston","title":"Sperrzone Boston","edition":"SR5","citation":"Schauplatz Der Schwarze Basar","purpose":"description"}]}}}},{"type":"Feature","geometry":null,"properties":{"id":21,"global_id":"boston:place:21-die-pyramide","name":"Die Pyramide","aliases":[],"category":"Bildung und Kultur","detail_map":"Cambridge","source_pages":"Schauplatz Die Pyramide, MIT&T","map_source":"Sperrzone Boston","placement_note":"Keine belastbare Einzelposition; Eintrag bleibt im Katalog","accuracy":"Nur Stadt oder Lore-Teilraum belegt","source_map":"boston-content","source_panel":"Cambridge","description_preview":"Die dreißigstöckige Pyramide des MIT&T steht zwischen Main Street, Portland Street und Albany Street.","description_full":"Die dreißigstöckige Pyramide des MIT&T steht zwischen Main Street, Portland Street und Albany Street. Die Position ist auf den belegten Stadt- oder Teilraum angenähert; eine hausgenaue Lage und eine weitergehende eigene Fließtextbeschreibung sind aus dem zugeordneten Datenmaterial nicht sicher ableitbar.","description_source":"Schauplatz Die Pyramide, MIT&T","description_kind":"Ortsprofil","description_has_more":true,"detail_plans":[],"alternate_locations":[],"sources":[{"bookId":"sr5-sperrzone-boston","title":"Sperrzone Boston","edition":"SR5","citation":"Schauplatz Die Pyramide, MIT&T","purpose":"description"}],"map_sources":[],"editions":["SR5"],"edition_descriptions":{"SR5":{"kind":"Ortsprofil","preview":"Die dreißigstöckige Pyramide des MIT&T steht zwischen Main Street, Portland Street und Albany Street.","full":"Die dreißigstöckige Pyramide des MIT&T steht zwischen Main Street, Portland Street und Albany Street. Die Position ist auf den belegten Stadt- oder Teilraum angenähert; eine hausgenaue Lage und eine weitergehende eigene Fließtextbeschreibung sind aus dem zugeordneten Datenmaterial nicht sicher ableitbar.","hasMore":true,"hasExcerpt":true,"sources":[{"bookId":"sr5-sperrzone-boston","title":"Sperrzone Boston","edition":"SR5","citation":"Schauplatz Die Pyramide, MIT&T","purpose":"description"}]}}}},{"type":"Feature","geometry":null,"properties":{"id":22,"global_id":"boston:place:22-die-squares","name":"Die Squares","aliases":[],"category":"Bildung und Kultur","detail_map":"Boston Lockdown Zone","source_pages":"Schauplatz Die Squares","map_source":"Sperrzone Boston","placement_note":"Keine belastbare Einzelposition; Eintrag bleibt im Katalog","accuracy":"Nur Stadt oder Lore-Teilraum belegt","source_map":"boston-content","source_panel":"Boston Lockdown Zone","description_preview":"Die Squares bündeln mehrere universitäre Teilräume und die dazugehörige akademische Schattenlandschaft.","description_full":"Die Squares bündeln mehrere universitäre Teilräume und die dazugehörige akademische Schattenlandschaft. Die Position ist auf den belegten Stadt- oder Teilraum angenähert; eine hausgenaue Lage und eine weitergehende eigene Fließtextbeschreibung sind aus dem zugeordneten Datenmaterial nicht sicher ableitbar.","description_source":"Schauplatz Die Squares","description_kind":"Ortsprofil","description_has_more":true,"detail_plans":[],"alternate_locations":[],"sources":[{"bookId":"sr5-sperrzone-boston","title":"Sperrzone Boston","edition":"SR5","citation":"Schauplatz Die Squares","purpose":"description"}],"map_sources":[],"editions":["SR5"],"edition_descriptions":{"SR5":{"kind":"Ortsprofil","preview":"Die Squares bündeln mehrere universitäre Teilräume und die dazugehörige akademische Schattenlandschaft.","full":"Die Squares bündeln mehrere universitäre Teilräume und die dazugehörige akademische Schattenlandschaft. Die Position ist auf den belegten Stadt- oder Teilraum angenähert; eine hausgenaue Lage und eine weitergehende eigene Fließtextbeschreibung sind aus dem zugeordneten Datenmaterial nicht sicher ableitbar.","hasMore":true,"hasExcerpt":true,"sources":[{"bookId":"sr5-sperrzone-boston","title":"Sperrzone Boston","edition":"SR5","citation":"Schauplatz Die Squares","purpose":"description"}]}}}},{"type":"Feature","geometry":null,"properties":{"id":10,"global_id":"boston:place:10-enoch-fuller-house","name":"Enoch-Fuller House","aliases":[],"category":"Sonstige Spots","detail_map":"Boston Lockdown Zone","source_pages":"Schauplatz Enoch-Fuller-Haus","map_source":"Sperrzone Boston","placement_note":"Keine belastbare Einzelposition; Eintrag bleibt im Katalog","accuracy":"Nur Stadt oder Lore-Teilraum belegt","source_map":"boston-content","source_panel":"Boston Lockdown Zone","description_preview":"Das Enoch-Fuller-Haus ist ein benannter Missionsschauplatz.","description_full":"Das Enoch-Fuller-Haus ist ein benannter Missionsschauplatz. Die Position ist auf den belegten Stadt- oder Teilraum angenähert; eine hausgenaue Lage und eine weitergehende eigene Fließtextbeschreibung sind aus dem zugeordneten Datenmaterial nicht sicher ableitbar.","description_source":"Schauplatz Enoch-Fuller-Haus","description_kind":"Ortsprofil","description_has_more":true,"detail_plans":[],"alternate_locations":[],"sources":[{"bookId":"sr5-sperrzone-boston","title":"Sperrzone Boston","edition":"SR5","citation":"Schauplatz Enoch-Fuller-Haus","purpose":"description"}],"map_sources":[],"editions":["SR5"],"edition_descriptions":{"SR5":{"kind":"Ortsprofil","preview":"Das Enoch-Fuller-Haus ist ein benannter Missionsschauplatz.","full":"Das Enoch-Fuller-Haus ist ein benannter Missionsschauplatz. Die Position ist auf den belegten Stadt- oder Teilraum angenähert; eine hausgenaue Lage und eine weitergehende eigene Fließtextbeschreibung sind aus dem zugeordneten Datenmaterial nicht sicher ableitbar.","hasMore":true,"hasExcerpt":true,"sources":[{"bookId":"sr5-sperrzone-boston","title":"Sperrzone Boston","edition":"SR5","citation":"Schauplatz Enoch-Fuller-Haus","purpose":"description"}]}}}},{"type":"Feature","geometry":null,"properties":{"id":23,"global_id":"boston:place:23-fallout-zone","name":"Fallout-Zone","aliases":[],"category":"Sondergebiete","detail_map":"Boston Lockdown Zone","source_pages":"Gebiete – Fallout-Zone","map_source":"Sperrzone Boston","placement_note":"Keine belastbare Einzelposition; Eintrag bleibt im Katalog","accuracy":"Nur Stadt oder Lore-Teilraum belegt","source_map":"boston-content","source_panel":"Boston Lockdown Zone","description_preview":"Die Fallout-Zone ist ein benannter Gefahren- und Krisenraum innerhalb des Bostoner Sperrgebiets.","description_full":"Die Fallout-Zone ist ein benannter Gefahren- und Krisenraum innerhalb des Bostoner Sperrgebiets. Die Position ist auf den belegten Stadt- oder Teilraum angenähert; eine hausgenaue Lage und eine weitergehende eigene Fließtextbeschreibung sind aus dem zugeordneten Datenmaterial nicht sicher ableitbar.","description_source":"Gebiete – Fallout-Zone","description_kind":"Ortsprofil","description_has_more":true,"detail_plans":[],"alternate_locations":[],"sources":[{"bookId":"sr5-sperrzone-boston","title":"Sperrzone Boston","edition":"SR5","citation":"Gebiete – Fallout-Zone","purpose":"description"}],"map_sources":[],"editions":["SR5"],"edition_descriptions":{"SR5":{"kind":"Ortsprofil","preview":"Die Fallout-Zone ist ein benannter Gefahren- und Krisenraum innerhalb des Bostoner Sperrgebiets.","full":"Die Fallout-Zone ist ein benannter Gefahren- und Krisenraum innerhalb des Bostoner Sperrgebiets. Die Position ist auf den belegten Stadt- oder Teilraum angenähert; eine hausgenaue Lage und eine weitergehende eigene Fließtextbeschreibung sind aus dem zugeordneten Datenmaterial nicht sicher ableitbar.","hasMore":true,"hasExcerpt":true,"sources":[{"bookId":"sr5-sperrzone-boston","title":"Sperrzone Boston","edition":"SR5","citation":"Gebiete – Fallout-Zone","purpose":"description"}]}}}},{"type":"Feature","geometry":null,"properties":{"id":24,"global_id":"boston:place:24-fbv-boston-nachtmeister-tower","name":"FBV Boston – Nachtmeister-Tower","aliases":[],"category":"Konzerne","detail_map":"Boston Lockdown Zone","source_pages":"Konzernprofil Frankfurter Bankenverein","map_source":"Sperrzone Boston","placement_note":"Keine belastbare Einzelposition; Eintrag bleibt im Katalog","accuracy":"Nur Stadt oder Lore-Teilraum belegt","source_map":"boston-content","source_panel":"Boston Lockdown Zone","description_preview":"Der Bostoner Standort des Frankfurter Bankenvereins liegt im Nachtmeister-Tower nahe der früheren Ostküstenbörse.","description_full":"Der Bostoner Standort des Frankfurter Bankenvereins liegt im Nachtmeister-Tower nahe der früheren Ostküstenbörse. Die Position ist auf den belegten Stadt- oder Teilraum angenähert; eine hausgenaue Lage und eine weitergehende eigene Fließtextbeschreibung sind aus dem zugeordneten Datenmaterial nicht sicher ableitbar.","description_source":"Konzernprofil Frankfurter Bankenverein","description_kind":"Ortsprofil","description_has_more":true,"detail_plans":[],"alternate_locations":[],"sources":[{"bookId":"sr5-sperrzone-boston","title":"Sperrzone Boston","edition":"SR5","citation":"Konzernprofil Frankfurter Bankenverein","purpose":"description"}],"map_sources":[],"editions":["SR5"],"edition_descriptions":{"SR5":{"kind":"Ortsprofil","preview":"Der Bostoner Standort des Frankfurter Bankenvereins liegt im Nachtmeister-Tower nahe der früheren Ostküstenbörse.","full":"Der Bostoner Standort des Frankfurter Bankenvereins liegt im Nachtmeister-Tower nahe der früheren Ostküstenbörse. Die Position ist auf den belegten Stadt- oder Teilraum angenähert; eine hausgenaue Lage und eine weitergehende eigene Fließtextbeschreibung sind aus dem zugeordneten Datenmaterial nicht sicher ableitbar.","hasMore":true,"hasExcerpt":true,"sources":[{"bookId":"sr5-sperrzone-boston","title":"Sperrzone Boston","edition":"SR5","citation":"Konzernprofil Frankfurter Bankenverein","purpose":"description"}]}}}},{"type":"Feature","geometry":{"type":"Point","coordinates":[-71.099,42.345]},"properties":{"id":3,"global_id":"boston:place:3-fenway","name":"Fenway","aliases":[],"category":"Bezirke","detail_map":"Fenway","source_pages":"Kapitel Boston","map_source":"Lockdown","placement_note":"Geografischer Bezugspunkt des Lore-Distrikts Fenway","accuracy":"Lore-Bezirkszentrum; Grenzpolygon noch nicht georeferenziert","source_map":"boston-content","source_panel":"Fenway","description_preview":"Fenway verbindet Sportstätten, Hochschulen und urbane Krisenschauplätze.","description_full":"Fenway verbindet Sportstätten, Hochschulen und urbane Krisenschauplätze. Die Position ist auf den belegten Stadt- oder Teilraum angenähert; eine hausgenaue Lage und eine weitergehende eigene Fließtextbeschreibung sind aus dem zugeordneten Datenmaterial nicht sicher ableitbar.","description_source":"Kapitel Boston","description_kind":"Ortsprofil","description_has_more":true,"detail_plans":[],"alternate_locations":[],"sources":[{"bookId":"sr5-lockdown","title":"Lockdown","edition":"SR5","citation":"Kapitel Boston","purpose":"description"}],"map_sources":[],"editions":["SR5"],"edition_descriptions":{"SR5":{"kind":"Ortsprofil","preview":"Fenway verbindet Sportstätten, Hochschulen und urbane Krisenschauplätze.","full":"Fenway verbindet Sportstätten, Hochschulen und urbane Krisenschauplätze. Die Position ist auf den belegten Stadt- oder Teilraum angenähert; eine hausgenaue Lage und eine weitergehende eigene Fließtextbeschreibung sind aus dem zugeordneten Datenmaterial nicht sicher ableitbar.","hasMore":true,"hasExcerpt":true,"sources":[{"bookId":"sr5-lockdown","title":"Lockdown","edition":"SR5","citation":"Kapitel Boston","purpose":"description"}]}}}},{"type":"Feature","geometry":null,"properties":{"id":15,"global_id":"boston:place:15-fenway-colleges","name":"Fenway Colleges","aliases":[],"category":"Bildung und Kultur","detail_map":"Fenway","source_pages":"Kapitel Universitäten","map_source":"Lockdown","placement_note":"Keine belastbare Einzelposition; Eintrag bleibt im Katalog","accuracy":"Nur Stadt oder Lore-Teilraum belegt","source_map":"boston-content","source_panel":"Fenway","description_preview":"Die Fenway Colleges bilden einen Hochschulkomplex in der Krisenzone.","description_full":"Die Fenway Colleges bilden einen Hochschulkomplex in der Krisenzone. Die Position ist auf den belegten Stadt- oder Teilraum angenähert; eine hausgenaue Lage und eine weitergehende eigene Fließtextbeschreibung sind aus dem zugeordneten Datenmaterial nicht sicher ableitbar.","description_source":"Kapitel Universitäten","description_kind":"Ortsprofil","description_has_more":true,"detail_plans":[],"alternate_locations":[],"sources":[{"bookId":"sr5-lockdown","title":"Lockdown","edition":"SR5","citation":"Kapitel Universitäten","purpose":"description"}],"map_sources":[],"editions":["SR5"],"edition_descriptions":{"SR5":{"kind":"Ortsprofil","preview":"Die Fenway Colleges bilden einen Hochschulkomplex in der Krisenzone.","full":"Die Fenway Colleges bilden einen Hochschulkomplex in der Krisenzone. Die Position ist auf den belegten Stadt- oder Teilraum angenähert; eine hausgenaue Lage und eine weitergehende eigene Fließtextbeschreibung sind aus dem zugeordneten Datenmaterial nicht sicher ableitbar.","hasMore":true,"hasExcerpt":true,"sources":[{"bookId":"sr5-lockdown","title":"Lockdown","edition":"SR5","citation":"Kapitel Universitäten","purpose":"description"}]}}}},{"type":"Feature","geometry":{"type":"Point","coordinates":[-71.071,42.294]},"properties":{"id":4,"global_id":"boston:place:4-four-corners","name":"Four Corners","aliases":[],"category":"Bezirke","detail_map":"Four Corners","source_pages":"Kapitel Four Corners","map_source":"Lockdown","placement_note":"Geografischer Bezugspunkt des Lore-Distrikts Four Corners","accuracy":"Lore-Bezirkszentrum; Grenzpolygon noch nicht georeferenziert","source_map":"boston-content","source_panel":"Four Corners","description_preview":"Four Corners ist ein lokaler Siedlungs- und Konfliktraum innerhalb der Sperrzone.","description_full":"Four Corners ist ein lokaler Siedlungs- und Konfliktraum innerhalb der Sperrzone. Die Position ist auf den belegten Stadt- oder Teilraum angenähert; eine hausgenaue Lage und eine weitergehende eigene Fließtextbeschreibung sind aus dem zugeordneten Datenmaterial nicht sicher ableitbar.","description_source":"Kapitel Four Corners","description_kind":"Ortsprofil","description_has_more":true,"detail_plans":[],"alternate_locations":[],"sources":[{"bookId":"sr5-lockdown","title":"Lockdown","edition":"SR5","citation":"Kapitel Four Corners","purpose":"description"}],"map_sources":[],"editions":["SR5"],"edition_descriptions":{"SR5":{"kind":"Ortsprofil","preview":"Four Corners ist ein lokaler Siedlungs- und Konfliktraum innerhalb der Sperrzone.","full":"Four Corners ist ein lokaler Siedlungs- und Konfliktraum innerhalb der Sperrzone. Die Position ist auf den belegten Stadt- oder Teilraum angenähert; eine hausgenaue Lage und eine weitergehende eigene Fließtextbeschreibung sind aus dem zugeordneten Datenmaterial nicht sicher ableitbar.","hasMore":true,"hasExcerpt":true,"sources":[{"bookId":"sr5-lockdown","title":"Lockdown","edition":"SR5","citation":"Kapitel Four Corners","purpose":"description"}]}}}},{"type":"Feature","geometry":{"type":"Point","coordinates":[-71.092,42.305]},"properties":{"id":16,"global_id":"boston:place:16-franklin-park","name":"Franklin Park","aliases":[],"category":"Freizeit und Natur","detail_map":"Four Corners","source_pages":"Kapitel Boston","map_source":"Sperrzone Boston","placement_note":"Erhaltener geographischer Bezugspunkt","accuracy":"Geographischer Bezugspunkt","source_map":"boston-content","source_panel":"Four Corners","description_preview":"Franklin Park ist als geografischer und taktischer Schauplatz belegt.","description_full":"Franklin Park ist als geografischer und taktischer Schauplatz belegt. Die Position folgt einem erhaltenen heutigen Bezugspunkt.","description_source":"Kapitel Boston","description_kind":"Ortsprofil","description_has_more":true,"detail_plans":[],"alternate_locations":[],"sources":[{"bookId":"sr5-sperrzone-boston","title":"Sperrzone Boston","edition":"SR5","citation":"Kapitel Boston","purpose":"description"}],"map_sources":[],"editions":["SR5"],"edition_descriptions":{"SR5":{"kind":"Ortsprofil","preview":"Franklin Park ist als geografischer und taktischer Schauplatz belegt.","full":"Franklin Park ist als geografischer und taktischer Schauplatz belegt. Die Position folgt einem erhaltenen heutigen Bezugspunkt.","hasMore":true,"hasExcerpt":true,"sources":[{"bookId":"sr5-sperrzone-boston","title":"Sperrzone Boston","edition":"SR5","citation":"Kapitel Boston","purpose":"description"}]}}}},{"type":"Feature","geometry":null,"properties":{"id":25,"global_id":"boston:place:25-knight-errant-marblehead-high-school","name":"Knight Errant Marblehead High School","aliases":[],"category":"Sicherheit und Justiz","detail_map":"Marblehead","source_pages":"Konzernprofil Knight Errant","map_source":"Sperrzone Boston","placement_note":"Keine belastbare Einzelposition; Eintrag bleibt im Katalog","accuracy":"Nur Stadt oder Lore-Teilraum belegt","source_map":"boston-content","source_panel":"Marblehead","description_preview":"Knight Errant hat ein starkes Kontingent in der Marblehead High School stationiert und kontrolliert von dort die Umgebung.","description_full":"Knight Errant hat ein starkes Kontingent in der Marblehead High School stationiert und kontrolliert von dort die Umgebung. Die Position ist auf den belegten Stadt- oder Teilraum angenähert; eine hausgenaue Lage und eine weitergehende eigene Fließtextbeschreibung sind aus dem zugeordneten Datenmaterial nicht sicher ableitbar.","description_source":"Konzernprofil Knight Errant","description_kind":"Ortsprofil","description_has_more":true,"detail_plans":[],"alternate_locations":[],"sources":[{"bookId":"sr5-sperrzone-boston","title":"Sperrzone Boston","edition":"SR5","citation":"Konzernprofil Knight Errant","purpose":"description"}],"map_sources":[],"editions":["SR5"],"edition_descriptions":{"SR5":{"kind":"Ortsprofil","preview":"Knight Errant hat ein starkes Kontingent in der Marblehead High School stationiert und kontrolliert von dort die Umgebung.","full":"Knight Errant hat ein starkes Kontingent in der Marblehead High School stationiert und kontrolliert von dort die Umgebung. Die Position ist auf den belegten Stadt- oder Teilraum angenähert; eine hausgenaue Lage und eine weitergehende eigene Fließtextbeschreibung sind aus dem zugeordneten Datenmaterial nicht sicher ableitbar.","hasMore":true,"hasExcerpt":true,"sources":[{"bookId":"sr5-sperrzone-boston","title":"Sperrzone Boston","edition":"SR5","citation":"Konzernprofil Knight Errant","purpose":"description"}]}}}},{"type":"Feature","geometry":null,"properties":{"id":29,"global_id":"boston:place:29-knight-errant-revere-station","name":"Knight Errant Revere Station","aliases":[],"category":"Sicherheit und Justiz","detail_map":"Revere","source_pages":"Revere","map_source":"Sperrzone Boston","placement_note":"Keine belastbare Einzelposition; Eintrag bleibt im Katalog","accuracy":"Nur Stadt oder Lore-Teilraum belegt","source_map":"boston-content","source_panel":"Revere","description_preview":"Die Revere-Wache beherbergt neben den üblichen Einrichtungen ein Fast-Response-Team und eine Sonderermittlungseinheit.","description_full":"Die Revere-Wache beherbergt neben den üblichen Einrichtungen ein Fast-Response-Team und eine Sonderermittlungseinheit. Die Position ist auf den belegten Stadt- oder Teilraum angenähert; eine hausgenaue Lage und eine weitergehende eigene Fließtextbeschreibung sind aus dem zugeordneten Datenmaterial nicht sicher ableitbar.","description_source":"Revere","description_kind":"Ortsprofil","description_has_more":true,"detail_plans":[],"alternate_locations":[],"sources":[{"bookId":"sr5-sperrzone-boston","title":"Sperrzone Boston","edition":"SR5","citation":"Revere","purpose":"description"}],"map_sources":[],"editions":["SR5"],"edition_descriptions":{"SR5":{"kind":"Ortsprofil","preview":"Die Revere-Wache beherbergt neben den üblichen Einrichtungen ein Fast-Response-Team und eine Sonderermittlungseinheit.","full":"Die Revere-Wache beherbergt neben den üblichen Einrichtungen ein Fast-Response-Team und eine Sonderermittlungseinheit. Die Position ist auf den belegten Stadt- oder Teilraum angenähert; eine hausgenaue Lage und eine weitergehende eigene Fließtextbeschreibung sind aus dem zugeordneten Datenmaterial nicht sicher ableitbar.","hasMore":true,"hasExcerpt":true,"sources":[{"bookId":"sr5-sperrzone-boston","title":"Sperrzone Boston","edition":"SR5","citation":"Revere","purpose":"description"}]}}}},{"type":"Feature","geometry":null,"properties":{"id":17,"global_id":"boston:place:17-knight-errant-station","name":"Knight Errant Station","aliases":[],"category":"Sicherheit und Justiz","detail_map":"Boston Lockdown Zone","source_pages":"Schauplatz Knight-Errant-Station","map_source":"Sperrzone Boston","placement_note":"Keine belastbare Einzelposition; Eintrag bleibt im Katalog","accuracy":"Nur Stadt oder Lore-Teilraum belegt","source_map":"boston-content","source_panel":"Boston Lockdown Zone","description_preview":"Die Knight-Errant-Station ist ein Sicherheitsstandort in der Sperrzone.","description_full":"Die Knight-Errant-Station ist ein Sicherheitsstandort in der Sperrzone. Die Position ist auf den belegten Stadt- oder Teilraum angenähert; eine hausgenaue Lage und eine weitergehende eigene Fließtextbeschreibung sind aus dem zugeordneten Datenmaterial nicht sicher ableitbar.","description_source":"Schauplatz Knight-Errant-Station","description_kind":"Ortsprofil","description_has_more":true,"detail_plans":[],"alternate_locations":[],"sources":[{"bookId":"sr5-sperrzone-boston","title":"Sperrzone Boston","edition":"SR5","citation":"Schauplatz Knight-Errant-Station","purpose":"description"}],"map_sources":[],"editions":["SR5"],"edition_descriptions":{"SR5":{"kind":"Ortsprofil","preview":"Die Knight-Errant-Station ist ein Sicherheitsstandort in der Sperrzone.","full":"Die Knight-Errant-Station ist ein Sicherheitsstandort in der Sperrzone. Die Position ist auf den belegten Stadt- oder Teilraum angenähert; eine hausgenaue Lage und eine weitergehende eigene Fließtextbeschreibung sind aus dem zugeordneten Datenmaterial nicht sicher ableitbar.","hasMore":true,"hasExcerpt":true,"sources":[{"bookId":"sr5-sperrzone-boston","title":"Sperrzone Boston","edition":"SR5","citation":"Schauplatz Knight-Errant-Station","purpose":"description"}]}}}},{"type":"Feature","geometry":null,"properties":{"id":28,"global_id":"boston:place:28-massachusetts-general-hospital","name":"Massachusetts General Hospital","aliases":[],"category":"Medizin","detail_map":"Boston Lockdown Zone","source_pages":"Konzernprofil DocWagon","map_source":"Sperrzone Boston","placement_note":"Keine belastbare Einzelposition; Eintrag bleibt im Katalog","accuracy":"Nur Stadt oder Lore-Teilraum belegt","source_map":"boston-content","source_panel":"Boston Lockdown Zone","description_preview":"Das MassGen ist führendes Traumazentrum der NEMA und beherbergt einen großen Teil der medizinischen Forschung von DocWagon.","description_full":"Das MassGen ist führendes Traumazentrum der NEMA und beherbergt einen großen Teil der medizinischen Forschung von DocWagon. Die Position ist auf den belegten Stadt- oder Teilraum angenähert; eine hausgenaue Lage und eine weitergehende eigene Fließtextbeschreibung sind aus dem zugeordneten Datenmaterial nicht sicher ableitbar.","description_source":"Konzernprofil DocWagon","description_kind":"Ortsprofil","description_has_more":true,"detail_plans":[],"alternate_locations":[],"sources":[{"bookId":"sr5-sperrzone-boston","title":"Sperrzone Boston","edition":"SR5","citation":"Konzernprofil DocWagon","purpose":"description"}],"map_sources":[],"editions":["SR5"],"edition_descriptions":{"SR5":{"kind":"Ortsprofil","preview":"Das MassGen ist führendes Traumazentrum der NEMA und beherbergt einen großen Teil der medizinischen Forschung von DocWagon.","full":"Das MassGen ist führendes Traumazentrum der NEMA und beherbergt einen großen Teil der medizinischen Forschung von DocWagon. Die Position ist auf den belegten Stadt- oder Teilraum angenähert; eine hausgenaue Lage und eine weitergehende eigene Fließtextbeschreibung sind aus dem zugeordneten Datenmaterial nicht sicher ableitbar.","hasMore":true,"hasExcerpt":true,"sources":[{"bookId":"sr5-sperrzone-boston","title":"Sperrzone Boston","edition":"SR5","citation":"Konzernprofil DocWagon","purpose":"description"}]}}}},{"type":"Feature","geometry":{"type":"Point","coordinates":[-71.0935,42.3591]},"properties":{"id":9,"global_id":"boston:place:9-mit-t-containment-zone","name":"MIT&T Containment Zone","aliases":[],"category":"Sondergebiete","detail_map":"Cambridge","source_pages":"Kapitel MIT&T","map_source":"Sperrzone Boston","placement_note":"Erhaltener geographischer Bezugspunkt","accuracy":"Geographischer Bezugspunkt","source_map":"boston-content","source_panel":"Cambridge","description_preview":"Die abgeschirmte MIT&T-Zone ist ein Zentrum der Bostoner KFS-Katastrophe.","description_full":"Die abgeschirmte MIT&T-Zone ist ein Zentrum der Bostoner KFS-Katastrophe. Die Position folgt einem erhaltenen heutigen Bezugspunkt.","description_source":"Kapitel MIT&T","description_kind":"Ortsprofil","description_has_more":true,"detail_plans":[],"alternate_locations":[],"sources":[{"bookId":"sr5-sperrzone-boston","title":"Sperrzone Boston","edition":"SR5","citation":"Kapitel MIT&T","purpose":"description"}],"map_sources":[],"editions":["SR5"],"edition_descriptions":{"SR5":{"kind":"Ortsprofil","preview":"Die abgeschirmte MIT&T-Zone ist ein Zentrum der Bostoner KFS-Katastrophe.","full":"Die abgeschirmte MIT&T-Zone ist ein Zentrum der Bostoner KFS-Katastrophe. Die Position folgt einem erhaltenen heutigen Bezugspunkt.","hasMore":true,"hasExcerpt":true,"sources":[{"bookId":"sr5-sperrzone-boston","title":"Sperrzone Boston","edition":"SR5","citation":"Kapitel MIT&T","purpose":"description"}]}}}},{"type":"Feature","geometry":null,"properties":{"id":26,"global_id":"boston:place:26-project-abyss","name":"Project Abyss","aliases":[],"category":"Konzerne","detail_map":"The Hub","source_pages":"Project Abyss (MCT)","map_source":"Lockdown","placement_note":"Keine belastbare Einzelposition; Eintrag bleibt im Katalog","accuracy":"Nur Stadt oder Lore-Teilraum belegt","source_map":"boston-content","source_panel":"The Hub","description_preview":"Mitsuhamas Project Abyss operierte aus dem Gebäude der früheren East Coast Stock Exchange im Hub.","description_full":"Mitsuhamas Project Abyss operierte aus dem Gebäude der früheren East Coast Stock Exchange im Hub. Die Position ist auf den belegten Stadt- oder Teilraum angenähert; eine hausgenaue Lage und eine weitergehende eigene Fließtextbeschreibung sind aus dem zugeordneten Datenmaterial nicht sicher ableitbar.","description_source":"Project Abyss (MCT)","description_kind":"Ortsprofil","description_has_more":true,"detail_plans":[],"alternate_locations":[],"sources":[{"bookId":"sr5-lockdown","title":"Lockdown","edition":"SR5","citation":"Project Abyss (MCT)","purpose":"description"}],"map_sources":[],"editions":["SR5"],"edition_descriptions":{"SR5":{"kind":"Ortsprofil","preview":"Mitsuhamas Project Abyss operierte aus dem Gebäude der früheren East Coast Stock Exchange im Hub.","full":"Mitsuhamas Project Abyss operierte aus dem Gebäude der früheren East Coast Stock Exchange im Hub. Die Position ist auf den belegten Stadt- oder Teilraum angenähert; eine hausgenaue Lage und eine weitergehende eigene Fließtextbeschreibung sind aus dem zugeordneten Datenmaterial nicht sicher ableitbar.","hasMore":true,"hasExcerpt":true,"sources":[{"bookId":"sr5-lockdown","title":"Lockdown","edition":"SR5","citation":"Project Abyss (MCT)","purpose":"description"}]}}}},{"type":"Feature","geometry":null,"properties":{"id":18,"global_id":"boston:place:18-salem-lab-620-gateway","name":"Salem-Lab 620 Gateway","aliases":[],"category":"Magie und Forschung","detail_map":"Boston Lockdown Zone","source_pages":"A Report on Gateway Transportation","map_source":"Lockdown","placement_note":"Keine belastbare Einzelposition; Eintrag bleibt im Katalog","accuracy":"Nur Stadt oder Lore-Teilraum belegt","source_map":"boston-content","source_panel":"Boston Lockdown Zone","description_preview":"Das Salem-Lab 620 Gateway ist ein MIT&T-Experiment mit einem Paar speziell präparierter astraler Tore.","description_full":"Das Salem-Lab 620 Gateway ist ein MIT&T-Experiment mit einem Paar speziell präparierter astraler Tore. Die Position ist auf den belegten Stadt- oder Teilraum angenähert; eine hausgenaue Lage und eine weitergehende eigene Fließtextbeschreibung sind aus dem zugeordneten Datenmaterial nicht sicher ableitbar.","description_source":"A Report on Gateway Transportation","description_kind":"Ortsprofil","description_has_more":true,"detail_plans":[],"alternate_locations":[],"sources":[{"bookId":"sr5-lockdown","title":"Lockdown","edition":"SR5","citation":"A Report on Gateway Transportation","purpose":"description"}],"map_sources":[],"editions":["SR5"],"edition_descriptions":{"SR5":{"kind":"Ortsprofil","preview":"Das Salem-Lab 620 Gateway ist ein MIT&T-Experiment mit einem Paar speziell präparierter astraler Tore.","full":"Das Salem-Lab 620 Gateway ist ein MIT&T-Experiment mit einem Paar speziell präparierter astraler Tore. Die Position ist auf den belegten Stadt- oder Teilraum angenähert; eine hausgenaue Lage und eine weitergehende eigene Fließtextbeschreibung sind aus dem zugeordneten Datenmaterial nicht sicher ableitbar.","hasMore":true,"hasExcerpt":true,"sources":[{"bookId":"sr5-lockdown","title":"Lockdown","edition":"SR5","citation":"A Report on Gateway Transportation","purpose":"description"}]}}}},{"type":"Feature","geometry":null,"properties":{"id":27,"global_id":"boston:place:27-sensei-snacks-f-e-labore","name":"Sensei Snacks F&E-Labore","aliases":[],"category":"Konzerne","detail_map":"Boston Lockdown Zone","source_pages":"Sensei Snacks (Shiawase)","map_source":"Sperrzone Boston","placement_note":"Keine belastbare Einzelposition; Eintrag bleibt im Katalog","accuracy":"Nur Stadt oder Lore-Teilraum belegt","source_map":"boston-content","source_panel":"Boston Lockdown Zone","description_preview":"Die Bostoner Labore von Sensei Snacks entwickeln und erproben neue Nahrungsmittelprodukte, teils mit skrupellosen Testmethoden.","description_full":"Die Bostoner Labore von Sensei Snacks entwickeln und erproben neue Nahrungsmittelprodukte, teils mit skrupellosen Testmethoden. Die Position ist auf den belegten Stadt- oder Teilraum angenähert; eine hausgenaue Lage und eine weitergehende eigene Fließtextbeschreibung sind aus dem zugeordneten Datenmaterial nicht sicher ableitbar.","description_source":"Sensei Snacks (Shiawase)","description_kind":"Ortsprofil","description_has_more":true,"detail_plans":[],"alternate_locations":[],"sources":[{"bookId":"sr5-sperrzone-boston","title":"Sperrzone Boston","edition":"SR5","citation":"Sensei Snacks (Shiawase)","purpose":"description"}],"map_sources":[],"editions":["SR5"],"edition_descriptions":{"SR5":{"kind":"Ortsprofil","preview":"Die Bostoner Labore von Sensei Snacks entwickeln und erproben neue Nahrungsmittelprodukte, teils mit skrupellosen Testmethoden.","full":"Die Bostoner Labore von Sensei Snacks entwickeln und erproben neue Nahrungsmittelprodukte, teils mit skrupellosen Testmethoden. Die Position ist auf den belegten Stadt- oder Teilraum angenähert; eine hausgenaue Lage und eine weitergehende eigene Fließtextbeschreibung sind aus dem zugeordneten Datenmaterial nicht sicher ableitbar.","hasMore":true,"hasExcerpt":true,"sources":[{"bookId":"sr5-sperrzone-boston","title":"Sperrzone Boston","edition":"SR5","citation":"Sensei Snacks (Shiawase)","purpose":"description"}]}}}},{"type":"Feature","geometry":null,"properties":{"id":11,"global_id":"boston:place:11-the-alabaster-maiden","name":"The Alabaster Maiden","aliases":[],"category":"Bars und Kneipen","detail_map":"Boston Lockdown Zone","source_pages":"Schauplatz Alabaster Maiden","map_source":"Sperrzone Boston","placement_note":"Keine belastbare Einzelposition; Eintrag bleibt im Katalog","accuracy":"Nur Stadt oder Lore-Teilraum belegt","source_map":"boston-content","source_panel":"Boston Lockdown Zone","description_preview":"The Alabaster Maiden ist ein Treffpunkt im Sperrzonenmaterial.","description_full":"The Alabaster Maiden ist ein Treffpunkt im Sperrzonenmaterial. Die Position ist auf den belegten Stadt- oder Teilraum angenähert; eine hausgenaue Lage und eine weitergehende eigene Fließtextbeschreibung sind aus dem zugeordneten Datenmaterial nicht sicher ableitbar.","description_source":"Schauplatz Alabaster Maiden","description_kind":"Ortsprofil","description_has_more":true,"detail_plans":[],"alternate_locations":[],"sources":[{"bookId":"sr5-sperrzone-boston","title":"Sperrzone Boston","edition":"SR5","citation":"Schauplatz Alabaster Maiden","purpose":"description"}],"map_sources":[],"editions":["SR5"],"edition_descriptions":{"SR5":{"kind":"Ortsprofil","preview":"The Alabaster Maiden ist ein Treffpunkt im Sperrzonenmaterial.","full":"The Alabaster Maiden ist ein Treffpunkt im Sperrzonenmaterial. Die Position ist auf den belegten Stadt- oder Teilraum angenähert; eine hausgenaue Lage und eine weitergehende eigene Fließtextbeschreibung sind aus dem zugeordneten Datenmaterial nicht sicher ableitbar.","hasMore":true,"hasExcerpt":true,"sources":[{"bookId":"sr5-sperrzone-boston","title":"Sperrzone Boston","edition":"SR5","citation":"Schauplatz Alabaster Maiden","purpose":"description"}]}}}},{"type":"Feature","geometry":null,"properties":{"id":12,"global_id":"boston:place:12-the-beaded-shamrock","name":"The Beaded Shamrock","aliases":[],"category":"Bars und Kneipen","detail_map":"Boston Lockdown Zone","source_pages":"Schauplatz Beaded Shamrock","map_source":"Sperrzone Boston","placement_note":"Keine belastbare Einzelposition; Eintrag bleibt im Katalog","accuracy":"Nur Stadt oder Lore-Teilraum belegt","source_map":"boston-content","source_panel":"Boston Lockdown Zone","description_preview":"The Beaded Shamrock ist ein Bostoner Treffpunkt.","description_full":"The Beaded Shamrock ist ein Bostoner Treffpunkt. Die Position ist auf den belegten Stadt- oder Teilraum angenähert; eine hausgenaue Lage und eine weitergehende eigene Fließtextbeschreibung sind aus dem zugeordneten Datenmaterial nicht sicher ableitbar.","description_source":"Schauplatz Beaded Shamrock","description_kind":"Ortsprofil","description_has_more":true,"detail_plans":[],"alternate_locations":[],"sources":[{"bookId":"sr5-sperrzone-boston","title":"Sperrzone Boston","edition":"SR5","citation":"Schauplatz Beaded Shamrock","purpose":"description"}],"map_sources":[],"editions":["SR5"],"edition_descriptions":{"SR5":{"kind":"Ortsprofil","preview":"The Beaded Shamrock ist ein Bostoner Treffpunkt.","full":"The Beaded Shamrock ist ein Bostoner Treffpunkt. Die Position ist auf den belegten Stadt- oder Teilraum angenähert; eine hausgenaue Lage und eine weitergehende eigene Fließtextbeschreibung sind aus dem zugeordneten Datenmaterial nicht sicher ableitbar.","hasMore":true,"hasExcerpt":true,"sources":[{"bookId":"sr5-sperrzone-boston","title":"Sperrzone Boston","edition":"SR5","citation":"Schauplatz Beaded Shamrock","purpose":"description"}]}}}},{"type":"Feature","geometry":null,"properties":{"id":13,"global_id":"boston:place:13-the-braintrust","name":"The Braintrust","aliases":[],"category":"Matrix und Technik","detail_map":"Cambridge","source_pages":"Schauplatz Braintrust","map_source":"Sperrzone Boston","placement_note":"Keine belastbare Einzelposition; Eintrag bleibt im Katalog","accuracy":"Nur Stadt oder Lore-Teilraum belegt","source_map":"boston-content","source_panel":"Cambridge","description_preview":"The Braintrust ist ein in Sperrzone Boston belegter Schauplatz.","description_full":"The Braintrust ist ein in Sperrzone Boston belegter Schauplatz. Die Position ist auf den belegten Stadt- oder Teilraum angenähert; eine hausgenaue Lage und eine weitergehende eigene Fließtextbeschreibung sind aus dem zugeordneten Datenmaterial nicht sicher ableitbar.","description_source":"Schauplatz Braintrust","description_kind":"Ortsprofil","description_has_more":true,"detail_plans":[],"alternate_locations":[],"sources":[{"bookId":"sr5-sperrzone-boston","title":"Sperrzone Boston","edition":"SR5","citation":"Schauplatz Braintrust","purpose":"description"}],"map_sources":[],"editions":["SR5"],"edition_descriptions":{"SR5":{"kind":"Ortsprofil","preview":"The Braintrust ist ein in Sperrzone Boston belegter Schauplatz.","full":"The Braintrust ist ein in Sperrzone Boston belegter Schauplatz. Die Position ist auf den belegten Stadt- oder Teilraum angenähert; eine hausgenaue Lage und eine weitergehende eigene Fließtextbeschreibung sind aus dem zugeordneten Datenmaterial nicht sicher ableitbar.","hasMore":true,"hasExcerpt":true,"sources":[{"bookId":"sr5-sperrzone-boston","title":"Sperrzone Boston","edition":"SR5","citation":"Schauplatz Braintrust","purpose":"description"}]}}}},{"type":"Feature","geometry":null,"properties":{"id":14,"global_id":"boston:place:14-the-nub","name":"The Nub","aliases":[],"category":"Bars und Kneipen","detail_map":"Boston Lockdown Zone","source_pages":"Schauplatz Der Nub","map_source":"Sperrzone Boston","placement_note":"Keine belastbare Einzelposition; Eintrag bleibt im Katalog","accuracy":"Nur Stadt oder Lore-Teilraum belegt","source_map":"boston-content","source_panel":"Boston Lockdown Zone","description_preview":"The Nub ist ein lokaler Treffpunkt innerhalb der Zone.","description_full":"The Nub ist ein lokaler Treffpunkt innerhalb der Zone. Die Position ist auf den belegten Stadt- oder Teilraum angenähert; eine hausgenaue Lage und eine weitergehende eigene Fließtextbeschreibung sind aus dem zugeordneten Datenmaterial nicht sicher ableitbar.","description_source":"Schauplatz Der Nub","description_kind":"Ortsprofil","description_has_more":true,"detail_plans":[],"alternate_locations":[],"sources":[{"bookId":"sr5-sperrzone-boston","title":"Sperrzone Boston","edition":"SR5","citation":"Schauplatz Der Nub","purpose":"description"}],"map_sources":[],"editions":["SR5"],"edition_descriptions":{"SR5":{"kind":"Ortsprofil","preview":"The Nub ist ein lokaler Treffpunkt innerhalb der Zone.","full":"The Nub ist ein lokaler Treffpunkt innerhalb der Zone. Die Position ist auf den belegten Stadt- oder Teilraum angenähert; eine hausgenaue Lage und eine weitergehende eigene Fließtextbeschreibung sind aus dem zugeordneten Datenmaterial nicht sicher ableitbar.","hasMore":true,"hasExcerpt":true,"sources":[{"bookId":"sr5-sperrzone-boston","title":"Sperrzone Boston","edition":"SR5","citation":"Schauplatz Der Nub","purpose":"description"}]}}}}]}
