{"type":"FeatureCollection","name":"Boston – geprüfte zusätzliche Quellenorte","features":[{"type":"Feature","geometry":null,"properties":{"id":30,"global_id":"boston:source-place:boston-boston-harbor","name":"Boston, Boston Harbor","aliases":[],"category":"Sonstige Spots","detail_map":"Boston","source_pages":"Textzeile 18437","map_source":"Run & Gun","placement_note":"Keine belastbare Einzelposition; Eintrag bleibt im Katalog","accuracy":"Nur Stadt oder Lore-Teilraum belegt","source_map":"source-supplement","source_panel":"Boston","description_preview":"Boston, Boston Harbor ist in Run & Gun als benannter Schauplatz mit Bezug zu Boston belegt.","description_full":"Boston, Boston Harbor ist in Run & Gun als benannter Schauplatz mit Bezug zu Boston belegt. Das Dossier fasst den belegten Quellenstand redaktionell zusammen; eine nicht belegte Kartenposition wird nicht ergänzt.","description_source":"Textzeile 18437","description_kind":"Ortsdossier","description_has_more":true,"detail_plans":[],"alternate_locations":[],"sources":[{"bookId":"sr5-run-gun","title":"Run & Gun","edition":"SR5","citation":"Textzeile 18437","purpose":"description"}],"map_sources":[],"editions":["SR5"],"edition_descriptions":{"SR5":{"kind":"Ortsdossier","preview":"Boston, Boston Harbor ist in Run & Gun als benannter Schauplatz mit Bezug zu Boston belegt.","full":"Boston, Boston Harbor ist in Run & Gun als benannter Schauplatz mit Bezug zu Boston belegt. Das Dossier fasst den belegten Quellenstand redaktionell zusammen; eine nicht belegte Kartenposition wird nicht ergänzt.","hasMore":true,"hasExcerpt":true,"sources":[{"bookId":"sr5-run-gun","title":"Run & Gun","edition":"SR5","citation":"Textzeile 18437","purpose":"description"}]}}}},{"type":"Feature","geometry":null,"properties":{"id":31,"global_id":"boston:source-place:fort-independence","name":"Fort Independence","aliases":[],"category":"Sonstige Spots","detail_map":"Boston","source_pages":"Textzeile 21234","map_source":"Lockdown","placement_note":"Keine belastbare Einzelposition; Eintrag bleibt im Katalog","accuracy":"Nur Stadt oder Lore-Teilraum belegt","source_map":"source-supplement","source_panel":"Boston","description_preview":"Fort Independence ist in Lockdown als benannter Schauplatz mit Bezug zu Boston belegt.","description_full":"Fort Independence ist in Lockdown als benannter Schauplatz mit Bezug zu Boston belegt. Das Dossier fasst den belegten Quellenstand redaktionell zusammen; eine nicht belegte Kartenposition wird nicht ergänzt.","description_source":"Textzeile 21234","description_kind":"Ortsdossier","description_has_more":true,"detail_plans":[],"alternate_locations":[],"sources":[{"bookId":"sr5-lockdown","title":"Lockdown","edition":"SR5","citation":"Textzeile 21234","purpose":"description"},{"bookId":"sr5-sperrzone-boston","title":"Sperrzone Boston","edition":"SR5","citation":"Textzeile 21007","purpose":"description"}],"map_sources":[],"editions":["SR5"],"edition_descriptions":{"SR5":{"kind":"Ortsdossier","preview":"Fort Independence ist in Lockdown als benannter Schauplatz mit Bezug zu Boston belegt.","full":"Fort Independence ist in Lockdown als benannter Schauplatz mit Bezug zu Boston belegt. Das Dossier fasst den belegten Quellenstand redaktionell zusammen; eine nicht belegte Kartenposition wird nicht ergänzt.","hasMore":true,"hasExcerpt":true,"sources":[{"bookId":"sr5-lockdown","title":"Lockdown","edition":"SR5","citation":"Textzeile 21234","purpose":"description"},{"bookId":"sr5-sperrzone-boston","title":"Sperrzone Boston","edition":"SR5","citation":"Textzeile 21007","purpose":"description"}]}}}},{"type":"Feature","geometry":null,"properties":{"id":32,"global_id":"boston:source-place:knight-errant-station-revere","name":"Knight-Errant-Station Revere","aliases":[],"category":"Verkehr und Infrastruktur","detail_map":"Boston","source_pages":"Textzeile 521","map_source":"Sperrzone Boston","placement_note":"Keine belastbare Einzelposition; Eintrag bleibt im Katalog","accuracy":"Nur Stadt oder Lore-Teilraum belegt","source_map":"source-supplement","source_panel":"Boston","description_preview":"Knight-Errant-Station Revere ist in Sperrzone Boston als benannter Schauplatz mit Bezug zu Boston belegt.","description_full":"Knight-Errant-Station Revere ist in Sperrzone Boston als benannter Schauplatz mit Bezug zu Boston belegt. Das Dossier fasst den belegten Quellenstand redaktionell zusammen; eine nicht belegte Kartenposition wird nicht ergänzt.","description_source":"Textzeile 521","description_kind":"Ortsdossier","description_has_more":true,"detail_plans":[],"alternate_locations":[],"sources":[{"bookId":"sr5-sperrzone-boston","title":"Sperrzone Boston","edition":"SR5","citation":"Textzeile 521","purpose":"description"}],"map_sources":[],"editions":["SR5"],"edition_descriptions":{"SR5":{"kind":"Ortsdossier","preview":"Knight-Errant-Station Revere ist in Sperrzone Boston als benannter Schauplatz mit Bezug zu Boston belegt.","full":"Knight-Errant-Station Revere ist in Sperrzone Boston als benannter Schauplatz mit Bezug zu Boston belegt. Das Dossier fasst den belegten Quellenstand redaktionell zusammen; eine nicht belegte Kartenposition wird nicht ergänzt.","hasMore":true,"hasExcerpt":true,"sources":[{"bookId":"sr5-sperrzone-boston","title":"Sperrzone Boston","edition":"SR5","citation":"Textzeile 521","purpose":"description"}]}}}},{"type":"Feature","geometry":null,"properties":{"id":33,"global_id":"boston:source-place:the-black-bazaar","name":"The Black Bazaar","aliases":[],"category":"Sonstige Spots","detail_map":"Boston","source_pages":"Textzeile 15517","map_source":"Lockdown","placement_note":"Keine belastbare Einzelposition; Eintrag bleibt im Katalog","accuracy":"Nur Stadt oder Lore-Teilraum belegt","source_map":"source-supplement","source_panel":"Boston","description_preview":"The Black Bazaar ist in Lockdown als benannter Schauplatz mit Bezug zu Boston belegt.","description_full":"The Black Bazaar ist in Lockdown als benannter Schauplatz mit Bezug zu Boston belegt. Das Dossier fasst den belegten Quellenstand redaktionell zusammen; eine nicht belegte Kartenposition wird nicht ergänzt.","description_source":"Textzeile 15517","description_kind":"Ortsdossier","description_has_more":true,"detail_plans":[],"alternate_locations":[],"sources":[{"bookId":"sr5-lockdown","title":"Lockdown","edition":"SR5","citation":"Textzeile 15517","purpose":"description"}],"map_sources":[],"editions":["SR5"],"edition_descriptions":{"SR5":{"kind":"Ortsdossier","preview":"The Black Bazaar ist in Lockdown als benannter Schauplatz mit Bezug zu Boston belegt.","full":"The Black Bazaar ist in Lockdown als benannter Schauplatz mit Bezug zu Boston belegt. Das Dossier fasst den belegten Quellenstand redaktionell zusammen; eine nicht belegte Kartenposition wird nicht ergänzt.","hasMore":true,"hasExcerpt":true,"sources":[{"bookId":"sr5-lockdown","title":"Lockdown","edition":"SR5","citation":"Textzeile 15517","purpose":"description"}]}}}}]}
