{"type":"FeatureCollection","name":"Rhein-Ruhr-Megaplex exterritoriale Konzerngebiete","topology":{"model":"exclusive-corporate-over-normal","unresolved_overlap_area_degrees_squared":0},"features":[{"type":"Feature","geometry":{"type":"Polygon","coordinates":[[[6.9120371,51.3725463],[6.9136509,51.3716174],[6.9147799,51.3727703],[6.9151328,51.373737],[6.9163369,51.3746676],[6.9124637,51.3763435],[6.9098105,51.3779288],[6.9109875,51.3785946],[6.9109271,51.3791517],[6.912404,51.3799145],[6.9135261,51.3789899],[6.9149897,51.3796951],[6.9154554,51.3793698],[6.9178314,51.3807727],[6.9193766,51.3811652],[6.9198387,51.3816503],[6.9196872,51.3818152],[6.9221545,51.3819766],[6.9261809,51.382872],[6.9267635,51.3821026],[6.9290182,51.383381],[6.9275055,51.3853668],[6.9307231,51.3864275],[6.9333039,51.3877095],[6.9340143,51.3872591],[6.9375593,51.387506],[6.9404541,51.3880705],[6.9429324,51.3892178],[6.9436553,51.3893096],[6.9432565,51.3893212],[6.9456017,51.3927211],[6.944775940206102,51.393593105852496],[6.9255,51.393],[6.9135,51.4015],[6.9135,51.4105],[6.925,51.417],[6.944153651545929,51.41511410200163],[6.9471479,51.4181538],[6.9484105,51.4198488],[6.9514633,51.4221872],[6.9543609,51.423343],[6.9554425,51.4238971],[6.9543582,51.4233544],[6.9540686,51.4252659],[6.9543789,51.4253298],[6.9539637,51.4260326],[6.9546675,51.4293634],[6.9524036,51.4308036],[6.9511874,51.4318485],[6.9556338,51.4326285],[6.9558095,51.4330804],[6.9578233,51.4332618],[6.9578681,51.4346472],[6.9574217,51.4359532],[6.9567303,51.4369788],[6.9593644,51.4374582],[6.9590291,51.4383665],[6.9595089,51.4390222],[6.9599901,51.4387052],[6.9615013,51.4383085],[6.9722653,51.4370405],[6.975595071655927,51.436209738222836],[6.9732633,51.4368331],[6.9735385,51.4373404],[6.9730758,51.4375045],[6.974073,51.4385189],[6.974443,51.4392332],[6.9738744,51.4400968],[6.974408,51.4415893],[6.975859,51.4422793],[6.9757546,51.4423531],[6.9777035,51.4435204],[6.9783909,51.4436076],[6.9779904,51.443859],[6.9814171,51.4458137],[6.981795,51.4461899],[6.9819473,51.4466891],[6.983328,51.4468],[6.9828993,51.4485658],[6.9830109,51.4507459],[6.9878241,51.4524076],[6.9885478,51.4530025],[6.9931199,51.4518709],[6.9992587,51.4508847],[6.9991553,51.4505471],[6.9979897,51.4506116],[6.9978552,51.4500617],[6.9981034,51.450002],[6.9979754,51.4495862],[6.9999667,51.4492057],[6.9999162,51.4490359],[7.0013765,51.4487198],[7.0025469,51.4475632],[7.0021351,51.4472662],[7.000835,51.4471805],[7.0008166,51.4468359],[7.0013835,51.4468746],[7.0002836,51.4451054],[7.0010817,51.4453796],[7.002004,51.4442124],[7.0012087,51.4434864],[7.0013031,51.4431375],[7.000976,51.4427947],[7.0011819,51.442378],[7.0007607,51.4416975],[7.0004627,51.4417645],[7.0043294,51.4408696],[7.004927,51.4406548],[7.0048347,51.4405132],[7.0055302,51.4404642],[7.0056594,51.4401651],[7.011292,51.4413648],[7.0129871,51.4411609],[7.0150952,51.4413553],[7.0153784,51.4411539],[7.0162101,51.4412389],[7.0179164,51.4423302],[7.0235582,51.4395193],[7.0267581,51.4386144],[7.0272498,51.4381036],[7.029139867886446,51.43752746793789],[7.030294,51.4391421],[7.0341535,51.442797],[7.0347154,51.4423495],[7.0365417,51.4434684],[7.0370412,51.4444121],[7.0385752,51.4445352],[7.0417227,51.444222],[7.0446799,51.4434571],[7.0480548,51.441904],[7.0490824,51.44167],[7.0489327,51.4414605],[7.0511078,51.4409753],[7.0525557,51.4421205],[7.052812,51.442868],[7.0538395,51.4428387],[7.0539573,51.4422514],[7.0549016,51.4423403],[7.0551138,51.4413786],[7.0567575,51.4411017],[7.0570908,51.4413357],[7.057339,51.4411493],[7.0582589,51.4414666],[7.0594324,51.4405709],[7.0593996,51.4396401],[7.0600177,51.4389521],[7.0627581,51.440293],[7.0680531,51.4396677],[7.0670799,51.4387367],[7.0623346,51.4380361],[7.0600869,51.43609],[7.0580889,51.4326646],[7.0564331,51.4271],[7.0566402,51.4260321],[7.0576236,51.4247145],[7.0683451,51.4203509],[7.0713332,51.4188709],[7.0731412,51.4165881],[7.0750292,51.4135994],[7.0770666,51.4118679],[7.0794529,51.4103126],[7.080532,51.4093159],[7.0812447,51.4073565],[7.0822591,51.4031574],[7.0819293,51.4010555],[7.0808486,51.3994293],[7.0771286,51.3957405],[7.074563,51.3923092],[7.0739823,51.3883354],[7.0726449,51.3873555],[7.0713023,51.3869834],[7.0691102,51.3868021],[7.0669733,51.3869524],[7.0670395,51.3838015],[7.0640447,51.382421],[7.0640693,51.3810096],[7.0599107,51.375467],[7.0534984,51.3726115],[7.0523924,51.3725136],[7.0519721,51.3728274],[7.0498049,51.3716751],[7.0488407,51.3718706],[7.0465636,51.3718372],[7.0450172,51.3707492],[7.0440835,51.3691909],[7.0441011,51.3683708],[7.0438431,51.3682748],[7.0432722,51.3674929],[7.0433132,51.3670349],[7.0423903,51.3670509],[7.0421314,51.3668639],[7.0396488,51.3648532],[7.0376711,51.3625984],[7.0362912,51.362205],[7.0359733,51.3619655],[7.0359053,51.3615875],[7.0356074,51.3619085],[7.0340716,51.3625034],[7.0333347,51.3632743],[7.0326338,51.3635603],[7.0305311,51.3626404],[7.0292053,51.3623734],[7.0265727,51.3635063],[7.0237923,51.3641948],[7.0242061,51.3644532],[7.0233172,51.3652461],[7.0214265,51.3647082],[7.0211205,51.3653151],[7.0185679,51.3645292],[7.0181834,51.3648111],[7.0173271,51.3646472],[7.0159933,51.3638732],[7.0151353,51.3637797],[7.011259,51.3624194],[7.0095083,51.3611375],[7.0107201,51.3605506],[7.0070866,51.3593338],[7.0079035,51.3576859],[7.0076195,51.357464],[7.004895,51.357277],[7.004366,51.3575439],[7.003527007956974,51.35751651824736],[7.003479,51.357665],[7.003171,51.357888],[7.001202,51.357698],[7.000798331566815,51.357427463836665],[6.9997117,51.357392],[6.9990418,51.357182],[6.997161253024637,51.357516939541895],[6.997091,51.357534],[6.996285,51.358144],[6.995199,51.358374],[6.99449,51.358227],[6.992838,51.359198],[6.992028,51.359387],[6.991824,51.359168],[6.991815753559046,51.35916699961208],[6.991387,51.3593411],[6.9909141,51.3591675],[6.9899036,51.3582409],[6.9879705,51.3586468],[6.986744992437367,51.35755000720062],[6.986273,51.357223],[6.986309659376026,51.357160397065556],[6.9862567,51.357113],[6.9863792473581094,51.35698052977888],[6.983494,51.354494],[6.982121,51.353505],[6.980728,51.354178],[6.980435337211461,51.35401574653692],[6.9799757,51.3541723],[6.979845247998363,51.35431600648309],[6.979796774204725,51.35441821819275],[6.979844058500957,51.354651987797986],[6.980105,51.355231],[6.979981359789178,51.35533079388167],[6.9799991,51.3554185],[6.979942477655679,51.355362176867864],[6.979488,51.355729],[6.978339380967637,51.35580715890427],[6.977837,51.3560261],[6.977790855164045,51.35584448387849],[6.977313,51.355877],[6.97739,51.355558],[6.976827,51.354814],[6.976253739637388,51.35310578324225],[6.9756963,51.3525965],[6.975299525445232,51.352443349319216],[6.972584,51.351932],[6.97256081916156,51.35191480131341],[6.9725268,51.3519096],[6.9718949,51.3514636],[6.9695562,51.3505097],[6.969450323411273,51.350392558351814],[6.968668,51.350066],[6.969779,51.349419],[6.966512926293084,51.348338773839394],[6.964440413591474,51.34768656577527],[6.964078239291604,51.34775043307116],[6.9637921,51.348038],[6.963241845416438,51.34784077613492],[6.962573,51.348736],[6.96254384816261,51.34874713931998],[6.9625433,51.3487479],[6.962537286618286,51.348749646576756],[6.962081,51.348924],[6.962053421085449,51.34889018451904],[6.9620303,51.3488969],[6.961114591304283,51.34773905217383],[6.961002,51.347601],[6.954329981458828,51.349200592490206],[6.953251374567251,51.349464761664834],[6.952214,51.349981],[6.952205168661941,51.34997480871803],[6.9521703,51.3499926],[6.951104,51.3492588],[6.9505551,51.3497018],[6.9469816,51.3514636],[6.946875040535795,51.35143513685587],[6.946869,51.351438],[6.946778495529639,51.35140934867791],[6.9458098,51.3511506],[6.9452378,51.3514716],[6.9446729,51.3510096],[6.944680467722734,51.35099028620549],[6.944625,51.350944],[6.944747459553098,51.35075384541444],[6.944453,51.3505137],[6.944025,51.3505827],[6.944102,51.3504107],[6.943173033509502,51.3498786870114],[6.942604,51.350256],[6.941552,51.349937],[6.939507,51.351002],[6.939504284695948,51.35094280637167],[6.9392087,51.3510896],[6.938851209840995,51.35082833175615],[6.938789,51.350854],[6.938432086797216,51.350532002219225],[6.937649905910976,51.35035443990444],[6.93745,51.350311],[6.937443694444107,51.350307627989146],[6.9374167,51.3503015],[6.935574141263976,51.3493619027966],[6.934348556804875,51.34974387963688],[6.9342808,51.3497668],[6.934172262819073,51.34971726283118],[6.933732996535585,51.349533527549156],[6.9323697,51.3503747],[6.9315294,51.3504181],[6.931474311167775,51.35035184202282],[6.931315,51.350349],[6.930702576580655,51.34942363987004],[6.930566656927851,51.34926016279328],[6.929270468952275,51.348132702735214],[6.9288099,51.3496567],[6.925981,51.3484867],[6.9242263,51.3503806],[6.9285898,51.3520602],[6.928618333495226,51.352084772497136],[6.928637,51.352092],[6.928620756228887,51.352086858908756],[6.9290285,51.352438],[6.9286607,51.3527099],[6.9286869,51.3530346],[6.9270248,51.3529554],[6.9267226,51.353668],[6.9258883,51.3534693],[6.9227948,51.3541935],[6.9224823,51.3538821],[6.9219108,51.3538625],[6.9215422,51.3540642],[6.9221834,51.3549252],[6.9209098,51.3552763],[6.9223861,51.3558454],[6.9227376,51.3555373],[6.9235065,51.3563355],[6.924164,51.3566786],[6.9249531,51.3577044],[6.9228091,51.358302],[6.9189879,51.3599905],[6.9150693,51.3613736],[6.9129891,51.3617192],[6.9133035,51.3620655],[6.9073821,51.3656845],[6.9050932,51.3676016],[6.9072506,51.3682524],[6.9062795,51.3687938],[6.9089093,51.3707114],[6.9092158,51.3705921],[6.9120371,51.3725463]],[[6.9873097,51.4324049],[6.9900368,51.4320228],[6.986530209767854,51.43258778446565],[6.9873097,51.4324049]],[[6.983215369202072,51.430348119957586],[6.983342565516735,51.430458518709365],[6.9832894,51.4304383],[6.983215369202072,51.430348119957586]],[[6.9862432,51.4219155],[6.985520205214871,51.422456481931995],[6.9855512,51.4224149],[6.9862432,51.4219155]],[[6.9816385,51.4170495],[6.9787959,51.4194309],[6.9795586,51.4187378],[6.9816385,51.4170495]],[[6.9828271,51.3980157],[6.9828273952946835,51.39810163075289],[6.9817454,51.397031],[6.9828271,51.3980157]],[[6.9824692,51.3898856],[6.9823229,51.3910565],[6.98240923871468,51.38977209230684],[6.9824692,51.3898856]],[[6.982098841787213,51.38918450584979],[6.982178885759343,51.38933603039733],[6.9821297,51.3892875],[6.982098841787213,51.38918450584979]],[[6.98192013731857,51.388340412028754],[6.98196924172955,51.3887519452249],[6.9818522,51.3883613],[6.98192013731857,51.388340412028754]],[[6.982007416317347,51.387191539629846],[6.9820475,51.3872991],[6.9818522,51.3883613],[6.982007416317347,51.387191539629846]],[[7.0154299,51.3886744],[7.0157628,51.3890516],[7.0140382,51.3878307],[7.0154299,51.3886744]],[[6.9736292,51.4159365],[6.9764203,51.4178245],[6.9773067,51.4184307],[6.9736292,51.4159365]],[[6.958756428426138,51.38222769257319],[6.9584295,51.3822537],[6.9578731,51.3820422],[6.958756428426138,51.38222769257319]],[[6.969893151531798,51.43369806740481],[6.9697356,51.4332793],[6.969751350141121,51.433102696068644],[6.969893151531798,51.43369806740481]],[[6.9704156,51.4348901],[6.9705291,51.4353884],[6.970288084734976,51.43474778841152],[6.9704156,51.4348901]],[[6.982936760983961,51.433832926694734],[6.9807861,51.434822],[6.979893865998124,51.43506052445913],[6.982936760983961,51.433832926694734]],[[6.9853184,51.4328721],[6.985554342517956,51.432816743024965],[6.984884962459915,51.43304696208288],[6.9853184,51.4328721]],[[6.99072722002243,51.42257263480874],[6.99298797699382,51.422809783059115],[6.9919873,51.4227573],[6.99072722002243,51.42257263480874]],[[7.034048005587822,51.40987465128668],[7.0342333,51.4097804],[7.0350771,51.409694],[7.034048005587822,51.40987465128668]],[[7.041701,51.3702841],[7.0396737,51.3707353],[7.042110439003711,51.37004393436531],[7.041701,51.3702841]],[[7.04035769041922,51.42842678663459],[7.0400867,51.4280236],[7.040740950048408,51.42852390363512],[7.04035769041922,51.42842678663459]],[[6.943318,51.389375],[6.945613,51.392718],[6.943295478089935,51.38936431641683],[6.943318,51.389375]]]},"properties":{"status":"corporate","zone_type":"orange","label":"Exterritoriales Konzerngebiet · S-K Essen","basis":"Benannte Essener Stadtteile, Teilflächen südlich der A40 und Flughafen Essen-Mülheim","topology":"disjoint","source":"Rhein-Ruhr-Megaplex, S. 10–11 und 76–84 (SR4); Revierbericht 2082, S. 67–71 (SR6)","geometry_source":"OpenStreetMap-Stadtteilgeometrien über gitter-badger/plasmap","boundary_review_status":"source-aligned","boundary_review_label":"Mit benannten Stadtteilen, den südlich der A40 liegenden Teilflächen und dem vollständig exterritorialen Flughafen Essen-Mülheim abgeglichen"}}]}
