{"type":"FeatureCollection","name":"Rhein-Ruhr-Megaplex – geprüfte zusätzliche Quellenorte","features":[{"type":"Feature","geometry":null,"properties":{"id":501,"global_id":"rhein-ruhr-2082:source-place:club-aktiv-koln-sud","name":"Club-Aktiv Köln-Süd","aliases":[],"category":"Bars, Clubs und Gastronomie","detail_map":"Rhein-Ruhr-Megaplex","source_pages":"Textzeile 4620","map_source":"Rhein-Ruhr-Megaplex","placement_note":"Keine belastbare Einzelposition; Eintrag bleibt im Katalog","accuracy":"Nur Stadt oder Lore-Teilraum belegt","source_map":"source-supplement","source_panel":"Rhein-Ruhr-Megaplex","description_preview":"Club-Aktiv Köln-Süd ist in Rhein-Ruhr-Megaplex als benannter Schauplatz mit Bezug zu Rhein-Ruhr-Megaplex belegt.","description_full":"Club-Aktiv Köln-Süd ist in Rhein-Ruhr-Megaplex als benannter Schauplatz mit Bezug zu Rhein-Ruhr-Megaplex belegt. Das Dossier fasst den belegten Quellenstand redaktionell zusammen; eine nicht belegte Kartenposition wird nicht ergänzt.","description_source":"Textzeile 4620","description_kind":"Ortsdossier","description_has_more":true,"detail_plans":[],"alternate_locations":[],"sources":[{"bookId":"sr4-rhein-ruhr-megaplex","title":"Rhein-Ruhr-Megaplex","edition":"SR4","citation":"Textzeile 4620","purpose":"description"}],"map_sources":[],"editions":["SR4"],"edition_descriptions":{"SR4":{"kind":"Ortsdossier","preview":"Club-Aktiv Köln-Süd ist in Rhein-Ruhr-Megaplex als benannter Schauplatz mit Bezug zu Rhein-Ruhr-Megaplex belegt.","full":"Club-Aktiv Köln-Süd ist in Rhein-Ruhr-Megaplex als benannter Schauplatz mit Bezug zu Rhein-Ruhr-Megaplex belegt. Das Dossier fasst den belegten Quellenstand redaktionell zusammen; eine nicht belegte Kartenposition wird nicht ergänzt.","hasMore":true,"hasExcerpt":true,"sources":[{"bookId":"sr4-rhein-ruhr-megaplex","title":"Rhein-Ruhr-Megaplex","edition":"SR4","citation":"Textzeile 4620","purpose":"description"}]}}}},{"type":"Feature","geometry":null,"properties":{"id":502,"global_id":"rhein-ruhr-2082:source-place:das-wellness-hotel","name":"Das Wellness-Hotel","aliases":[],"category":"Sonstige Spots","detail_map":"Rhein-Ruhr-Megaplex","source_pages":"Textzeile 17754","map_source":"Rhein-Ruhr-Megaplex","placement_note":"Keine belastbare Einzelposition; Eintrag bleibt im Katalog","accuracy":"Nur Stadt oder Lore-Teilraum belegt","source_map":"source-supplement","source_panel":"Rhein-Ruhr-Megaplex","description_preview":"Das Wellness-Hotel ist in Rhein-Ruhr-Megaplex als benannter Schauplatz mit Bezug zu Rhein-Ruhr-Megaplex belegt.","description_full":"Das Wellness-Hotel ist in Rhein-Ruhr-Megaplex als benannter Schauplatz mit Bezug zu Rhein-Ruhr-Megaplex belegt. Das Dossier fasst den belegten Quellenstand redaktionell zusammen; eine nicht belegte Kartenposition wird nicht ergänzt.","description_source":"Textzeile 17754","description_kind":"Ortsdossier","description_has_more":true,"detail_plans":[],"alternate_locations":[],"sources":[{"bookId":"sr4-rhein-ruhr-megaplex","title":"Rhein-Ruhr-Megaplex","edition":"SR4","citation":"Textzeile 17754","purpose":"description"}],"map_sources":[],"editions":["SR4"],"edition_descriptions":{"SR4":{"kind":"Ortsdossier","preview":"Das Wellness-Hotel ist in Rhein-Ruhr-Megaplex als benannter Schauplatz mit Bezug zu Rhein-Ruhr-Megaplex belegt.","full":"Das Wellness-Hotel ist in Rhein-Ruhr-Megaplex als benannter Schauplatz mit Bezug zu Rhein-Ruhr-Megaplex belegt. Das Dossier fasst den belegten Quellenstand redaktionell zusammen; eine nicht belegte Kartenposition wird nicht ergänzt.","hasMore":true,"hasExcerpt":true,"sources":[{"bookId":"sr4-rhein-ruhr-megaplex","title":"Rhein-Ruhr-Megaplex","edition":"SR4","citation":"Textzeile 17754","purpose":"description"}]}}}},{"type":"Feature","geometry":null,"properties":{"id":503,"global_id":"rhein-ruhr-2082:source-place:der-industrial-every-r-club","name":"Der Industrial Every-R Club","aliases":[],"category":"Bars, Clubs und Gastronomie","detail_map":"Rhein-Ruhr-Megaplex","source_pages":"Textzeile 16621","map_source":"Rhein-Ruhr-Megaplex","placement_note":"Keine belastbare Einzelposition; Eintrag bleibt im Katalog","accuracy":"Nur Stadt oder Lore-Teilraum belegt","source_map":"source-supplement","source_panel":"Rhein-Ruhr-Megaplex","description_preview":"Der Industrial Every-R Club ist in Rhein-Ruhr-Megaplex als benannter Schauplatz mit Bezug zu Rhein-Ruhr-Megaplex belegt.","description_full":"Der Industrial Every-R Club ist in Rhein-Ruhr-Megaplex als benannter Schauplatz mit Bezug zu Rhein-Ruhr-Megaplex belegt. Das Dossier fasst den belegten Quellenstand redaktionell zusammen; eine nicht belegte Kartenposition wird nicht ergänzt.","description_source":"Textzeile 16621","description_kind":"Ortsdossier","description_has_more":true,"detail_plans":[],"alternate_locations":[],"sources":[{"bookId":"sr4-rhein-ruhr-megaplex","title":"Rhein-Ruhr-Megaplex","edition":"SR4","citation":"Textzeile 16621","purpose":"description"}],"map_sources":[],"editions":["SR4"],"edition_descriptions":{"SR4":{"kind":"Ortsdossier","preview":"Der Industrial Every-R Club ist in Rhein-Ruhr-Megaplex als benannter Schauplatz mit Bezug zu Rhein-Ruhr-Megaplex belegt.","full":"Der Industrial Every-R Club ist in Rhein-Ruhr-Megaplex als benannter Schauplatz mit Bezug zu Rhein-Ruhr-Megaplex belegt. Das Dossier fasst den belegten Quellenstand redaktionell zusammen; eine nicht belegte Kartenposition wird nicht ergänzt.","hasMore":true,"hasExcerpt":true,"sources":[{"bookId":"sr4-rhein-ruhr-megaplex","title":"Rhein-Ruhr-Megaplex","edition":"SR4","citation":"Textzeile 16621","purpose":"description"}]}}}},{"type":"Feature","geometry":null,"properties":{"id":504,"global_id":"rhein-ruhr-2082:source-place:folkwang-museum-essen","name":"Folkwang-Museum (Essen)","aliases":[],"category":"Sonstige Spots","detail_map":"Rhein-Ruhr-Megaplex","source_pages":"Textzeile 13471","map_source":"Rhein-Ruhr-Megaplex","placement_note":"Keine belastbare Einzelposition; Eintrag bleibt im Katalog","accuracy":"Nur Stadt oder Lore-Teilraum belegt","source_map":"source-supplement","source_panel":"Rhein-Ruhr-Megaplex","description_preview":"Folkwang-Museum (Essen) ist in Rhein-Ruhr-Megaplex als benannter Schauplatz mit Bezug zu Rhein-Ruhr-Megaplex belegt.","description_full":"Folkwang-Museum (Essen) ist in Rhein-Ruhr-Megaplex als benannter Schauplatz mit Bezug zu Rhein-Ruhr-Megaplex belegt. Das Dossier fasst den belegten Quellenstand redaktionell zusammen; eine nicht belegte Kartenposition wird nicht ergänzt.","description_source":"Textzeile 13471","description_kind":"Ortsdossier","description_has_more":true,"detail_plans":[],"alternate_locations":[],"sources":[{"bookId":"sr4-rhein-ruhr-megaplex","title":"Rhein-Ruhr-Megaplex","edition":"SR4","citation":"Textzeile 13471","purpose":"description"}],"map_sources":[],"editions":["SR4"],"edition_descriptions":{"SR4":{"kind":"Ortsdossier","preview":"Folkwang-Museum (Essen) ist in Rhein-Ruhr-Megaplex als benannter Schauplatz mit Bezug zu Rhein-Ruhr-Megaplex belegt.","full":"Folkwang-Museum (Essen) ist in Rhein-Ruhr-Megaplex als benannter Schauplatz mit Bezug zu Rhein-Ruhr-Megaplex belegt. Das Dossier fasst den belegten Quellenstand redaktionell zusammen; eine nicht belegte Kartenposition wird nicht ergänzt.","hasMore":true,"hasExcerpt":true,"sources":[{"bookId":"sr4-rhein-ruhr-megaplex","title":"Rhein-Ruhr-Megaplex","edition":"SR4","citation":"Textzeile 13471","purpose":"description"}]}}}},{"type":"Feature","geometry":null,"properties":{"id":505,"global_id":"rhein-ruhr-2082:source-place:ruhr-universitat-bochum","name":"Ruhr-Universität Bochum","aliases":[],"category":"Sonstige Spots","detail_map":"Rhein-Ruhr-Megaplex","source_pages":"Textzeile 13311","map_source":"Rhein-Ruhr-Megaplex","placement_note":"Keine belastbare Einzelposition; Eintrag bleibt im Katalog","accuracy":"Nur Stadt oder Lore-Teilraum belegt","source_map":"source-supplement","source_panel":"Rhein-Ruhr-Megaplex","description_preview":"Ruhr-Universität Bochum ist in Rhein-Ruhr-Megaplex als benannter Schauplatz mit Bezug zu Rhein-Ruhr-Megaplex belegt.","description_full":"Ruhr-Universität Bochum ist in Rhein-Ruhr-Megaplex als benannter Schauplatz mit Bezug zu Rhein-Ruhr-Megaplex belegt. Das Dossier fasst den belegten Quellenstand redaktionell zusammen; eine nicht belegte Kartenposition wird nicht ergänzt.","description_source":"Textzeile 13311","description_kind":"Ortsdossier","description_has_more":true,"detail_plans":[],"alternate_locations":[],"sources":[{"bookId":"sr4-rhein-ruhr-megaplex","title":"Rhein-Ruhr-Megaplex","edition":"SR4","citation":"Textzeile 13311","purpose":"description"}],"map_sources":[],"editions":["SR4"],"edition_descriptions":{"SR4":{"kind":"Ortsdossier","preview":"Ruhr-Universität Bochum ist in Rhein-Ruhr-Megaplex als benannter Schauplatz mit Bezug zu Rhein-Ruhr-Megaplex belegt.","full":"Ruhr-Universität Bochum ist in Rhein-Ruhr-Megaplex als benannter Schauplatz mit Bezug zu Rhein-Ruhr-Megaplex belegt. Das Dossier fasst den belegten Quellenstand redaktionell zusammen; eine nicht belegte Kartenposition wird nicht ergänzt.","hasMore":true,"hasExcerpt":true,"sources":[{"bookId":"sr4-rhein-ruhr-megaplex","title":"Rhein-Ruhr-Megaplex","edition":"SR4","citation":"Textzeile 13311","purpose":"description"}]}}}},{"type":"Feature","geometry":null,"properties":{"id":506,"global_id":"rhein-ruhr-2082:source-place:saeder-krupp-essen-arkologie-zentralbau-auensektion","name":"Saeder-Krupp Essen, Arkologie Zentralbau Außensektion","aliases":[],"category":"Konzerne und markante Bauwerke","detail_map":"Rhein-Ruhr-Megaplex","source_pages":"Textzeile 15830","map_source":"Rhein-Ruhr-Megaplex","placement_note":"Keine belastbare Einzelposition; Eintrag bleibt im Katalog","accuracy":"Nur Stadt oder Lore-Teilraum belegt","source_map":"source-supplement","source_panel":"Rhein-Ruhr-Megaplex","description_preview":"Saeder-Krupp Essen, Arkologie Zentralbau Außensektion ist in Rhein-Ruhr-Megaplex als benannter Schauplatz mit Bezug zu Rhein-Ruhr-Megaplex belegt.","description_full":"Saeder-Krupp Essen, Arkologie Zentralbau Außensektion ist in Rhein-Ruhr-Megaplex als benannter Schauplatz mit Bezug zu Rhein-Ruhr-Megaplex belegt. Das Dossier fasst den belegten Quellenstand redaktionell zusammen; eine nicht belegte Kartenposition wird nicht ergänzt.","description_source":"Textzeile 15830","description_kind":"Ortsdossier","description_has_more":true,"detail_plans":[],"alternate_locations":[],"sources":[{"bookId":"sr4-rhein-ruhr-megaplex","title":"Rhein-Ruhr-Megaplex","edition":"SR4","citation":"Textzeile 15830","purpose":"description"}],"map_sources":[],"editions":["SR4"],"edition_descriptions":{"SR4":{"kind":"Ortsdossier","preview":"Saeder-Krupp Essen, Arkologie Zentralbau Außensektion ist in Rhein-Ruhr-Megaplex als benannter Schauplatz mit Bezug zu Rhein-Ruhr-Megaplex belegt.","full":"Saeder-Krupp Essen, Arkologie Zentralbau Außensektion ist in Rhein-Ruhr-Megaplex als benannter Schauplatz mit Bezug zu Rhein-Ruhr-Megaplex belegt. Das Dossier fasst den belegten Quellenstand redaktionell zusammen; eine nicht belegte Kartenposition wird nicht ergänzt.","hasMore":true,"hasExcerpt":true,"sources":[{"bookId":"sr4-rhein-ruhr-megaplex","title":"Rhein-Ruhr-Megaplex","edition":"SR4","citation":"Textzeile 15830","purpose":"description"}]}}}}]}
