{"type":"FeatureCollection","name":"Lagos Orte","features":[{"type":"Feature","geometry":{"type":"Point","coordinates":[3.323,6.615]},"properties":{"id":1,"global_id":"lagos:place:1-agege","name":"Agege","aliases":[],"category":"Bezirke","detail_map":"Agege","source_pages":"Kapitel Agege","map_source":"Feral Cities","placement_note":"Geografischer Bezugspunkt des Lore-Distrikts Agege","accuracy":"Lore-Bezirkszentrum; Grenzpolygon noch nicht georeferenziert","source_map":"lagos-content","source_panel":"Agege","description_preview":"Agege ist ein dichter nördlicher Teilraum mit großen Märkten und ausgeprägter Straßenwirtschaft.","description_full":"Agege ist ein dichter nördlicher Teilraum mit großen Märkten und ausgeprägter Straßenwirtschaft. Die Position ist auf den belegten Stadt- oder Teilraum angenähert; eine hausgenaue Lage und eine weitergehende eigene Fließtextbeschreibung sind aus dem zugeordneten Datenmaterial nicht sicher ableitbar.","description_source":"Kapitel Agege","description_kind":"Ortsprofil","description_has_more":true,"detail_plans":[],"alternate_locations":[],"sources":[{"bookId":"sr4-feral-cities","title":"Feral Cities","edition":"SR4","citation":"Kapitel Agege","purpose":"description"}],"map_sources":[],"editions":["SR4"],"edition_descriptions":{"SR4":{"kind":"Ortsprofil","preview":"Agege ist ein dichter nördlicher Teilraum mit großen Märkten und ausgeprägter Straßenwirtschaft.","full":"Agege ist ein dichter nördlicher Teilraum mit großen Märkten und ausgeprägter Straßenwirtschaft. Die Position ist auf den belegten Stadt- oder Teilraum angenähert; eine hausgenaue Lage und eine weitergehende eigene Fließtextbeschreibung sind aus dem zugeordneten Datenmaterial nicht sicher ableitbar.","hasMore":true,"hasExcerpt":true,"sources":[{"bookId":"sr4-feral-cities","title":"Feral Cities","edition":"SR4","citation":"Kapitel Agege","purpose":"description"}]}}}},{"type":"Feature","geometry":{"type":"Point","coordinates":[3.36,6.448]},"properties":{"id":4,"global_id":"lagos:place:4-apapa","name":"Apapa","aliases":[],"category":"Bezirke","detail_map":"Apapa","source_pages":"Kapitel Apapa","map_source":"Feral Cities","placement_note":"Geografischer Bezugspunkt des Lore-Distrikts Apapa","accuracy":"Lore-Bezirkszentrum; Grenzpolygon noch nicht georeferenziert","source_map":"lagos-content","source_panel":"Apapa","description_preview":"Apapa ist ein wichtiger Hafen-, Industrie- und Logistikraum.","description_full":"Apapa ist ein wichtiger Hafen-, Industrie- und Logistikraum. Die Position ist auf den belegten Stadt- oder Teilraum angenähert; eine hausgenaue Lage und eine weitergehende eigene Fließtextbeschreibung sind aus dem zugeordneten Datenmaterial nicht sicher ableitbar.","description_source":"Kapitel Apapa","description_kind":"Ortsprofil","description_has_more":true,"detail_plans":[],"alternate_locations":[],"sources":[{"bookId":"sr4-feral-cities","title":"Feral Cities","edition":"SR4","citation":"Kapitel Apapa","purpose":"description"}],"map_sources":[],"editions":["SR4"],"edition_descriptions":{"SR4":{"kind":"Ortsprofil","preview":"Apapa ist ein wichtiger Hafen-, Industrie- und Logistikraum.","full":"Apapa ist ein wichtiger Hafen-, Industrie- und Logistikraum. Die Position ist auf den belegten Stadt- oder Teilraum angenähert; eine hausgenaue Lage und eine weitergehende eigene Fließtextbeschreibung sind aus dem zugeordneten Datenmaterial nicht sicher ableitbar.","hasMore":true,"hasExcerpt":true,"sources":[{"bookId":"sr4-feral-cities","title":"Feral Cities","edition":"SR4","citation":"Kapitel Apapa","purpose":"description"}]}}}},{"type":"Feature","geometry":null,"properties":{"id":10,"global_id":"lagos:place:10-apapa-medical-center","name":"Apapa Medical Center","aliases":[],"category":"Medizin","detail_map":"Apapa","source_pages":"Apapa Medical Center (Apapa)","map_source":"Feral Cities","placement_note":"Keine belastbare Einzelposition; Eintrag bleibt im Katalog","accuracy":"Nur Stadt oder Lore-Teilraum belegt","source_map":"lagos-content","source_panel":"Apapa","description_preview":"Das Apapa Medical Center ist eine wichtige medizinische Einrichtung des Hafenbezirks.","description_full":"Das Apapa Medical Center ist eine wichtige medizinische Einrichtung des Hafenbezirks. Die Position ist auf den belegten Stadt- oder Teilraum angenähert; eine hausgenaue Lage und eine weitergehende eigene Fließtextbeschreibung sind aus dem zugeordneten Datenmaterial nicht sicher ableitbar.","description_source":"Apapa Medical Center (Apapa)","description_kind":"Ortsprofil","description_has_more":true,"detail_plans":[],"alternate_locations":[],"sources":[{"bookId":"sr4-feral-cities","title":"Feral Cities","edition":"SR4","citation":"Apapa Medical Center (Apapa)","purpose":"description"}],"map_sources":[],"editions":["SR4"],"edition_descriptions":{"SR4":{"kind":"Ortsprofil","preview":"Das Apapa Medical Center ist eine wichtige medizinische Einrichtung des Hafenbezirks.","full":"Das Apapa Medical Center ist eine wichtige medizinische Einrichtung des Hafenbezirks. Die Position ist auf den belegten Stadt- oder Teilraum angenähert; eine hausgenaue Lage und eine weitergehende eigene Fließtextbeschreibung sind aus dem zugeordneten Datenmaterial nicht sicher ableitbar.","hasMore":true,"hasExcerpt":true,"sources":[{"bookId":"sr4-feral-cities","title":"Feral Cities","edition":"SR4","citation":"Apapa Medical Center (Apapa)","purpose":"description"}]}}}},{"type":"Feature","geometry":null,"properties":{"id":11,"global_id":"lagos:place:11-aztechnology-africa","name":"Aztechnology Africa","aliases":[],"category":"Konzerne","detail_map":"Lagos","source_pages":"Aztechnology Africa","map_source":"Feral Cities","placement_note":"Keine belastbare Einzelposition; Eintrag bleibt im Katalog","accuracy":"Nur Stadt oder Lore-Teilraum belegt","source_map":"lagos-content","source_panel":"Lagos","description_preview":"Aztechnology Africa unterhält einen bedeutenden Standort im Lagos-Plex.","description_full":"Aztechnology Africa unterhält einen bedeutenden Standort im Lagos-Plex. Die Position ist auf den belegten Stadt- oder Teilraum angenähert; eine hausgenaue Lage und eine weitergehende eigene Fließtextbeschreibung sind aus dem zugeordneten Datenmaterial nicht sicher ableitbar.","description_source":"Aztechnology Africa","description_kind":"Ortsprofil","description_has_more":true,"detail_plans":[],"alternate_locations":[],"sources":[{"bookId":"sr4-feral-cities","title":"Feral Cities","edition":"SR4","citation":"Aztechnology Africa","purpose":"description"}],"map_sources":[],"editions":["SR4"],"edition_descriptions":{"SR4":{"kind":"Ortsprofil","preview":"Aztechnology Africa unterhält einen bedeutenden Standort im Lagos-Plex.","full":"Aztechnology Africa unterhält einen bedeutenden Standort im Lagos-Plex. Die Position ist auf den belegten Stadt- oder Teilraum angenähert; eine hausgenaue Lage und eine weitergehende eigene Fließtextbeschreibung sind aus dem zugeordneten Datenmaterial nicht sicher ableitbar.","hasMore":true,"hasExcerpt":true,"sources":[{"bookId":"sr4-feral-cities","title":"Feral Cities","edition":"SR4","citation":"Aztechnology Africa","purpose":"description"}]}}}},{"type":"Feature","geometry":{"type":"Point","coordinates":[2.886,6.416]},"properties":{"id":5,"global_id":"lagos:place:5-badagry","name":"Badagry","aliases":[],"category":"Bezirke","detail_map":"Badagry","source_pages":"Kapitel Badagry","map_source":"Feral Cities","placement_note":"Geografischer Bezugspunkt des Lore-Distrikts Badagry","accuracy":"Lore-Bezirkszentrum; Grenzpolygon noch nicht georeferenziert","source_map":"lagos-content","source_panel":"Badagry","description_preview":"Badagry bildet einen westlichen Küsten- und Grenzraum des Lagos-Plexes.","description_full":"Badagry bildet einen westlichen Küsten- und Grenzraum des Lagos-Plexes. Die Position ist auf den belegten Stadt- oder Teilraum angenähert; eine hausgenaue Lage und eine weitergehende eigene Fließtextbeschreibung sind aus dem zugeordneten Datenmaterial nicht sicher ableitbar.","description_source":"Kapitel Badagry","description_kind":"Ortsprofil","description_has_more":true,"detail_plans":[],"alternate_locations":[],"sources":[{"bookId":"sr4-feral-cities","title":"Feral Cities","edition":"SR4","citation":"Kapitel Badagry","purpose":"description"}],"map_sources":[],"editions":["SR4"],"edition_descriptions":{"SR4":{"kind":"Ortsprofil","preview":"Badagry bildet einen westlichen Küsten- und Grenzraum des Lagos-Plexes.","full":"Badagry bildet einen westlichen Küsten- und Grenzraum des Lagos-Plexes. Die Position ist auf den belegten Stadt- oder Teilraum angenähert; eine hausgenaue Lage und eine weitergehende eigene Fließtextbeschreibung sind aus dem zugeordneten Datenmaterial nicht sicher ableitbar.","hasMore":true,"hasExcerpt":true,"sources":[{"bookId":"sr4-feral-cities","title":"Feral Cities","edition":"SR4","citation":"Kapitel Badagry","purpose":"description"}]}}}},{"type":"Feature","geometry":null,"properties":{"id":9,"global_id":"lagos:place:9-dudu-dudu-oja","name":"Dúdú Dúdú Ọjà","aliases":[],"category":"Einkaufen","detail_map":"Agege","source_pages":"Dúdú Dúdú Ọjà (Arms Market, Agege)","map_source":"Feral Cities","placement_note":"Keine belastbare Einzelposition; Eintrag bleibt im Katalog","accuracy":"Nur Stadt oder Lore-Teilraum belegt","source_map":"lagos-content","source_panel":"Agege","description_preview":"Dúdú Dúdú Ọjà ist ein bedeutender Waffenmarkt in Agege.","description_full":"Dúdú Dúdú Ọjà ist ein bedeutender Waffenmarkt in Agege. Die Position ist auf den belegten Stadt- oder Teilraum angenähert; eine hausgenaue Lage und eine weitergehende eigene Fließtextbeschreibung sind aus dem zugeordneten Datenmaterial nicht sicher ableitbar.","description_source":"Dúdú Dúdú Ọjà (Arms Market, Agege)","description_kind":"Ortsprofil","description_has_more":true,"detail_plans":[],"alternate_locations":[],"sources":[{"bookId":"sr4-feral-cities","title":"Feral Cities","edition":"SR4","citation":"Dúdú Dúdú Ọjà (Arms Market, Agege)","purpose":"description"}],"map_sources":[],"editions":["SR4"],"edition_descriptions":{"SR4":{"kind":"Ortsprofil","preview":"Dúdú Dúdú Ọjà ist ein bedeutender Waffenmarkt in Agege.","full":"Dúdú Dúdú Ọjà ist ein bedeutender Waffenmarkt in Agege. Die Position ist auf den belegten Stadt- oder Teilraum angenähert; eine hausgenaue Lage und eine weitergehende eigene Fließtextbeschreibung sind aus dem zugeordneten Datenmaterial nicht sicher ableitbar.","hasMore":true,"hasExcerpt":true,"sources":[{"bookId":"sr4-feral-cities","title":"Feral Cities","edition":"SR4","citation":"Dúdú Dúdú Ọjà (Arms Market, Agege)","purpose":"description"}]}}}},{"type":"Feature","geometry":{"type":"Point","coordinates":[3.585,6.465]},"properties":{"id":6,"global_id":"lagos:place:6-eti-osa","name":"Eti Osa","aliases":[],"category":"Bezirke","detail_map":"Eti Osa","source_pages":"Kapitel Eti Osa","map_source":"Feral Cities","placement_note":"Geografischer Bezugspunkt des Lore-Distrikts Eti Osa","accuracy":"Lore-Bezirkszentrum; Grenzpolygon noch nicht georeferenziert","source_map":"lagos-content","source_panel":"Eti Osa","description_preview":"Eti Osa umfasst östliche Küsten-, Wohn- und Entwicklungsgebiete.","description_full":"Eti Osa umfasst östliche Küsten-, Wohn- und Entwicklungsgebiete. Die Position ist auf den belegten Stadt- oder Teilraum angenähert; eine hausgenaue Lage und eine weitergehende eigene Fließtextbeschreibung sind aus dem zugeordneten Datenmaterial nicht sicher ableitbar.","description_source":"Kapitel Eti Osa","description_kind":"Ortsprofil","description_has_more":true,"detail_plans":[],"alternate_locations":[],"sources":[{"bookId":"sr4-feral-cities","title":"Feral Cities","edition":"SR4","citation":"Kapitel Eti Osa","purpose":"description"}],"map_sources":[],"editions":["SR4"],"edition_descriptions":{"SR4":{"kind":"Ortsprofil","preview":"Eti Osa umfasst östliche Küsten-, Wohn- und Entwicklungsgebiete.","full":"Eti Osa umfasst östliche Küsten-, Wohn- und Entwicklungsgebiete. Die Position ist auf den belegten Stadt- oder Teilraum angenähert; eine hausgenaue Lage und eine weitergehende eigene Fließtextbeschreibung sind aus dem zugeordneten Datenmaterial nicht sicher ableitbar.","hasMore":true,"hasExcerpt":true,"sources":[{"bookId":"sr4-feral-cities","title":"Feral Cities","edition":"SR4","citation":"Kapitel Eti Osa","purpose":"description"}]}}}},{"type":"Feature","geometry":{"type":"Point","coordinates":[3.394,6.455]},"properties":{"id":3,"global_id":"lagos:place:3-lagos-island","name":"Lagos Island","aliases":[],"category":"Bezirke","detail_map":"Lagos Island","source_pages":"Kapitel Lagos","map_source":"Feral Cities","placement_note":"Geografischer Bezugspunkt des Lore-Distrikts Lagos Island","accuracy":"Lore-Bezirkszentrum; Grenzpolygon noch nicht georeferenziert","source_map":"lagos-content","source_panel":"Lagos Island","description_preview":"Lagos Island bildet einen wichtigen Handels-, Hafen- und Verwaltungsraum.","description_full":"Lagos Island bildet einen wichtigen Handels-, Hafen- und Verwaltungsraum. Die Position ist auf den belegten Stadt- oder Teilraum angenähert; eine hausgenaue Lage und eine weitergehende eigene Fließtextbeschreibung sind aus dem zugeordneten Datenmaterial nicht sicher ableitbar.","description_source":"Kapitel Lagos","description_kind":"Ortsprofil","description_has_more":true,"detail_plans":[],"alternate_locations":[],"sources":[{"bookId":"sr4-feral-cities","title":"Feral Cities","edition":"SR4","citation":"Kapitel Lagos","purpose":"description"}],"map_sources":[],"editions":["SR4"],"edition_descriptions":{"SR4":{"kind":"Ortsprofil","preview":"Lagos Island bildet einen wichtigen Handels-, Hafen- und Verwaltungsraum.","full":"Lagos Island bildet einen wichtigen Handels-, Hafen- und Verwaltungsraum. Die Position ist auf den belegten Stadt- oder Teilraum angenähert; eine hausgenaue Lage und eine weitergehende eigene Fließtextbeschreibung sind aus dem zugeordneten Datenmaterial nicht sicher ableitbar.","hasMore":true,"hasExcerpt":true,"sources":[{"bookId":"sr4-feral-cities","title":"Feral Cities","edition":"SR4","citation":"Kapitel Lagos","purpose":"description"}]}}}},{"type":"Feature","geometry":null,"properties":{"id":12,"global_id":"lagos:place:12-porto-novo-luxury-hotel","name":"Porto Novo Luxury Hotel","aliases":[],"category":"Hotels","detail_map":"Apapa","source_pages":"The Porto Novo Luxury Hotel (Apapa)","map_source":"Feral Cities","placement_note":"Keine belastbare Einzelposition; Eintrag bleibt im Katalog","accuracy":"Nur Stadt oder Lore-Teilraum belegt","source_map":"lagos-content","source_panel":"Apapa","description_preview":"Das Porto Novo ist ein Luxushotel im Hafenraum Apapa.","description_full":"Das Porto Novo ist ein Luxushotel im Hafenraum Apapa. Die Position ist auf den belegten Stadt- oder Teilraum angenähert; eine hausgenaue Lage und eine weitergehende eigene Fließtextbeschreibung sind aus dem zugeordneten Datenmaterial nicht sicher ableitbar.","description_source":"The Porto Novo Luxury Hotel (Apapa)","description_kind":"Ortsprofil","description_has_more":true,"detail_plans":[],"alternate_locations":[],"sources":[{"bookId":"sr4-feral-cities","title":"Feral Cities","edition":"SR4","citation":"The Porto Novo Luxury Hotel (Apapa)","purpose":"description"}],"map_sources":[],"editions":["SR4"],"edition_descriptions":{"SR4":{"kind":"Ortsprofil","preview":"Das Porto Novo ist ein Luxushotel im Hafenraum Apapa.","full":"Das Porto Novo ist ein Luxushotel im Hafenraum Apapa. Die Position ist auf den belegten Stadt- oder Teilraum angenähert; eine hausgenaue Lage und eine weitergehende eigene Fließtextbeschreibung sind aus dem zugeordneten Datenmaterial nicht sicher ableitbar.","hasMore":true,"hasExcerpt":true,"sources":[{"bookId":"sr4-feral-cities","title":"Feral Cities","edition":"SR4","citation":"The Porto Novo Luxury Hotel (Apapa)","purpose":"description"}]}}}},{"type":"Feature","geometry":{"type":"Point","coordinates":[3.387,6.54]},"properties":{"id":7,"global_id":"lagos:place:7-shomolu","name":"Shomolu","aliases":[],"category":"Bezirke","detail_map":"Shomolu","source_pages":"Kapitel Shomolu","map_source":"Feral Cities","placement_note":"Geografischer Bezugspunkt des Lore-Distrikts Shomolu","accuracy":"Lore-Bezirkszentrum; Grenzpolygon noch nicht georeferenziert","source_map":"lagos-content","source_panel":"Shomolu","description_preview":"Shomolu ist ein dicht besiedelter Festlandteil des Plexes.","description_full":"Shomolu ist ein dicht besiedelter Festlandteil des Plexes. Die Position ist auf den belegten Stadt- oder Teilraum angenähert; eine hausgenaue Lage und eine weitergehende eigene Fließtextbeschreibung sind aus dem zugeordneten Datenmaterial nicht sicher ableitbar.","description_source":"Kapitel Shomolu","description_kind":"Ortsprofil","description_has_more":true,"detail_plans":[],"alternate_locations":[],"sources":[{"bookId":"sr4-feral-cities","title":"Feral Cities","edition":"SR4","citation":"Kapitel Shomolu","purpose":"description"}],"map_sources":[],"editions":["SR4"],"edition_descriptions":{"SR4":{"kind":"Ortsprofil","preview":"Shomolu ist ein dicht besiedelter Festlandteil des Plexes.","full":"Shomolu ist ein dicht besiedelter Festlandteil des Plexes. Die Position ist auf den belegten Stadt- oder Teilraum angenähert; eine hausgenaue Lage und eine weitergehende eigene Fließtextbeschreibung sind aus dem zugeordneten Datenmaterial nicht sicher ableitbar.","hasMore":true,"hasExcerpt":true,"sources":[{"bookId":"sr4-feral-cities","title":"Feral Cities","edition":"SR4","citation":"Kapitel Shomolu","purpose":"description"}]}}}},{"type":"Feature","geometry":{"type":"Point","coordinates":[3.35,6.5]},"properties":{"id":2,"global_id":"lagos:place:2-surulere","name":"Surulere","aliases":[],"category":"Bezirke","detail_map":"Surulere","source_pages":"Kapitel Surulere","map_source":"Feral Cities","placement_note":"Geografischer Bezugspunkt des Lore-Distrikts Surulere","accuracy":"Lore-Bezirkszentrum; Grenzpolygon noch nicht georeferenziert","source_map":"lagos-content","source_panel":"Surulere","description_preview":"Surulere ist ein zentraler urbaner Teilraum des Lagos-Plexes.","description_full":"Surulere ist ein zentraler urbaner Teilraum des Lagos-Plexes. Die Position ist auf den belegten Stadt- oder Teilraum angenähert; eine hausgenaue Lage und eine weitergehende eigene Fließtextbeschreibung sind aus dem zugeordneten Datenmaterial nicht sicher ableitbar.","description_source":"Kapitel Surulere","description_kind":"Ortsprofil","description_has_more":true,"detail_plans":[],"alternate_locations":[],"sources":[{"bookId":"sr4-feral-cities","title":"Feral Cities","edition":"SR4","citation":"Kapitel Surulere","purpose":"description"}],"map_sources":[],"editions":["SR4"],"edition_descriptions":{"SR4":{"kind":"Ortsprofil","preview":"Surulere ist ein zentraler urbaner Teilraum des Lagos-Plexes.","full":"Surulere ist ein zentraler urbaner Teilraum des Lagos-Plexes. Die Position ist auf den belegten Stadt- oder Teilraum angenähert; eine hausgenaue Lage und eine weitergehende eigene Fließtextbeschreibung sind aus dem zugeordneten Datenmaterial nicht sicher ableitbar.","hasMore":true,"hasExcerpt":true,"sources":[{"bookId":"sr4-feral-cities","title":"Feral Cities","edition":"SR4","citation":"Kapitel Surulere","purpose":"description"}]}}}},{"type":"Feature","geometry":null,"properties":{"id":13,"global_id":"lagos:place:13-the-three-friends","name":"The Three Friends","aliases":[],"category":"Bars und Kneipen","detail_map":"Lagos Mainland","source_pages":"The Three Friends (Lagos Mainland)","map_source":"Feral Cities","placement_note":"Keine belastbare Einzelposition; Eintrag bleibt im Katalog","accuracy":"Nur Stadt oder Lore-Teilraum belegt","source_map":"lagos-content","source_panel":"Lagos Mainland","description_preview":"The Three Friends ist ein lokaler Treffpunkt auf dem Festland.","description_full":"The Three Friends ist ein lokaler Treffpunkt auf dem Festland. Die Position ist auf den belegten Stadt- oder Teilraum angenähert; eine hausgenaue Lage und eine weitergehende eigene Fließtextbeschreibung sind aus dem zugeordneten Datenmaterial nicht sicher ableitbar.","description_source":"The Three Friends (Lagos Mainland)","description_kind":"Ortsprofil","description_has_more":true,"detail_plans":[],"alternate_locations":[],"sources":[{"bookId":"sr4-feral-cities","title":"Feral Cities","edition":"SR4","citation":"The Three Friends (Lagos Mainland)","purpose":"description"}],"map_sources":[],"editions":["SR4"],"edition_descriptions":{"SR4":{"kind":"Ortsprofil","preview":"The Three Friends ist ein lokaler Treffpunkt auf dem Festland.","full":"The Three Friends ist ein lokaler Treffpunkt auf dem Festland. Die Position ist auf den belegten Stadt- oder Teilraum angenähert; eine hausgenaue Lage und eine weitergehende eigene Fließtextbeschreibung sind aus dem zugeordneten Datenmaterial nicht sicher ableitbar.","hasMore":true,"hasExcerpt":true,"sources":[{"bookId":"sr4-feral-cities","title":"Feral Cities","edition":"SR4","citation":"The Three Friends (Lagos Mainland)","purpose":"description"}]}}}},{"type":"Feature","geometry":{"type":"Point","coordinates":[3.421,6.429]},"properties":{"id":8,"global_id":"lagos:place:8-victoria-island","name":"Victoria Island","aliases":[],"category":"Bezirke","detail_map":"Victoria Island","source_pages":"Victoria Island Tourist Guide","map_source":"Feral Cities","placement_note":"Geografischer Bezugspunkt des Lore-Distrikts Victoria Island","accuracy":"Lore-Bezirkszentrum; Grenzpolygon noch nicht georeferenziert","source_map":"lagos-content","source_panel":"Victoria Island","description_preview":"Victoria Island ist ein wohlhabender Geschäfts-, Hotel- und Touristenraum.","description_full":"Victoria Island ist ein wohlhabender Geschäfts-, Hotel- und Touristenraum. Die Position ist auf den belegten Stadt- oder Teilraum angenähert; eine hausgenaue Lage und eine weitergehende eigene Fließtextbeschreibung sind aus dem zugeordneten Datenmaterial nicht sicher ableitbar.","description_source":"Victoria Island Tourist Guide","description_kind":"Ortsprofil","description_has_more":true,"detail_plans":[],"alternate_locations":[],"sources":[{"bookId":"sr4-feral-cities","title":"Feral Cities","edition":"SR4","citation":"Victoria Island Tourist Guide","purpose":"description"}],"map_sources":[],"editions":["SR4"],"edition_descriptions":{"SR4":{"kind":"Ortsprofil","preview":"Victoria Island ist ein wohlhabender Geschäfts-, Hotel- und Touristenraum.","full":"Victoria Island ist ein wohlhabender Geschäfts-, Hotel- und Touristenraum. Die Position ist auf den belegten Stadt- oder Teilraum angenähert; eine hausgenaue Lage und eine weitergehende eigene Fließtextbeschreibung sind aus dem zugeordneten Datenmaterial nicht sicher ableitbar.","hasMore":true,"hasExcerpt":true,"sources":[{"bookId":"sr4-feral-cities","title":"Feral Cities","edition":"SR4","citation":"Victoria Island Tourist Guide","purpose":"description"}]}}}}]}
