{"type":"FeatureCollection","name":"Lagos – geprüfte zusätzliche Quellenorte","features":[{"type":"Feature","geometry":null,"properties":{"id":14,"global_id":"lagos:source-place:apapa-district","name":"Apapa District","aliases":[],"category":"Bezirke und Lore-Gebiete","detail_map":"Lagos","source_pages":"Textzeile 1690","map_source":"Dawn of the Artifacts 1 - Dusk","placement_note":"Keine belastbare Einzelposition; Eintrag bleibt im Katalog","accuracy":"Nur Stadt oder Lore-Teilraum belegt","source_map":"source-supplement","source_panel":"Lagos","description_preview":"Apapa District ist in Dawn of the Artifacts 1 - Dusk als benannter Schauplatz mit Bezug zu Lagos belegt.","description_full":"Apapa District ist in Dawn of the Artifacts 1 - Dusk als benannter Schauplatz mit Bezug zu Lagos belegt. Das Dossier fasst den belegten Quellenstand redaktionell zusammen; eine nicht belegte Kartenposition wird nicht ergänzt.","description_source":"Textzeile 1690","description_kind":"Ortsdossier","description_has_more":true,"detail_plans":[],"alternate_locations":[],"sources":[{"bookId":"sr4-dawn-of-the-artifacts-1-dusk","title":"Dawn of the Artifacts 1 - Dusk","edition":"SR4","citation":"Textzeile 1690","purpose":"description"}],"map_sources":[],"editions":["SR4"],"edition_descriptions":{"SR4":{"kind":"Ortsdossier","preview":"Apapa District ist in Dawn of the Artifacts 1 - Dusk als benannter Schauplatz mit Bezug zu Lagos belegt.","full":"Apapa District ist in Dawn of the Artifacts 1 - Dusk als benannter Schauplatz mit Bezug zu Lagos belegt. Das Dossier fasst den belegten Quellenstand redaktionell zusammen; eine nicht belegte Kartenposition wird nicht ergänzt.","hasMore":true,"hasExcerpt":true,"sources":[{"bookId":"sr4-dawn-of-the-artifacts-1-dusk","title":"Dawn of the Artifacts 1 - Dusk","edition":"SR4","citation":"Textzeile 1690","purpose":"description"}]}}}},{"type":"Feature","geometry":null,"properties":{"id":15,"global_id":"lagos:source-place:das-porto-novo-luxushotel-mittelklasse-hotel-apapa","name":"Das Porto Novo Luxushotel (Mittelklasse-Hotel, Apapa)","aliases":[],"category":"Sonstige Spots","detail_map":"Lagos","source_pages":"Textzeile 1730","map_source":"Artefaktjagd 1 - Dämmerung","placement_note":"Keine belastbare Einzelposition; Eintrag bleibt im Katalog","accuracy":"Nur Stadt oder Lore-Teilraum belegt","source_map":"source-supplement","source_panel":"Lagos","description_preview":"Das Porto Novo Luxushotel (Mittelklasse-Hotel, Apapa) ist in Artefaktjagd 1 - Dämmerung als benannter Schauplatz mit Bezug zu Lagos belegt.","description_full":"Das Porto Novo Luxushotel (Mittelklasse-Hotel, Apapa) ist in Artefaktjagd 1 - Dämmerung als benannter Schauplatz mit Bezug zu Lagos belegt. Das Dossier fasst den belegten Quellenstand redaktionell zusammen; eine nicht belegte Kartenposition wird nicht ergänzt.","description_source":"Textzeile 1730","description_kind":"Ortsdossier","description_has_more":true,"detail_plans":[],"alternate_locations":[],"sources":[{"bookId":"sr4-artefaktjagd-1-dammerung","title":"Artefaktjagd 1 - Dämmerung","edition":"SR4","citation":"Textzeile 1730","purpose":"description"}],"map_sources":[],"editions":["SR4"],"edition_descriptions":{"SR4":{"kind":"Ortsdossier","preview":"Das Porto Novo Luxushotel (Mittelklasse-Hotel, Apapa) ist in Artefaktjagd 1 - Dämmerung als benannter Schauplatz mit Bezug zu Lagos belegt.","full":"Das Porto Novo Luxushotel (Mittelklasse-Hotel, Apapa) ist in Artefaktjagd 1 - Dämmerung als benannter Schauplatz mit Bezug zu Lagos belegt. Das Dossier fasst den belegten Quellenstand redaktionell zusammen; eine nicht belegte Kartenposition wird nicht ergänzt.","hasMore":true,"hasExcerpt":true,"sources":[{"bookId":"sr4-artefaktjagd-1-dammerung","title":"Artefaktjagd 1 - Dämmerung","edition":"SR4","citation":"Textzeile 1730","purpose":"description"}]}}}},{"type":"Feature","geometry":null,"properties":{"id":16,"global_id":"lagos:source-place:der-auktionsort-global-sandstorm-gebaude-lagos-island","name":"Der Auktionsort (Global-Sandstorm-Gebäude, Lagos Island)","aliases":[],"category":"Sonstige Spots","detail_map":"Lagos","source_pages":"Textzeile 3584","map_source":"Artefaktjagd 1 - Dämmerung","placement_note":"Keine belastbare Einzelposition; Eintrag bleibt im Katalog","accuracy":"Nur Stadt oder Lore-Teilraum belegt","source_map":"source-supplement","source_panel":"Lagos","description_preview":"Der Auktionsort (Global-Sandstorm-Gebäude, Lagos Island) ist in Artefaktjagd 1 - Dämmerung als benannter Schauplatz mit Bezug zu Lagos belegt.","description_full":"Der Auktionsort (Global-Sandstorm-Gebäude, Lagos Island) ist in Artefaktjagd 1 - Dämmerung als benannter Schauplatz mit Bezug zu Lagos belegt. Das Dossier fasst den belegten Quellenstand redaktionell zusammen; eine nicht belegte Kartenposition wird nicht ergänzt.","description_source":"Textzeile 3584","description_kind":"Ortsdossier","description_has_more":true,"detail_plans":[],"alternate_locations":[],"sources":[{"bookId":"sr4-artefaktjagd-1-dammerung","title":"Artefaktjagd 1 - Dämmerung","edition":"SR4","citation":"Textzeile 3584","purpose":"description"}],"map_sources":[],"editions":["SR4"],"edition_descriptions":{"SR4":{"kind":"Ortsdossier","preview":"Der Auktionsort (Global-Sandstorm-Gebäude, Lagos Island) ist in Artefaktjagd 1 - Dämmerung als benannter Schauplatz mit Bezug zu Lagos belegt.","full":"Der Auktionsort (Global-Sandstorm-Gebäude, Lagos Island) ist in Artefaktjagd 1 - Dämmerung als benannter Schauplatz mit Bezug zu Lagos belegt. Das Dossier fasst den belegten Quellenstand redaktionell zusammen; eine nicht belegte Kartenposition wird nicht ergänzt.","hasMore":true,"hasExcerpt":true,"sources":[{"bookId":"sr4-artefaktjagd-1-dammerung","title":"Artefaktjagd 1 - Dämmerung","edition":"SR4","citation":"Textzeile 3584","purpose":"description"}]}}}},{"type":"Feature","geometry":null,"properties":{"id":17,"global_id":"lagos:source-place:die-nasty-apapa-district","name":"Die Nasty (Apapa District)","aliases":[],"category":"Bezirke und Lore-Gebiete","detail_map":"Lagos","source_pages":"Textzeile 10750","map_source":"Feral Cities","placement_note":"Keine belastbare Einzelposition; Eintrag bleibt im Katalog","accuracy":"Nur Stadt oder Lore-Teilraum belegt","source_map":"source-supplement","source_panel":"Lagos","description_preview":"Die Nasty (Apapa District) ist in Feral Cities als benannter Schauplatz mit Bezug zu Lagos belegt.","description_full":"Die Nasty (Apapa District) ist in Feral Cities als benannter Schauplatz mit Bezug zu Lagos belegt. Das Dossier fasst den belegten Quellenstand redaktionell zusammen; eine nicht belegte Kartenposition wird nicht ergänzt.","description_source":"Textzeile 10750","description_kind":"Ortsdossier","description_has_more":true,"detail_plans":[],"alternate_locations":[],"sources":[{"bookId":"sr4-feral-cities","title":"Feral Cities","edition":"SR4","citation":"Textzeile 10750","purpose":"description"}],"map_sources":[],"editions":["SR4"],"edition_descriptions":{"SR4":{"kind":"Ortsdossier","preview":"Die Nasty (Apapa District) ist in Feral Cities als benannter Schauplatz mit Bezug zu Lagos belegt.","full":"Die Nasty (Apapa District) ist in Feral Cities als benannter Schauplatz mit Bezug zu Lagos belegt. Das Dossier fasst den belegten Quellenstand redaktionell zusammen; eine nicht belegte Kartenposition wird nicht ergänzt.","hasMore":true,"hasExcerpt":true,"sources":[{"bookId":"sr4-feral-cities","title":"Feral Cities","edition":"SR4","citation":"Textzeile 10750","purpose":"description"}]}}}},{"type":"Feature","geometry":null,"properties":{"id":18,"global_id":"lagos:source-place:island-lagos","name":"Island (Lagos)","aliases":[],"category":"Sonstige Spots","detail_map":"Lagos","source_pages":"Textzeile 15940","map_source":"Runner's Companion (1st Printing)","placement_note":"Keine belastbare Einzelposition; Eintrag bleibt im Katalog","accuracy":"Nur Stadt oder Lore-Teilraum belegt","source_map":"source-supplement","source_panel":"Lagos","description_preview":"Island (Lagos) ist in Runner's Companion (1st Printing) als benannter Schauplatz mit Bezug zu Lagos belegt.","description_full":"Island (Lagos) ist in Runner's Companion (1st Printing) als benannter Schauplatz mit Bezug zu Lagos belegt. Das Dossier fasst den belegten Quellenstand redaktionell zusammen; eine nicht belegte Kartenposition wird nicht ergänzt.","description_source":"Textzeile 15940","description_kind":"Ortsdossier","description_has_more":true,"detail_plans":[],"alternate_locations":[],"sources":[{"bookId":"sr4-runner-s-companion-1st-printing","title":"Runner's Companion (1st Printing)","edition":"SR4","citation":"Textzeile 15940","purpose":"description"},{"bookId":"sr4-runner-s-companion-2nd-printing","title":"Runner's Companion (2nd Printing)","edition":"SR4","citation":"Textzeile 15888","purpose":"description"}],"map_sources":[],"editions":["SR4"],"edition_descriptions":{"SR4":{"kind":"Ortsdossier","preview":"Island (Lagos) ist in Runner's Companion (1st Printing) als benannter Schauplatz mit Bezug zu Lagos belegt.","full":"Island (Lagos) ist in Runner's Companion (1st Printing) als benannter Schauplatz mit Bezug zu Lagos belegt. Das Dossier fasst den belegten Quellenstand redaktionell zusammen; eine nicht belegte Kartenposition wird nicht ergänzt.","hasMore":true,"hasExcerpt":true,"sources":[{"bookId":"sr4-runner-s-companion-1st-printing","title":"Runner's Companion (1st Printing)","edition":"SR4","citation":"Textzeile 15940","purpose":"description"},{"bookId":"sr4-runner-s-companion-2nd-printing","title":"Runner's Companion (2nd Printing)","edition":"SR4","citation":"Textzeile 15888","purpose":"description"}]}}}},{"type":"Feature","geometry":null,"properties":{"id":19,"global_id":"lagos:source-place:lagos-football-stadium-lagos-island","name":"Lagos Football Stadium (Lagos Island)","aliases":[],"category":"Sonstige Spots","detail_map":"Lagos","source_pages":"Textzeile 11092","map_source":"Feral Cities","placement_note":"Keine belastbare Einzelposition; Eintrag bleibt im Katalog","accuracy":"Nur Stadt oder Lore-Teilraum belegt","source_map":"source-supplement","source_panel":"Lagos","description_preview":"Lagos Football Stadium (Lagos Island) ist in Feral Cities als benannter Schauplatz mit Bezug zu Lagos belegt.","description_full":"Lagos Football Stadium (Lagos Island) ist in Feral Cities als benannter Schauplatz mit Bezug zu Lagos belegt. Das Dossier fasst den belegten Quellenstand redaktionell zusammen; eine nicht belegte Kartenposition wird nicht ergänzt.","description_source":"Textzeile 11092","description_kind":"Ortsdossier","description_has_more":true,"detail_plans":[],"alternate_locations":[],"sources":[{"bookId":"sr4-feral-cities","title":"Feral Cities","edition":"SR4","citation":"Textzeile 11092","purpose":"description"}],"map_sources":[],"editions":["SR4"],"edition_descriptions":{"SR4":{"kind":"Ortsdossier","preview":"Lagos Football Stadium (Lagos Island) ist in Feral Cities als benannter Schauplatz mit Bezug zu Lagos belegt.","full":"Lagos Football Stadium (Lagos Island) ist in Feral Cities als benannter Schauplatz mit Bezug zu Lagos belegt. Das Dossier fasst den belegten Quellenstand redaktionell zusammen; eine nicht belegte Kartenposition wird nicht ergänzt.","hasMore":true,"hasExcerpt":true,"sources":[{"bookId":"sr4-feral-cities","title":"Feral Cities","edition":"SR4","citation":"Textzeile 11092","purpose":"description"}]}}}},{"type":"Feature","geometry":null,"properties":{"id":20,"global_id":"lagos:source-place:victoria-island-tourist-guide-cont","name":"Victoria Island Tourist Guide (Cont.)","aliases":[],"category":"Sonstige Spots","detail_map":"Lagos","source_pages":"Textzeile 9953","map_source":"Feral Cities","placement_note":"Keine belastbare Einzelposition; Eintrag bleibt im Katalog","accuracy":"Nur Stadt oder Lore-Teilraum belegt","source_map":"source-supplement","source_panel":"Lagos","description_preview":"Victoria Island Tourist Guide (Cont.) ist in Feral Cities als benannter Schauplatz mit Bezug zu Lagos belegt.","description_full":"Victoria Island Tourist Guide (Cont.) ist in Feral Cities als benannter Schauplatz mit Bezug zu Lagos belegt. Das Dossier fasst den belegten Quellenstand redaktionell zusammen; eine nicht belegte Kartenposition wird nicht ergänzt.","description_source":"Textzeile 9953","description_kind":"Ortsdossier","description_has_more":true,"detail_plans":[],"alternate_locations":[],"sources":[{"bookId":"sr4-feral-cities","title":"Feral Cities","edition":"SR4","citation":"Textzeile 9953","purpose":"description"}],"map_sources":[],"editions":["SR4"],"edition_descriptions":{"SR4":{"kind":"Ortsdossier","preview":"Victoria Island Tourist Guide (Cont.) ist in Feral Cities als benannter Schauplatz mit Bezug zu Lagos belegt.","full":"Victoria Island Tourist Guide (Cont.) ist in Feral Cities als benannter Schauplatz mit Bezug zu Lagos belegt. Das Dossier fasst den belegten Quellenstand redaktionell zusammen; eine nicht belegte Kartenposition wird nicht ergänzt.","hasMore":true,"hasExcerpt":true,"sources":[{"bookId":"sr4-feral-cities","title":"Feral Cities","edition":"SR4","citation":"Textzeile 9953","purpose":"description"}]}}}}]}
