{"type":"FeatureCollection","name":"San Diego-Tijuana Orte","features":[{"type":"Feature","geometry":{"type":"Point","coordinates":[-117.1611,32.7157]},"properties":{"id":1,"global_id":"san-diego:place:1-san-diego-tijuana-lore-raum","name":"San Diego-Tijuana Lore-Raum","aliases":[],"category":"Bezirke","detail_map":"San Diego-Tijuana Lore-Raum","source_pages":"Stadt- oder Regionalkapitel","map_source":"Shadows of Latin America v1.2","placement_note":"Geografischer Bezugspunkt des Lore-Distrikts San Diego-Tijuana Lore-Raum","accuracy":"Lore-Bezirkszentrum; Grenzpolygon noch nicht georeferenziert","source_map":"san-diego-content","source_panel":"San Diego-Tijuana Lore-Raum","description_preview":"Der grenzüberschreitende San-Diego-Tijuana-Sprawl verbindet Kalifornien und Aztlan mit Handel, Konzernen und organisierter Kriminalität.","description_full":"Der grenzüberschreitende San-Diego-Tijuana-Sprawl verbindet Kalifornien und Aztlan mit Handel, Konzernen und organisierter Kriminalität. Die Position ist auf den belegten Stadt- oder Teilraum angenähert; eine hausgenaue Lage und eine weitergehende eigene Fließtextbeschreibung sind aus dem zugeordneten Datenmaterial nicht sicher ableitbar.","description_source":"Stadt- oder Regionalkapitel","description_kind":"Ortsprofil","description_has_more":true,"detail_plans":[],"alternate_locations":[],"sources":[{"bookId":"sr3-shadows-of-latin-america-v1-2","title":"Shadows of Latin America v1.2","edition":"SR3","citation":"Stadt- oder Regionalkapitel","purpose":"description"}],"map_sources":[],"editions":["SR3"],"edition_descriptions":{"SR3":{"kind":"Ortsprofil","preview":"Der grenzüberschreitende San-Diego-Tijuana-Sprawl verbindet Kalifornien und Aztlan mit Handel, Konzernen und organisierter Kriminalität.","full":"Der grenzüberschreitende San-Diego-Tijuana-Sprawl verbindet Kalifornien und Aztlan mit Handel, Konzernen und organisierter Kriminalität. Die Position ist auf den belegten Stadt- oder Teilraum angenähert; eine hausgenaue Lage und eine weitergehende eigene Fließtextbeschreibung sind aus dem zugeordneten Datenmaterial nicht sicher ableitbar.","hasMore":true,"hasExcerpt":true,"sources":[{"bookId":"sr3-shadows-of-latin-america-v1-2","title":"Shadows of Latin America v1.2","edition":"SR3","citation":"Stadt- oder Regionalkapitel","purpose":"description"}]}}}}]}
