{"type":"FeatureCollection","name":"Butte Orte","features":[{"type":"Feature","geometry":null,"properties":{"id":4,"global_id":"butte:place:4-arizona-marketplace","name":"Arizona Marketplace","aliases":[],"category":"Einkaufen","detail_map":"Butte","source_pages":"Arizona Marketplace","map_source":"Shadows in Focus - City by Shadow - Butte","placement_note":"Keine belastbare Einzelposition; Eintrag bleibt im Katalog","accuracy":"Nur Stadt oder Lore-Teilraum belegt","source_map":"butte-content","source_panel":"Butte","description_preview":"Der Marketplace ist ein lokaler Handels- und Versorgungspunkt.","description_full":"Der Marketplace ist ein lokaler Handels- und Versorgungspunkt. Die Position ist auf den belegten Stadt- oder Teilraum angenähert; eine hausgenaue Lage und eine weitergehende eigene Fließtextbeschreibung sind aus dem zugeordneten Datenmaterial nicht sicher ableitbar.","description_source":"Arizona Marketplace","description_kind":"Ortsprofil","description_has_more":true,"detail_plans":[],"alternate_locations":[],"sources":[{"bookId":"sr5-shadows-in-focus-city-by-shadow-butte","title":"Shadows in Focus - City by Shadow - Butte","edition":"SR5","citation":"Arizona Marketplace","purpose":"description"}],"map_sources":[],"editions":["SR5"],"edition_descriptions":{"SR5":{"kind":"Ortsprofil","preview":"Der Marketplace ist ein lokaler Handels- und Versorgungspunkt.","full":"Der Marketplace ist ein lokaler Handels- und Versorgungspunkt. Die Position ist auf den belegten Stadt- oder Teilraum angenähert; eine hausgenaue Lage und eine weitergehende eigene Fließtextbeschreibung sind aus dem zugeordneten Datenmaterial nicht sicher ableitbar.","hasMore":true,"hasExcerpt":true,"sources":[{"bookId":"sr5-shadows-in-focus-city-by-shadow-butte","title":"Shadows in Focus - City by Shadow - Butte","edition":"SR5","citation":"Arizona Marketplace","purpose":"description"}]}}}},{"type":"Feature","geometry":null,"properties":{"id":5,"global_id":"butte:place:5-big-cheese","name":"Big Cheese","aliases":[],"category":"Restaurants","detail_map":"Butte","source_pages":"Big Cheese","map_source":"Shadows in Focus - City by Shadow - Butte","placement_note":"Keine belastbare Einzelposition; Eintrag bleibt im Katalog","accuracy":"Nur Stadt oder Lore-Teilraum belegt","source_map":"butte-content","source_panel":"Butte","description_preview":"Big Cheese ist ein benannter Gastronomie- und Treffpunkt.","description_full":"Big Cheese ist ein benannter Gastronomie- und Treffpunkt. Die Position ist auf den belegten Stadt- oder Teilraum angenähert; eine hausgenaue Lage und eine weitergehende eigene Fließtextbeschreibung sind aus dem zugeordneten Datenmaterial nicht sicher ableitbar.","description_source":"Big Cheese","description_kind":"Ortsprofil","description_has_more":true,"detail_plans":[],"alternate_locations":[],"sources":[{"bookId":"sr5-shadows-in-focus-city-by-shadow-butte","title":"Shadows in Focus - City by Shadow - Butte","edition":"SR5","citation":"Big Cheese","purpose":"description"}],"map_sources":[],"editions":["SR5"],"edition_descriptions":{"SR5":{"kind":"Ortsprofil","preview":"Big Cheese ist ein benannter Gastronomie- und Treffpunkt.","full":"Big Cheese ist ein benannter Gastronomie- und Treffpunkt. Die Position ist auf den belegten Stadt- oder Teilraum angenähert; eine hausgenaue Lage und eine weitergehende eigene Fließtextbeschreibung sind aus dem zugeordneten Datenmaterial nicht sicher ableitbar.","hasMore":true,"hasExcerpt":true,"sources":[{"bookId":"sr5-shadows-in-focus-city-by-shadow-butte","title":"Shadows in Focus - City by Shadow - Butte","edition":"SR5","citation":"Big Cheese","purpose":"description"}]}}}},{"type":"Feature","geometry":null,"properties":{"id":6,"global_id":"butte:place:6-copper-stadium","name":"Copper Stadium","aliases":[],"category":"Freizeit und Natur","detail_map":"Butte","source_pages":"Copper Stadium","map_source":"Shadows in Focus - City by Shadow - Butte","placement_note":"Keine belastbare Einzelposition; Eintrag bleibt im Katalog","accuracy":"Nur Stadt oder Lore-Teilraum belegt","source_map":"butte-content","source_panel":"Butte","description_preview":"Das Stadion ist ein Sport- und Veranstaltungszentrum.","description_full":"Das Stadion ist ein Sport- und Veranstaltungszentrum. Die Position ist auf den belegten Stadt- oder Teilraum angenähert; eine hausgenaue Lage und eine weitergehende eigene Fließtextbeschreibung sind aus dem zugeordneten Datenmaterial nicht sicher ableitbar.","description_source":"Copper Stadium","description_kind":"Ortsprofil","description_has_more":true,"detail_plans":[],"alternate_locations":[],"sources":[{"bookId":"sr5-shadows-in-focus-city-by-shadow-butte","title":"Shadows in Focus - City by Shadow - Butte","edition":"SR5","citation":"Copper Stadium","purpose":"description"}],"map_sources":[],"editions":["SR5"],"edition_descriptions":{"SR5":{"kind":"Ortsprofil","preview":"Das Stadion ist ein Sport- und Veranstaltungszentrum.","full":"Das Stadion ist ein Sport- und Veranstaltungszentrum. Die Position ist auf den belegten Stadt- oder Teilraum angenähert; eine hausgenaue Lage und eine weitergehende eigene Fließtextbeschreibung sind aus dem zugeordneten Datenmaterial nicht sicher ableitbar.","hasMore":true,"hasExcerpt":true,"sources":[{"bookId":"sr5-shadows-in-focus-city-by-shadow-butte","title":"Shadows in Focus - City by Shadow - Butte","edition":"SR5","citation":"Copper Stadium","purpose":"description"}]}}}},{"type":"Feature","geometry":{"type":"Point","coordinates":[-112.525,46.018]},"properties":{"id":1,"global_id":"butte:place:1-emerald-district","name":"Emerald District","aliases":[],"category":"Bezirke","detail_map":"Emerald District","source_pages":"Emerald District","map_source":"Shadows in Focus - City by Shadow - Butte","placement_note":"Geografischer Bezugspunkt des Lore-Distrikts Emerald District","accuracy":"Lore-Bezirkszentrum; Grenzpolygon noch nicht georeferenziert","source_map":"butte-content","source_panel":"Emerald District","description_preview":"Der Emerald District ist einer der benannten sozialen und wirtschaftlichen Stadtbereiche.","description_full":"Der Emerald District ist einer der benannten sozialen und wirtschaftlichen Stadtbereiche. Die Position ist auf den belegten Stadt- oder Teilraum angenähert; eine hausgenaue Lage und eine weitergehende eigene Fließtextbeschreibung sind aus dem zugeordneten Datenmaterial nicht sicher ableitbar.","description_source":"Emerald District","description_kind":"Ortsprofil","description_has_more":true,"detail_plans":[],"alternate_locations":[],"sources":[{"bookId":"sr5-shadows-in-focus-city-by-shadow-butte","title":"Shadows in Focus - City by Shadow - Butte","edition":"SR5","citation":"Emerald District","purpose":"description"}],"map_sources":[],"editions":["SR5"],"edition_descriptions":{"SR5":{"kind":"Ortsprofil","preview":"Der Emerald District ist einer der benannten sozialen und wirtschaftlichen Stadtbereiche.","full":"Der Emerald District ist einer der benannten sozialen und wirtschaftlichen Stadtbereiche. Die Position ist auf den belegten Stadt- oder Teilraum angenähert; eine hausgenaue Lage und eine weitergehende eigene Fließtextbeschreibung sind aus dem zugeordneten Datenmaterial nicht sicher ableitbar.","hasMore":true,"hasExcerpt":true,"sources":[{"bookId":"sr5-shadows-in-focus-city-by-shadow-butte","title":"Shadows in Focus - City by Shadow - Butte","edition":"SR5","citation":"Emerald District","purpose":"description"}]}}}},{"type":"Feature","geometry":{"type":"Point","coordinates":[-112.536,46.013]},"properties":{"id":7,"global_id":"butte:place:7-finlen-hotel","name":"Finlen Hotel","aliases":[],"category":"Hotels","detail_map":"Butte","source_pages":"Finlen Hotel","map_source":"Shadows in Focus - City by Shadow - Butte","placement_note":"Erhaltener geographischer Bezugspunkt","accuracy":"Geographischer Bezugspunkt","source_map":"butte-content","source_panel":"Butte","description_preview":"Das Finlen ist ein traditionsreicher Hotelstandort.","description_full":"Das Finlen ist ein traditionsreicher Hotelstandort. Die Position folgt einem erhaltenen heutigen Bezugspunkt.","description_source":"Finlen Hotel","description_kind":"Ortsprofil","description_has_more":true,"detail_plans":[],"alternate_locations":[],"sources":[{"bookId":"sr5-shadows-in-focus-city-by-shadow-butte","title":"Shadows in Focus - City by Shadow - Butte","edition":"SR5","citation":"Finlen Hotel","purpose":"description"}],"map_sources":[],"editions":["SR5"],"edition_descriptions":{"SR5":{"kind":"Ortsprofil","preview":"Das Finlen ist ein traditionsreicher Hotelstandort.","full":"Das Finlen ist ein traditionsreicher Hotelstandort. Die Position folgt einem erhaltenen heutigen Bezugspunkt.","hasMore":true,"hasExcerpt":true,"sources":[{"bookId":"sr5-shadows-in-focus-city-by-shadow-butte","title":"Shadows in Focus - City by Shadow - Butte","edition":"SR5","citation":"Finlen Hotel","purpose":"description"}]}}}},{"type":"Feature","geometry":{"type":"Point","coordinates":[-112.545,46.009]},"properties":{"id":2,"global_id":"butte:place:2-granite-district","name":"Granite District","aliases":[],"category":"Bezirke","detail_map":"Granite District","source_pages":"Granite District","map_source":"Shadows in Focus - City by Shadow - Butte","placement_note":"Geografischer Bezugspunkt des Lore-Distrikts Granite District","accuracy":"Lore-Bezirkszentrum; Grenzpolygon noch nicht georeferenziert","source_map":"butte-content","source_panel":"Granite District","description_preview":"Der Granite District bewahrt den rauen Bergbau- und Arbeitercharakter Buttes.","description_full":"Der Granite District bewahrt den rauen Bergbau- und Arbeitercharakter Buttes. Die Position ist auf den belegten Stadt- oder Teilraum angenähert; eine hausgenaue Lage und eine weitergehende eigene Fließtextbeschreibung sind aus dem zugeordneten Datenmaterial nicht sicher ableitbar.","description_source":"Granite District","description_kind":"Ortsprofil","description_has_more":true,"detail_plans":[],"alternate_locations":[],"sources":[{"bookId":"sr5-shadows-in-focus-city-by-shadow-butte","title":"Shadows in Focus - City by Shadow - Butte","edition":"SR5","citation":"Granite District","purpose":"description"}],"map_sources":[],"editions":["SR5"],"edition_descriptions":{"SR5":{"kind":"Ortsprofil","preview":"Der Granite District bewahrt den rauen Bergbau- und Arbeitercharakter Buttes.","full":"Der Granite District bewahrt den rauen Bergbau- und Arbeitercharakter Buttes. Die Position ist auf den belegten Stadt- oder Teilraum angenähert; eine hausgenaue Lage und eine weitergehende eigene Fließtextbeschreibung sind aus dem zugeordneten Datenmaterial nicht sicher ableitbar.","hasMore":true,"hasExcerpt":true,"sources":[{"bookId":"sr5-shadows-in-focus-city-by-shadow-butte","title":"Shadows in Focus - City by Shadow - Butte","edition":"SR5","citation":"Granite District","purpose":"description"}]}}}},{"type":"Feature","geometry":{"type":"Point","coordinates":[-112.558,46.012]},"properties":{"id":8,"global_id":"butte:place:8-montana-tech","name":"Montana Tech","aliases":[],"category":"Bildung und Kultur","detail_map":"Butte","source_pages":"Montana Tech","map_source":"Shadows in Focus - City by Shadow - Butte","placement_note":"Erhaltener geographischer Bezugspunkt","accuracy":"Geographischer Bezugspunkt","source_map":"butte-content","source_panel":"Butte","description_preview":"Montana Tech ist Buttes wichtiger Bildungs- und Forschungsstandort.","description_full":"Montana Tech ist Buttes wichtiger Bildungs- und Forschungsstandort. Die Position folgt einem erhaltenen heutigen Bezugspunkt.","description_source":"Montana Tech","description_kind":"Ortsprofil","description_has_more":true,"detail_plans":[],"alternate_locations":[],"sources":[{"bookId":"sr5-shadows-in-focus-city-by-shadow-butte","title":"Shadows in Focus - City by Shadow - Butte","edition":"SR5","citation":"Montana Tech","purpose":"description"}],"map_sources":[],"editions":["SR5"],"edition_descriptions":{"SR5":{"kind":"Ortsprofil","preview":"Montana Tech ist Buttes wichtiger Bildungs- und Forschungsstandort.","full":"Montana Tech ist Buttes wichtiger Bildungs- und Forschungsstandort. Die Position folgt einem erhaltenen heutigen Bezugspunkt.","hasMore":true,"hasExcerpt":true,"sources":[{"bookId":"sr5-shadows-in-focus-city-by-shadow-butte","title":"Shadows in Focus - City by Shadow - Butte","edition":"SR5","citation":"Montana Tech","purpose":"description"}]}}}},{"type":"Feature","geometry":null,"properties":{"id":9,"global_id":"butte:place:9-moon-rise-tavern","name":"Moon Rise Tavern","aliases":[],"category":"Bars und Kneipen","detail_map":"Butte","source_pages":"Moon Rise Tavern","map_source":"Shadows in Focus - City by Shadow - Butte","placement_note":"Keine belastbare Einzelposition; Eintrag bleibt im Katalog","accuracy":"Nur Stadt oder Lore-Teilraum belegt","source_map":"butte-content","source_panel":"Butte","description_preview":"Die Moon Rise Tavern ist ein lokaler Schatten- und Szenetreff.","description_full":"Die Moon Rise Tavern ist ein lokaler Schatten- und Szenetreff. Die Position ist auf den belegten Stadt- oder Teilraum angenähert; eine hausgenaue Lage und eine weitergehende eigene Fließtextbeschreibung sind aus dem zugeordneten Datenmaterial nicht sicher ableitbar.","description_source":"Moon Rise Tavern","description_kind":"Ortsprofil","description_has_more":true,"detail_plans":[],"alternate_locations":[],"sources":[{"bookId":"sr5-shadows-in-focus-city-by-shadow-butte","title":"Shadows in Focus - City by Shadow - Butte","edition":"SR5","citation":"Moon Rise Tavern","purpose":"description"}],"map_sources":[],"editions":["SR5"],"edition_descriptions":{"SR5":{"kind":"Ortsprofil","preview":"Die Moon Rise Tavern ist ein lokaler Schatten- und Szenetreff.","full":"Die Moon Rise Tavern ist ein lokaler Schatten- und Szenetreff. Die Position ist auf den belegten Stadt- oder Teilraum angenähert; eine hausgenaue Lage und eine weitergehende eigene Fließtextbeschreibung sind aus dem zugeordneten Datenmaterial nicht sicher ableitbar.","hasMore":true,"hasExcerpt":true,"sources":[{"bookId":"sr5-shadows-in-focus-city-by-shadow-butte","title":"Shadows in Focus - City by Shadow - Butte","edition":"SR5","citation":"Moon Rise Tavern","purpose":"description"}]}}}},{"type":"Feature","geometry":null,"properties":{"id":10,"global_id":"butte:place:10-phantasmagoria","name":"Phantasmagoria","aliases":[],"category":"Bars und Clubs","detail_map":"Butte","source_pages":"Phantasmagoria","map_source":"Shadows in Focus - City by Shadow - Butte","placement_note":"Keine belastbare Einzelposition; Eintrag bleibt im Katalog","accuracy":"Nur Stadt oder Lore-Teilraum belegt","source_map":"butte-content","source_panel":"Butte","description_preview":"Phantasmagoria ist ein benannter Vergnügungsort.","description_full":"Phantasmagoria ist ein benannter Vergnügungsort. Die Position ist auf den belegten Stadt- oder Teilraum angenähert; eine hausgenaue Lage und eine weitergehende eigene Fließtextbeschreibung sind aus dem zugeordneten Datenmaterial nicht sicher ableitbar.","description_source":"Phantasmagoria","description_kind":"Ortsprofil","description_has_more":true,"detail_plans":[],"alternate_locations":[],"sources":[{"bookId":"sr5-shadows-in-focus-city-by-shadow-butte","title":"Shadows in Focus - City by Shadow - Butte","edition":"SR5","citation":"Phantasmagoria","purpose":"description"}],"map_sources":[],"editions":["SR5"],"edition_descriptions":{"SR5":{"kind":"Ortsprofil","preview":"Phantasmagoria ist ein benannter Vergnügungsort.","full":"Phantasmagoria ist ein benannter Vergnügungsort. Die Position ist auf den belegten Stadt- oder Teilraum angenähert; eine hausgenaue Lage und eine weitergehende eigene Fließtextbeschreibung sind aus dem zugeordneten Datenmaterial nicht sicher ableitbar.","hasMore":true,"hasExcerpt":true,"sources":[{"bookId":"sr5-shadows-in-focus-city-by-shadow-butte","title":"Shadows in Focus - City by Shadow - Butte","edition":"SR5","citation":"Phantasmagoria","purpose":"description"}]}}}},{"type":"Feature","geometry":{"type":"Point","coordinates":[-112.522,45.995]},"properties":{"id":3,"global_id":"butte:place:3-platinum-district","name":"Platinum District","aliases":[],"category":"Bezirke","detail_map":"Platinum District","source_pages":"Platinum District","map_source":"Shadows in Focus - City by Shadow - Butte","placement_note":"Geografischer Bezugspunkt des Lore-Distrikts Platinum District","accuracy":"Lore-Bezirkszentrum; Grenzpolygon noch nicht georeferenziert","source_map":"butte-content","source_panel":"Platinum District","description_preview":"Der Platinum District ist der wohlhabendere und stärker kontrollierte Teilraum.","description_full":"Der Platinum District ist der wohlhabendere und stärker kontrollierte Teilraum. Die Position ist auf den belegten Stadt- oder Teilraum angenähert; eine hausgenaue Lage und eine weitergehende eigene Fließtextbeschreibung sind aus dem zugeordneten Datenmaterial nicht sicher ableitbar.","description_source":"Platinum District","description_kind":"Ortsprofil","description_has_more":true,"detail_plans":[],"alternate_locations":[],"sources":[{"bookId":"sr5-shadows-in-focus-city-by-shadow-butte","title":"Shadows in Focus - City by Shadow - Butte","edition":"SR5","citation":"Platinum District","purpose":"description"}],"map_sources":[],"editions":["SR5"],"edition_descriptions":{"SR5":{"kind":"Ortsprofil","preview":"Der Platinum District ist der wohlhabendere und stärker kontrollierte Teilraum.","full":"Der Platinum District ist der wohlhabendere und stärker kontrollierte Teilraum. Die Position ist auf den belegten Stadt- oder Teilraum angenähert; eine hausgenaue Lage und eine weitergehende eigene Fließtextbeschreibung sind aus dem zugeordneten Datenmaterial nicht sicher ableitbar.","hasMore":true,"hasExcerpt":true,"sources":[{"bookId":"sr5-shadows-in-focus-city-by-shadow-butte","title":"Shadows in Focus - City by Shadow - Butte","edition":"SR5","citation":"Platinum District","purpose":"description"}]}}}},{"type":"Feature","geometry":null,"properties":{"id":11,"global_id":"butte:place:11-proving-grounds","name":"Proving Grounds","aliases":[],"category":"Sicherheit und Justiz","detail_map":"Butte","source_pages":"Proving Grounds","map_source":"Shadows in Focus - City by Shadow - Butte","placement_note":"Keine belastbare Einzelposition; Eintrag bleibt im Katalog","accuracy":"Nur Stadt oder Lore-Teilraum belegt","source_map":"butte-content","source_panel":"Butte","description_preview":"Die Proving Grounds dienen Tests, Training und Wettbewerb.","description_full":"Die Proving Grounds dienen Tests, Training und Wettbewerb. Die Position ist auf den belegten Stadt- oder Teilraum angenähert; eine hausgenaue Lage und eine weitergehende eigene Fließtextbeschreibung sind aus dem zugeordneten Datenmaterial nicht sicher ableitbar.","description_source":"Proving Grounds","description_kind":"Ortsprofil","description_has_more":true,"detail_plans":[],"alternate_locations":[],"sources":[{"bookId":"sr5-shadows-in-focus-city-by-shadow-butte","title":"Shadows in Focus - City by Shadow - Butte","edition":"SR5","citation":"Proving Grounds","purpose":"description"}],"map_sources":[],"editions":["SR5"],"edition_descriptions":{"SR5":{"kind":"Ortsprofil","preview":"Die Proving Grounds dienen Tests, Training und Wettbewerb.","full":"Die Proving Grounds dienen Tests, Training und Wettbewerb. Die Position ist auf den belegten Stadt- oder Teilraum angenähert; eine hausgenaue Lage und eine weitergehende eigene Fließtextbeschreibung sind aus dem zugeordneten Datenmaterial nicht sicher ableitbar.","hasMore":true,"hasExcerpt":true,"sources":[{"bookId":"sr5-shadows-in-focus-city-by-shadow-butte","title":"Shadows in Focus - City by Shadow - Butte","edition":"SR5","citation":"Proving Grounds","purpose":"description"}]}}}},{"type":"Feature","geometry":null,"properties":{"id":12,"global_id":"butte:place:12-shiawase-medical","name":"Shiawase Medical","aliases":[],"category":"Medizin","detail_map":"Butte","source_pages":"Shiawase Medical","map_source":"Shadows in Focus - City by Shadow - Butte","placement_note":"Keine belastbare Einzelposition; Eintrag bleibt im Katalog","accuracy":"Nur Stadt oder Lore-Teilraum belegt","source_map":"butte-content","source_panel":"Butte","description_preview":"Shiawase betreibt einen medizinischen Konzernstandort in Butte.","description_full":"Shiawase betreibt einen medizinischen Konzernstandort in Butte. Die Position ist auf den belegten Stadt- oder Teilraum angenähert; eine hausgenaue Lage und eine weitergehende eigene Fließtextbeschreibung sind aus dem zugeordneten Datenmaterial nicht sicher ableitbar.","description_source":"Shiawase Medical","description_kind":"Ortsprofil","description_has_more":true,"detail_plans":[],"alternate_locations":[],"sources":[{"bookId":"sr5-shadows-in-focus-city-by-shadow-butte","title":"Shadows in Focus - City by Shadow - Butte","edition":"SR5","citation":"Shiawase Medical","purpose":"description"}],"map_sources":[],"editions":["SR5"],"edition_descriptions":{"SR5":{"kind":"Ortsprofil","preview":"Shiawase betreibt einen medizinischen Konzernstandort in Butte.","full":"Shiawase betreibt einen medizinischen Konzernstandort in Butte. Die Position ist auf den belegten Stadt- oder Teilraum angenähert; eine hausgenaue Lage und eine weitergehende eigene Fließtextbeschreibung sind aus dem zugeordneten Datenmaterial nicht sicher ableitbar.","hasMore":true,"hasExcerpt":true,"sources":[{"bookId":"sr5-shadows-in-focus-city-by-shadow-butte","title":"Shadows in Focus - City by Shadow - Butte","edition":"SR5","citation":"Shiawase Medical","purpose":"description"}]}}}},{"type":"Feature","geometry":{"type":"Point","coordinates":[-112.497,45.955]},"properties":{"id":13,"global_id":"butte:place:13-summit-valley-airport","name":"Summit Valley Airport","aliases":[],"category":"Verkehr","detail_map":"Butte","source_pages":"Summit Valley Airport","map_source":"Shadows in Focus - City by Shadow - Butte","placement_note":"Erhaltener geographischer Bezugspunkt","accuracy":"Geographischer Bezugspunkt","source_map":"butte-content","source_panel":"Butte","description_preview":"Der Flughafen bindet die Bergbaustadt an regionale und überregionale Verkehrswege an.","description_full":"Der Flughafen bindet die Bergbaustadt an regionale und überregionale Verkehrswege an. Die Position folgt einem erhaltenen heutigen Bezugspunkt.","description_source":"Summit Valley Airport","description_kind":"Ortsprofil","description_has_more":true,"detail_plans":[],"alternate_locations":[],"sources":[{"bookId":"sr5-shadows-in-focus-city-by-shadow-butte","title":"Shadows in Focus - City by Shadow - Butte","edition":"SR5","citation":"Summit Valley Airport","purpose":"description"}],"map_sources":[],"editions":["SR5"],"edition_descriptions":{"SR5":{"kind":"Ortsprofil","preview":"Der Flughafen bindet die Bergbaustadt an regionale und überregionale Verkehrswege an.","full":"Der Flughafen bindet die Bergbaustadt an regionale und überregionale Verkehrswege an. Die Position folgt einem erhaltenen heutigen Bezugspunkt.","hasMore":true,"hasExcerpt":true,"sources":[{"bookId":"sr5-shadows-in-focus-city-by-shadow-butte","title":"Shadows in Focus - City by Shadow - Butte","edition":"SR5","citation":"Summit Valley Airport","purpose":"description"}]}}}},{"type":"Feature","geometry":null,"properties":{"id":14,"global_id":"butte:place:14-the-cabbage-patch","name":"The Cabbage Patch","aliases":[],"category":"Sonstige Spots","detail_map":"Butte","source_pages":"The Cabbage Patch","map_source":"Shadows in Focus - City by Shadow - Butte","placement_note":"Keine belastbare Einzelposition; Eintrag bleibt im Katalog","accuracy":"Nur Stadt oder Lore-Teilraum belegt","source_map":"butte-content","source_panel":"Butte","description_preview":"The Cabbage Patch ist ein lokaler Schauplatz.","description_full":"The Cabbage Patch ist ein lokaler Schauplatz. Die Position ist auf den belegten Stadt- oder Teilraum angenähert; eine hausgenaue Lage und eine weitergehende eigene Fließtextbeschreibung sind aus dem zugeordneten Datenmaterial nicht sicher ableitbar.","description_source":"The Cabbage Patch","description_kind":"Ortsprofil","description_has_more":true,"detail_plans":[],"alternate_locations":[],"sources":[{"bookId":"sr5-shadows-in-focus-city-by-shadow-butte","title":"Shadows in Focus - City by Shadow - Butte","edition":"SR5","citation":"The Cabbage Patch","purpose":"description"}],"map_sources":[],"editions":["SR5"],"edition_descriptions":{"SR5":{"kind":"Ortsprofil","preview":"The Cabbage Patch ist ein lokaler Schauplatz.","full":"The Cabbage Patch ist ein lokaler Schauplatz. Die Position ist auf den belegten Stadt- oder Teilraum angenähert; eine hausgenaue Lage und eine weitergehende eigene Fließtextbeschreibung sind aus dem zugeordneten Datenmaterial nicht sicher ableitbar.","hasMore":true,"hasExcerpt":true,"sources":[{"bookId":"sr5-shadows-in-focus-city-by-shadow-butte","title":"Shadows in Focus - City by Shadow - Butte","edition":"SR5","citation":"The Cabbage Patch","purpose":"description"}]}}}},{"type":"Feature","geometry":null,"properties":{"id":15,"global_id":"butte:place:15-the-mai-wah","name":"The Mai Wah","aliases":[],"category":"Bildung und Kultur","detail_map":"Butte","source_pages":"The Mai Wah","map_source":"Shadows in Focus - City by Shadow - Butte","placement_note":"Keine belastbare Einzelposition; Eintrag bleibt im Katalog","accuracy":"Nur Stadt oder Lore-Teilraum belegt","source_map":"butte-content","source_panel":"Butte","description_preview":"Das Mai Wah ist ein historischer und kultureller Standort.","description_full":"Das Mai Wah ist ein historischer und kultureller Standort. Die Position ist auf den belegten Stadt- oder Teilraum angenähert; eine hausgenaue Lage und eine weitergehende eigene Fließtextbeschreibung sind aus dem zugeordneten Datenmaterial nicht sicher ableitbar.","description_source":"The Mai Wah","description_kind":"Ortsprofil","description_has_more":true,"detail_plans":[],"alternate_locations":[],"sources":[{"bookId":"sr5-shadows-in-focus-city-by-shadow-butte","title":"Shadows in Focus - City by Shadow - Butte","edition":"SR5","citation":"The Mai Wah","purpose":"description"}],"map_sources":[],"editions":["SR5"],"edition_descriptions":{"SR5":{"kind":"Ortsprofil","preview":"Das Mai Wah ist ein historischer und kultureller Standort.","full":"Das Mai Wah ist ein historischer und kultureller Standort. Die Position ist auf den belegten Stadt- oder Teilraum angenähert; eine hausgenaue Lage und eine weitergehende eigene Fließtextbeschreibung sind aus dem zugeordneten Datenmaterial nicht sicher ableitbar.","hasMore":true,"hasExcerpt":true,"sources":[{"bookId":"sr5-shadows-in-focus-city-by-shadow-butte","title":"Shadows in Focus - City by Shadow - Butte","edition":"SR5","citation":"The Mai Wah","purpose":"description"}]}}}},{"type":"Feature","geometry":null,"properties":{"id":16,"global_id":"butte:place:16-the-mineral-museum","name":"The Mineral Museum","aliases":[],"category":"Bildung und Kultur","detail_map":"Butte","source_pages":"The Mineral Museum","map_source":"Shadows in Focus - City by Shadow - Butte","placement_note":"Keine belastbare Einzelposition; Eintrag bleibt im Katalog","accuracy":"Nur Stadt oder Lore-Teilraum belegt","source_map":"butte-content","source_panel":"Butte","description_preview":"Das Mineral Museum dokumentiert Bergbau, Geologie und Stadtgeschichte.","description_full":"Das Mineral Museum dokumentiert Bergbau, Geologie und Stadtgeschichte. Die Position ist auf den belegten Stadt- oder Teilraum angenähert; eine hausgenaue Lage und eine weitergehende eigene Fließtextbeschreibung sind aus dem zugeordneten Datenmaterial nicht sicher ableitbar.","description_source":"The Mineral Museum","description_kind":"Ortsprofil","description_has_more":true,"detail_plans":[],"alternate_locations":[],"sources":[{"bookId":"sr5-shadows-in-focus-city-by-shadow-butte","title":"Shadows in Focus - City by Shadow - Butte","edition":"SR5","citation":"The Mineral Museum","purpose":"description"}],"map_sources":[],"editions":["SR5"],"edition_descriptions":{"SR5":{"kind":"Ortsprofil","preview":"Das Mineral Museum dokumentiert Bergbau, Geologie und Stadtgeschichte.","full":"Das Mineral Museum dokumentiert Bergbau, Geologie und Stadtgeschichte. Die Position ist auf den belegten Stadt- oder Teilraum angenähert; eine hausgenaue Lage und eine weitergehende eigene Fließtextbeschreibung sind aus dem zugeordneten Datenmaterial nicht sicher ableitbar.","hasMore":true,"hasExcerpt":true,"sources":[{"bookId":"sr5-shadows-in-focus-city-by-shadow-butte","title":"Shadows in Focus - City by Shadow - Butte","edition":"SR5","citation":"The Mineral Museum","purpose":"description"}]}}}},{"type":"Feature","geometry":null,"properties":{"id":17,"global_id":"butte:place:17-the-rabbit-hole","name":"The Rabbit Hole","aliases":[],"category":"Bars und Clubs","detail_map":"Butte","source_pages":"The Rabbit Hole","map_source":"Shadows in Focus - City by Shadow - Butte","placement_note":"Keine belastbare Einzelposition; Eintrag bleibt im Katalog","accuracy":"Nur Stadt oder Lore-Teilraum belegt","source_map":"butte-content","source_panel":"Butte","description_preview":"The Rabbit Hole ist ein lokaler Szenetreff.","description_full":"The Rabbit Hole ist ein lokaler Szenetreff. Die Position ist auf den belegten Stadt- oder Teilraum angenähert; eine hausgenaue Lage und eine weitergehende eigene Fließtextbeschreibung sind aus dem zugeordneten Datenmaterial nicht sicher ableitbar.","description_source":"The Rabbit Hole","description_kind":"Ortsprofil","description_has_more":true,"detail_plans":[],"alternate_locations":[],"sources":[{"bookId":"sr5-shadows-in-focus-city-by-shadow-butte","title":"Shadows in Focus - City by Shadow - Butte","edition":"SR5","citation":"The Rabbit Hole","purpose":"description"}],"map_sources":[],"editions":["SR5"],"edition_descriptions":{"SR5":{"kind":"Ortsprofil","preview":"The Rabbit Hole ist ein lokaler Szenetreff.","full":"The Rabbit Hole ist ein lokaler Szenetreff. Die Position ist auf den belegten Stadt- oder Teilraum angenähert; eine hausgenaue Lage und eine weitergehende eigene Fließtextbeschreibung sind aus dem zugeordneten Datenmaterial nicht sicher ableitbar.","hasMore":true,"hasExcerpt":true,"sources":[{"bookId":"sr5-shadows-in-focus-city-by-shadow-butte","title":"Shadows in Focus - City by Shadow - Butte","edition":"SR5","citation":"The Rabbit Hole","purpose":"description"}]}}}},{"type":"Feature","geometry":null,"properties":{"id":18,"global_id":"butte:place:18-tilt","name":"Tilt","aliases":[],"category":"Bars und Clubs","detail_map":"Butte","source_pages":"Tilt","map_source":"Shadows in Focus - City by Shadow - Butte","placement_note":"Keine belastbare Einzelposition; Eintrag bleibt im Katalog","accuracy":"Nur Stadt oder Lore-Teilraum belegt","source_map":"butte-content","source_panel":"Butte","description_preview":"Tilt ist ein benannter Vergnügungsstandort.","description_full":"Tilt ist ein benannter Vergnügungsstandort. Die Position ist auf den belegten Stadt- oder Teilraum angenähert; eine hausgenaue Lage und eine weitergehende eigene Fließtextbeschreibung sind aus dem zugeordneten Datenmaterial nicht sicher ableitbar.","description_source":"Tilt","description_kind":"Ortsprofil","description_has_more":true,"detail_plans":[],"alternate_locations":[],"sources":[{"bookId":"sr5-shadows-in-focus-city-by-shadow-butte","title":"Shadows in Focus - City by Shadow - Butte","edition":"SR5","citation":"Tilt","purpose":"description"}],"map_sources":[],"editions":["SR5"],"edition_descriptions":{"SR5":{"kind":"Ortsprofil","preview":"Tilt ist ein benannter Vergnügungsstandort.","full":"Tilt ist ein benannter Vergnügungsstandort. Die Position ist auf den belegten Stadt- oder Teilraum angenähert; eine hausgenaue Lage und eine weitergehende eigene Fließtextbeschreibung sind aus dem zugeordneten Datenmaterial nicht sicher ableitbar.","hasMore":true,"hasExcerpt":true,"sources":[{"bookId":"sr5-shadows-in-focus-city-by-shadow-butte","title":"Shadows in Focus - City by Shadow - Butte","edition":"SR5","citation":"Tilt","purpose":"description"}]}}}},{"type":"Feature","geometry":null,"properties":{"id":19,"global_id":"butte:place:19-white-buffalo","name":"White Buffalo","aliases":[],"category":"Bars und Kneipen","detail_map":"Butte","source_pages":"White Buffalo","map_source":"Shadows in Focus - City by Shadow - Butte","placement_note":"Keine belastbare Einzelposition; Eintrag bleibt im Katalog","accuracy":"Nur Stadt oder Lore-Teilraum belegt","source_map":"butte-content","source_panel":"Butte","description_preview":"White Buffalo ist ein lokaler Treffpunkt.","description_full":"White Buffalo ist ein lokaler Treffpunkt. Die Position ist auf den belegten Stadt- oder Teilraum angenähert; eine hausgenaue Lage und eine weitergehende eigene Fließtextbeschreibung sind aus dem zugeordneten Datenmaterial nicht sicher ableitbar.","description_source":"White Buffalo","description_kind":"Ortsprofil","description_has_more":true,"detail_plans":[],"alternate_locations":[],"sources":[{"bookId":"sr5-shadows-in-focus-city-by-shadow-butte","title":"Shadows in Focus - City by Shadow - Butte","edition":"SR5","citation":"White Buffalo","purpose":"description"}],"map_sources":[],"editions":["SR5"],"edition_descriptions":{"SR5":{"kind":"Ortsprofil","preview":"White Buffalo ist ein lokaler Treffpunkt.","full":"White Buffalo ist ein lokaler Treffpunkt. Die Position ist auf den belegten Stadt- oder Teilraum angenähert; eine hausgenaue Lage und eine weitergehende eigene Fließtextbeschreibung sind aus dem zugeordneten Datenmaterial nicht sicher ableitbar.","hasMore":true,"hasExcerpt":true,"sources":[{"bookId":"sr5-shadows-in-focus-city-by-shadow-butte","title":"Shadows in Focus - City by Shadow - Butte","edition":"SR5","citation":"White Buffalo","purpose":"description"}]}}}}]}
