{"type":"FeatureCollection","name":"Groß-Frankfurt Orte","features":[{"type":"Feature","geometry":{"type":"Point","coordinates":[9.152,49.977]},"properties":{"id":2,"global_id":"frankfurt:place:2-aschaffenburg","name":"Aschaffenburg","aliases":[],"category":"Bezirke","detail_map":"Aschaffenburg","source_pages":"PDF-Seite 6","map_source":"Chrom & Dioxin","placement_note":"Geografischer Bezugspunkt des Lore-Distrikts Aschaffenburg","accuracy":"Lore-Bezirkszentrum; Grenzpolygon noch nicht georeferenziert","source_map":"frankfurt-content","source_panel":"Aschaffenburg","description_preview":"Aschaffenburg bildet einen östlichen Bezirk Groß-Frankfurts.","description_full":"Aschaffenburg bildet einen östlichen Bezirk Groß-Frankfurts. Die Position ist auf den belegten Stadt- oder Teilraum angenähert; eine hausgenaue Lage und eine weitergehende eigene Fließtextbeschreibung sind aus dem zugeordneten Datenmaterial nicht sicher ableitbar.","description_source":"PDF-Seite 6","description_kind":"Ortsprofil","description_has_more":true,"detail_plans":[],"alternate_locations":[],"sources":[{"bookId":"sr2-chrom-dioxin","title":"Chrom & Dioxin","edition":"SR2","citation":"PDF-Seite 6","purpose":"description"}],"map_sources":[],"editions":["SR2"],"edition_descriptions":{"SR2":{"kind":"Ortsprofil","preview":"Aschaffenburg bildet einen östlichen Bezirk Groß-Frankfurts.","full":"Aschaffenburg bildet einen östlichen Bezirk Groß-Frankfurts. Die Position ist auf den belegten Stadt- oder Teilraum angenähert; eine hausgenaue Lage und eine weitergehende eigene Fließtextbeschreibung sind aus dem zugeordneten Datenmaterial nicht sicher ableitbar.","hasMore":true,"hasExcerpt":true,"sources":[{"bookId":"sr2-chrom-dioxin","title":"Chrom & Dioxin","edition":"SR2","citation":"PDF-Seite 6","purpose":"description"}]}}}},{"type":"Feature","geometry":null,"properties":{"id":22,"global_id":"frankfurt:place:22-aschaffenburger-hafen","name":"Aschaffenburger Hafen","aliases":[],"category":"Verkehr","detail_map":"Aschaffenburg","source_pages":"PDF-Seite 28","map_source":"Chrom & Dioxin","placement_note":"Keine belastbare Einzelposition; Eintrag bleibt im Katalog","accuracy":"Nur Stadt oder Lore-Teilraum belegt","source_map":"frankfurt-content","source_panel":"Aschaffenburg","description_preview":"Der Aschaffenburger Hafen ist der kleinste der Groß-Frankfurter Häfen und ein lokaler Verkehrs- und Wirtschaftsstandort.","description_full":"Der Aschaffenburger Hafen ist der kleinste der Groß-Frankfurter Häfen und ein lokaler Verkehrs- und Wirtschaftsstandort. Die Position ist auf den belegten Stadt- oder Teilraum angenähert; eine hausgenaue Lage und eine weitergehende eigene Fließtextbeschreibung sind aus dem zugeordneten Datenmaterial nicht sicher ableitbar.","description_source":"PDF-Seite 28","description_kind":"Ortsprofil","description_has_more":true,"detail_plans":[],"alternate_locations":[],"sources":[{"bookId":"sr2-chrom-dioxin","title":"Chrom & Dioxin","edition":"SR2","citation":"PDF-Seite 28","purpose":"description"}],"map_sources":[],"editions":["SR2"],"edition_descriptions":{"SR2":{"kind":"Ortsprofil","preview":"Der Aschaffenburger Hafen ist der kleinste der Groß-Frankfurter Häfen und ein lokaler Verkehrs- und Wirtschaftsstandort.","full":"Der Aschaffenburger Hafen ist der kleinste der Groß-Frankfurter Häfen und ein lokaler Verkehrs- und Wirtschaftsstandort. Die Position ist auf den belegten Stadt- oder Teilraum angenähert; eine hausgenaue Lage und eine weitergehende eigene Fließtextbeschreibung sind aus dem zugeordneten Datenmaterial nicht sicher ableitbar.","hasMore":true,"hasExcerpt":true,"sources":[{"bookId":"sr2-chrom-dioxin","title":"Chrom & Dioxin","edition":"SR2","citation":"PDF-Seite 28","purpose":"description"}]}}}},{"type":"Feature","geometry":null,"properties":{"id":23,"global_id":"frankfurt:place:23-asthenologica-trainingszentrum","name":"Asthenologica-Trainingszentrum","aliases":[],"category":"Bildung und Kultur","detail_map":"Heidelberg","source_pages":"Heidelberg-Schwabenheimer Hof","map_source":"Datapuls Frankfurt","placement_note":"Keine belastbare Einzelposition; Eintrag bleibt im Katalog","accuracy":"Nur Stadt oder Lore-Teilraum belegt","source_map":"frankfurt-content","source_panel":"Heidelberg","description_preview":"Das Trainingszentrum im Schwabenheimer Hof verbindet Holo- und SimSinn-Technik mit einem modernen Selbstverteidigungssystem.","description_full":"Das Trainingszentrum im Schwabenheimer Hof verbindet Holo- und SimSinn-Technik mit einem modernen Selbstverteidigungssystem. Die Position ist auf den belegten Stadt- oder Teilraum angenähert; eine hausgenaue Lage und eine weitergehende eigene Fließtextbeschreibung sind aus dem zugeordneten Datenmaterial nicht sicher ableitbar.","description_source":"Heidelberg-Schwabenheimer Hof","description_kind":"Ortsprofil","description_has_more":true,"detail_plans":[],"alternate_locations":[],"sources":[{"bookId":"sr5-datapuls-frankfurt","title":"Datapuls Frankfurt","edition":"SR5","citation":"Heidelberg-Schwabenheimer Hof","purpose":"description"}],"map_sources":[],"editions":["SR5"],"edition_descriptions":{"SR5":{"kind":"Ortsprofil","preview":"Das Trainingszentrum im Schwabenheimer Hof verbindet Holo- und SimSinn-Technik mit einem modernen Selbstverteidigungssystem.","full":"Das Trainingszentrum im Schwabenheimer Hof verbindet Holo- und SimSinn-Technik mit einem modernen Selbstverteidigungssystem. Die Position ist auf den belegten Stadt- oder Teilraum angenähert; eine hausgenaue Lage und eine weitergehende eigene Fließtextbeschreibung sind aus dem zugeordneten Datenmaterial nicht sicher ableitbar.","hasMore":true,"hasExcerpt":true,"sources":[{"bookId":"sr5-datapuls-frankfurt","title":"Datapuls Frankfurt","edition":"SR5","citation":"Heidelberg-Schwabenheimer Hof","purpose":"description"}]}}}},{"type":"Feature","geometry":{"type":"Point","coordinates":[8.62,49.68]},"properties":{"id":3,"global_id":"frankfurt:place:3-bergstrae","name":"Bergstraße","aliases":[],"category":"Bezirke","detail_map":"Bergstraße","source_pages":"PDF-Seite 6","map_source":"Chrom & Dioxin","placement_note":"Geografischer Bezugspunkt des Lore-Distrikts Bergstraße","accuracy":"Lore-Bezirkszentrum; Grenzpolygon noch nicht georeferenziert","source_map":"frankfurt-content","source_panel":"Bergstraße","description_preview":"Bergstraße ist ein südlicher Bezirk zwischen Rhein-Main und Rhein-Neckar.","description_full":"Bergstraße ist ein südlicher Bezirk zwischen Rhein-Main und Rhein-Neckar. Die Position ist auf den belegten Stadt- oder Teilraum angenähert; eine hausgenaue Lage und eine weitergehende eigene Fließtextbeschreibung sind aus dem zugeordneten Datenmaterial nicht sicher ableitbar.","description_source":"PDF-Seite 6","description_kind":"Ortsprofil","description_has_more":true,"detail_plans":[],"alternate_locations":[],"sources":[{"bookId":"sr2-chrom-dioxin","title":"Chrom & Dioxin","edition":"SR2","citation":"PDF-Seite 6","purpose":"description"}],"map_sources":[],"editions":["SR2"],"edition_descriptions":{"SR2":{"kind":"Ortsprofil","preview":"Bergstraße ist ein südlicher Bezirk zwischen Rhein-Main und Rhein-Neckar.","full":"Bergstraße ist ein südlicher Bezirk zwischen Rhein-Main und Rhein-Neckar. Die Position ist auf den belegten Stadt- oder Teilraum angenähert; eine hausgenaue Lage und eine weitergehende eigene Fließtextbeschreibung sind aus dem zugeordneten Datenmaterial nicht sicher ableitbar.","hasMore":true,"hasExcerpt":true,"sources":[{"bookId":"sr2-chrom-dioxin","title":"Chrom & Dioxin","edition":"SR2","citation":"PDF-Seite 6","purpose":"description"}]}}}},{"type":"Feature","geometry":{"type":"Point","coordinates":[8.458,49.691]},"properties":{"id":4,"global_id":"frankfurt:place:4-biblis","name":"Biblis","aliases":[],"category":"Bezirke","detail_map":"Biblis","source_pages":"PDF-Seite 6","map_source":"Chrom & Dioxin","placement_note":"Geografischer Bezugspunkt des Lore-Distrikts Biblis","accuracy":"Lore-Bezirkszentrum; Grenzpolygon noch nicht georeferenziert","source_map":"frankfurt-content","source_panel":"Biblis","description_preview":"Biblis ist ein westlicher Teilraum des Plexes mit industriellen und ökologischen Altlasten.","description_full":"Biblis ist ein westlicher Teilraum des Plexes mit industriellen und ökologischen Altlasten. Die Position ist auf den belegten Stadt- oder Teilraum angenähert; eine hausgenaue Lage und eine weitergehende eigene Fließtextbeschreibung sind aus dem zugeordneten Datenmaterial nicht sicher ableitbar.","description_source":"PDF-Seite 6","description_kind":"Ortsprofil","description_has_more":true,"detail_plans":[],"alternate_locations":[],"sources":[{"bookId":"sr2-chrom-dioxin","title":"Chrom & Dioxin","edition":"SR2","citation":"PDF-Seite 6","purpose":"description"}],"map_sources":[],"editions":["SR2"],"edition_descriptions":{"SR2":{"kind":"Ortsprofil","preview":"Biblis ist ein westlicher Teilraum des Plexes mit industriellen und ökologischen Altlasten.","full":"Biblis ist ein westlicher Teilraum des Plexes mit industriellen und ökologischen Altlasten. Die Position ist auf den belegten Stadt- oder Teilraum angenähert; eine hausgenaue Lage und eine weitergehende eigene Fließtextbeschreibung sind aus dem zugeordneten Datenmaterial nicht sicher ableitbar.","hasMore":true,"hasExcerpt":true,"sources":[{"bookId":"sr2-chrom-dioxin","title":"Chrom & Dioxin","edition":"SR2","citation":"PDF-Seite 6","purpose":"description"}]}}}},{"type":"Feature","geometry":{"type":"Point","coordinates":[8.674,50.11]},"properties":{"id":13,"global_id":"frankfurt:place:13-commerzbank-tower","name":"Commerzbank-Tower","aliases":[],"category":"Konzerne","detail_map":"Frankfurt-City","source_pages":"Kapitel Frankfurt-City","map_source":"Datapuls Frankfurt","placement_note":"Erhaltener geographischer Bezugspunkt","accuracy":"Geographischer Bezugspunkt","source_map":"frankfurt-content","source_panel":"Frankfurt-City","description_preview":"Der Commerzbank-Tower ist ein markanter Banken- und Konzernstandort.","description_full":"Der Commerzbank-Tower ist ein markanter Banken- und Konzernstandort. Die Position folgt einem erhaltenen heutigen Bezugspunkt.","description_source":"Kapitel Frankfurt-City","description_kind":"Ortsprofil","description_has_more":true,"detail_plans":[],"alternate_locations":[],"sources":[{"bookId":"sr5-datapuls-frankfurt","title":"Datapuls Frankfurt","edition":"SR5","citation":"Kapitel Frankfurt-City","purpose":"description"}],"map_sources":[],"editions":["SR5"],"edition_descriptions":{"SR5":{"kind":"Ortsprofil","preview":"Der Commerzbank-Tower ist ein markanter Banken- und Konzernstandort.","full":"Der Commerzbank-Tower ist ein markanter Banken- und Konzernstandort. Die Position folgt einem erhaltenen heutigen Bezugspunkt.","hasMore":true,"hasExcerpt":true,"sources":[{"bookId":"sr5-datapuls-frankfurt","title":"Datapuls Frankfurt","edition":"SR5","citation":"Kapitel Frankfurt-City","purpose":"description"}]}}}},{"type":"Feature","geometry":{"type":"Point","coordinates":[8.6512,49.8728]},"properties":{"id":5,"global_id":"frankfurt:place:5-darmstadt","name":"Darmstadt","aliases":[],"category":"Bezirke","detail_map":"Darmstadt","source_pages":"PDF-Seite 6","map_source":"Chrom & Dioxin","placement_note":"Geografischer Bezugspunkt des Lore-Distrikts Darmstadt","accuracy":"Lore-Bezirkszentrum; Grenzpolygon noch nicht georeferenziert","source_map":"frankfurt-content","source_panel":"Darmstadt","description_preview":"Darmstadt ist Wissenschafts-, Technik- und Verwaltungsstandort.","description_full":"Darmstadt ist Wissenschafts-, Technik- und Verwaltungsstandort. Die Position ist auf den belegten Stadt- oder Teilraum angenähert; eine hausgenaue Lage und eine weitergehende eigene Fließtextbeschreibung sind aus dem zugeordneten Datenmaterial nicht sicher ableitbar.","description_source":"PDF-Seite 6","description_kind":"Ortsprofil","description_has_more":true,"detail_plans":[],"alternate_locations":[],"sources":[{"bookId":"sr2-chrom-dioxin","title":"Chrom & Dioxin","edition":"SR2","citation":"PDF-Seite 6","purpose":"description"}],"map_sources":[],"editions":["SR2"],"edition_descriptions":{"SR2":{"kind":"Ortsprofil","preview":"Darmstadt ist Wissenschafts-, Technik- und Verwaltungsstandort.","full":"Darmstadt ist Wissenschafts-, Technik- und Verwaltungsstandort. Die Position ist auf den belegten Stadt- oder Teilraum angenähert; eine hausgenaue Lage und eine weitergehende eigene Fließtextbeschreibung sind aus dem zugeordneten Datenmaterial nicht sicher ableitbar.","hasMore":true,"hasExcerpt":true,"sources":[{"bookId":"sr2-chrom-dioxin","title":"Chrom & Dioxin","edition":"SR2","citation":"PDF-Seite 6","purpose":"description"}]}}}},{"type":"Feature","geometry":null,"properties":{"id":24,"global_id":"frankfurt:place:24-die-neuen-federfechter","name":"Die Neuen Federfechter","aliases":[],"category":"Bildung und Kultur","detail_map":"Frankfurt-City","source_pages":"Die Neuen Federfechter (Fechtkampfschule)","map_source":"Datapuls Frankfurt","placement_note":"Keine belastbare Einzelposition; Eintrag bleibt im Katalog","accuracy":"Nur Stadt oder Lore-Teilraum belegt","source_map":"frankfurt-content","source_panel":"Frankfurt-City","description_preview":"Die Fechtkampfschule im Nordend beruft sich auf die historische Frankfurter Tradition der Federfechter.","description_full":"Die Fechtkampfschule im Nordend beruft sich auf die historische Frankfurter Tradition der Federfechter. Die Position ist auf den belegten Stadt- oder Teilraum angenähert; eine hausgenaue Lage und eine weitergehende eigene Fließtextbeschreibung sind aus dem zugeordneten Datenmaterial nicht sicher ableitbar.","description_source":"Die Neuen Federfechter (Fechtkampfschule)","description_kind":"Ortsprofil","description_has_more":true,"detail_plans":[],"alternate_locations":[],"sources":[{"bookId":"sr5-datapuls-frankfurt","title":"Datapuls Frankfurt","edition":"SR5","citation":"Die Neuen Federfechter (Fechtkampfschule)","purpose":"description"}],"map_sources":[],"editions":["SR5"],"edition_descriptions":{"SR5":{"kind":"Ortsprofil","preview":"Die Fechtkampfschule im Nordend beruft sich auf die historische Frankfurter Tradition der Federfechter.","full":"Die Fechtkampfschule im Nordend beruft sich auf die historische Frankfurter Tradition der Federfechter. Die Position ist auf den belegten Stadt- oder Teilraum angenähert; eine hausgenaue Lage und eine weitergehende eigene Fließtextbeschreibung sind aus dem zugeordneten Datenmaterial nicht sicher ableitbar.","hasMore":true,"hasExcerpt":true,"sources":[{"bookId":"sr5-datapuls-frankfurt","title":"Datapuls Frankfurt","edition":"SR5","citation":"Die Neuen Federfechter (Fechtkampfschule)","purpose":"description"}]}}}},{"type":"Feature","geometry":{"type":"Point","coordinates":[8.5706,50.0333]},"properties":{"id":25,"global_id":"frankfurt:place:25-frankfurt-airport","name":"Frankfurt Airport","aliases":[],"category":"Verkehr","detail_map":"Frankfurt-City","source_pages":"PDF-Seite 123","map_source":"Deutschland in den Schatten","placement_note":"Erhaltener geographischer Bezugspunkt","accuracy":"Geographischer Bezugspunkt","source_map":"frankfurt-content","source_panel":"Frankfurt-City","description_preview":"Der Frankfurter Flughafen ist eines der größten europäischen Luftverkehrsdrehkreuze und bedient auch suborbitale Verbindungen.","description_full":"Der Frankfurter Flughafen ist eines der größten europäischen Luftverkehrsdrehkreuze und bedient auch suborbitale Verbindungen. Die Position folgt einem erhaltenen heutigen Bezugspunkt.","description_source":"PDF-Seite 123","description_kind":"Ortsprofil","description_has_more":true,"detail_plans":[],"alternate_locations":[],"sources":[{"bookId":"sr1-deutschland-in-den-schatten","title":"Deutschland in den Schatten","edition":"SR1","citation":"PDF-Seite 123","purpose":"description"}],"map_sources":[],"editions":["SR1"],"edition_descriptions":{"SR1":{"kind":"Ortsprofil","preview":"Der Frankfurter Flughafen ist eines der größten europäischen Luftverkehrsdrehkreuze und bedient auch suborbitale Verbindungen.","full":"Der Frankfurter Flughafen ist eines der größten europäischen Luftverkehrsdrehkreuze und bedient auch suborbitale Verbindungen. Die Position folgt einem erhaltenen heutigen Bezugspunkt.","hasMore":true,"hasExcerpt":true,"sources":[{"bookId":"sr1-deutschland-in-den-schatten","title":"Deutschland in den Schatten","edition":"SR1","citation":"PDF-Seite 123","purpose":"description"}]}}}},{"type":"Feature","geometry":{"type":"Point","coordinates":[8.6821,50.1109]},"properties":{"id":1,"global_id":"frankfurt:place:1-frankfurt-city","name":"Frankfurt-City","aliases":[],"category":"Bezirke","detail_map":"Frankfurt-City","source_pages":"PDF-Seite 6","map_source":"Chrom & Dioxin","placement_note":"Geografischer Bezugspunkt des Lore-Distrikts Frankfurt-City","accuracy":"Lore-Bezirkszentrum; Grenzpolygon noch nicht georeferenziert","source_map":"frankfurt-content","source_panel":"Frankfurt-City","description_preview":"Frankfurt-City ist Banken-, Verwaltungs- und Verkehrskern des Plexes.","description_full":"Frankfurt-City ist Banken-, Verwaltungs- und Verkehrskern des Plexes. Die Position ist auf den belegten Stadt- oder Teilraum angenähert; eine hausgenaue Lage und eine weitergehende eigene Fließtextbeschreibung sind aus dem zugeordneten Datenmaterial nicht sicher ableitbar.","description_source":"PDF-Seite 6","description_kind":"Ortsprofil","description_has_more":true,"detail_plans":[],"alternate_locations":[],"sources":[{"bookId":"sr2-chrom-dioxin","title":"Chrom & Dioxin","edition":"SR2","citation":"PDF-Seite 6","purpose":"description"}],"map_sources":[],"editions":["SR2"],"edition_descriptions":{"SR2":{"kind":"Ortsprofil","preview":"Frankfurt-City ist Banken-, Verwaltungs- und Verkehrskern des Plexes.","full":"Frankfurt-City ist Banken-, Verwaltungs- und Verkehrskern des Plexes. Die Position ist auf den belegten Stadt- oder Teilraum angenähert; eine hausgenaue Lage und eine weitergehende eigene Fließtextbeschreibung sind aus dem zugeordneten Datenmaterial nicht sicher ableitbar.","hasMore":true,"hasExcerpt":true,"sources":[{"bookId":"sr2-chrom-dioxin","title":"Chrom & Dioxin","edition":"SR2","citation":"PDF-Seite 6","purpose":"description"}]}}}},{"type":"Feature","geometry":null,"properties":{"id":19,"global_id":"frankfurt:place:19-frankfurter-hafen","name":"Frankfurter Hafen","aliases":[],"category":"Verkehr","detail_map":"Frankfurt-City","source_pages":"PDF-Seite 28","map_source":"Chrom & Dioxin","placement_note":"Keine belastbare Einzelposition; Eintrag bleibt im Katalog","accuracy":"Nur Stadt oder Lore-Teilraum belegt","source_map":"frankfurt-content","source_panel":"Frankfurt-City","description_preview":"Der Hafen ist ein Verkehrs-, Industrie- und Schmuggelraum des Plexes.","description_full":"Der Hafen ist ein Verkehrs-, Industrie- und Schmuggelraum des Plexes. Die Position ist auf den belegten Stadt- oder Teilraum angenähert; eine hausgenaue Lage und eine weitergehende eigene Fließtextbeschreibung sind aus dem zugeordneten Datenmaterial nicht sicher ableitbar.","description_source":"PDF-Seite 28","description_kind":"Ortsprofil","description_has_more":true,"detail_plans":[],"alternate_locations":[],"sources":[{"bookId":"sr2-chrom-dioxin","title":"Chrom & Dioxin","edition":"SR2","citation":"PDF-Seite 28","purpose":"description"}],"map_sources":[],"editions":["SR2"],"edition_descriptions":{"SR2":{"kind":"Ortsprofil","preview":"Der Hafen ist ein Verkehrs-, Industrie- und Schmuggelraum des Plexes.","full":"Der Hafen ist ein Verkehrs-, Industrie- und Schmuggelraum des Plexes. Die Position ist auf den belegten Stadt- oder Teilraum angenähert; eine hausgenaue Lage und eine weitergehende eigene Fließtextbeschreibung sind aus dem zugeordneten Datenmaterial nicht sicher ableitbar.","hasMore":true,"hasExcerpt":true,"sources":[{"bookId":"sr2-chrom-dioxin","title":"Chrom & Dioxin","edition":"SR2","citation":"PDF-Seite 28","purpose":"description"}]}}}},{"type":"Feature","geometry":null,"properties":{"id":26,"global_id":"frankfurt:place:26-friesenheim","name":"Friesenheim","aliases":[],"category":"Stadtteile","detail_map":"Ludwigshafen","source_pages":"PDF-Seite 37","map_source":"Chrom & Dioxin","placement_note":"Keine belastbare Einzelposition; Eintrag bleibt im Katalog","accuracy":"Nur Stadt oder Lore-Teilraum belegt","source_map":"frankfurt-content","source_panel":"Ludwigshafen","description_preview":"Friesenheim beherbergt am früheren See den Ludwigshafener Aquagarten, ein großes hydroponisches Werk der AG Chemie.","description_full":"Friesenheim beherbergt am früheren See den Ludwigshafener Aquagarten, ein großes hydroponisches Werk der AG Chemie. Die Position ist auf den belegten Stadt- oder Teilraum angenähert; eine hausgenaue Lage und eine weitergehende eigene Fließtextbeschreibung sind aus dem zugeordneten Datenmaterial nicht sicher ableitbar.","description_source":"PDF-Seite 37","description_kind":"Ortsprofil","description_has_more":true,"detail_plans":[],"alternate_locations":[],"sources":[{"bookId":"sr2-chrom-dioxin","title":"Chrom & Dioxin","edition":"SR2","citation":"PDF-Seite 37","purpose":"description"}],"map_sources":[],"editions":["SR2"],"edition_descriptions":{"SR2":{"kind":"Ortsprofil","preview":"Friesenheim beherbergt am früheren See den Ludwigshafener Aquagarten, ein großes hydroponisches Werk der AG Chemie.","full":"Friesenheim beherbergt am früheren See den Ludwigshafener Aquagarten, ein großes hydroponisches Werk der AG Chemie. Die Position ist auf den belegten Stadt- oder Teilraum angenähert; eine hausgenaue Lage und eine weitergehende eigene Fließtextbeschreibung sind aus dem zugeordneten Datenmaterial nicht sicher ableitbar.","hasMore":true,"hasExcerpt":true,"sources":[{"bookId":"sr2-chrom-dioxin","title":"Chrom & Dioxin","edition":"SR2","citation":"PDF-Seite 37","purpose":"description"}]}}}},{"type":"Feature","geometry":null,"properties":{"id":20,"global_id":"frankfurt:place:20-gallusviertel","name":"Gallusviertel","aliases":[],"category":"Stadtteile","detail_map":"Frankfurt-City","source_pages":"PDF-Seite 26","map_source":"Chrom & Dioxin","placement_note":"Keine belastbare Einzelposition; Eintrag bleibt im Katalog","accuracy":"Nur Stadt oder Lore-Teilraum belegt","source_map":"frankfurt-content","source_panel":"Frankfurt-City","description_preview":"Das Gallusviertel ist als innerstädtischer Teilraum im frühen Quellenstand belegt.","description_full":"Das Gallusviertel ist als innerstädtischer Teilraum im frühen Quellenstand belegt. Die Position ist auf den belegten Stadt- oder Teilraum angenähert; eine hausgenaue Lage und eine weitergehende eigene Fließtextbeschreibung sind aus dem zugeordneten Datenmaterial nicht sicher ableitbar.","description_source":"PDF-Seite 26","description_kind":"Ortsprofil","description_has_more":true,"detail_plans":[],"alternate_locations":[],"sources":[{"bookId":"sr2-chrom-dioxin","title":"Chrom & Dioxin","edition":"SR2","citation":"PDF-Seite 26","purpose":"description"}],"map_sources":[],"editions":["SR2"],"edition_descriptions":{"SR2":{"kind":"Ortsprofil","preview":"Das Gallusviertel ist als innerstädtischer Teilraum im frühen Quellenstand belegt.","full":"Das Gallusviertel ist als innerstädtischer Teilraum im frühen Quellenstand belegt. Die Position ist auf den belegten Stadt- oder Teilraum angenähert; eine hausgenaue Lage und eine weitergehende eigene Fließtextbeschreibung sind aus dem zugeordneten Datenmaterial nicht sicher ableitbar.","hasMore":true,"hasExcerpt":true,"sources":[{"bookId":"sr2-chrom-dioxin","title":"Chrom & Dioxin","edition":"SR2","citation":"PDF-Seite 26","purpose":"description"}]}}}},{"type":"Feature","geometry":{"type":"Point","coordinates":[8.929,50.126]},"properties":{"id":6,"global_id":"frankfurt:place:6-hanau","name":"Hanau","aliases":[],"category":"Bezirke","detail_map":"Hanau","source_pages":"Kapitel Bezirk Hanau","map_source":"Chrom & Dioxin","placement_note":"Geografischer Bezugspunkt des Lore-Distrikts Hanau","accuracy":"Lore-Bezirkszentrum; Grenzpolygon noch nicht georeferenziert","source_map":"frankfurt-content","source_panel":"Hanau","description_preview":"Hanau ist ein östlicher Industrie- und Siedlungsbezirk.","description_full":"Hanau ist ein östlicher Industrie- und Siedlungsbezirk. Die Position ist auf den belegten Stadt- oder Teilraum angenähert; eine hausgenaue Lage und eine weitergehende eigene Fließtextbeschreibung sind aus dem zugeordneten Datenmaterial nicht sicher ableitbar.","description_source":"Kapitel Bezirk Hanau","description_kind":"Ortsprofil","description_has_more":true,"detail_plans":[],"alternate_locations":[],"sources":[{"bookId":"sr2-chrom-dioxin","title":"Chrom & Dioxin","edition":"SR2","citation":"Kapitel Bezirk Hanau","purpose":"description"}],"map_sources":[],"editions":["SR2"],"edition_descriptions":{"SR2":{"kind":"Ortsprofil","preview":"Hanau ist ein östlicher Industrie- und Siedlungsbezirk.","full":"Hanau ist ein östlicher Industrie- und Siedlungsbezirk. Die Position ist auf den belegten Stadt- oder Teilraum angenähert; eine hausgenaue Lage und eine weitergehende eigene Fließtextbeschreibung sind aus dem zugeordneten Datenmaterial nicht sicher ableitbar.","hasMore":true,"hasExcerpt":true,"sources":[{"bookId":"sr2-chrom-dioxin","title":"Chrom & Dioxin","edition":"SR2","citation":"Kapitel Bezirk Hanau","purpose":"description"}]}}}},{"type":"Feature","geometry":null,"properties":{"id":14,"global_id":"frankfurt:place:14-hauptquartier-der-ag-chemie","name":"Hauptquartier der AG Chemie","aliases":[],"category":"Konzerne","detail_map":"Ludwigshafen","source_pages":"Kapitel Konzerne","map_source":"Datapuls Frankfurt","placement_note":"Keine belastbare Einzelposition; Eintrag bleibt im Katalog","accuracy":"Nur Stadt oder Lore-Teilraum belegt","source_map":"frankfurt-content","source_panel":"Ludwigshafen","description_preview":"Das Hauptquartier der AG Chemie ist ein zentraler Konzernstandort im Plex.","description_full":"Das Hauptquartier der AG Chemie ist ein zentraler Konzernstandort im Plex. Die Position ist auf den belegten Stadt- oder Teilraum angenähert; eine hausgenaue Lage und eine weitergehende eigene Fließtextbeschreibung sind aus dem zugeordneten Datenmaterial nicht sicher ableitbar.","description_source":"Kapitel Konzerne","description_kind":"Ortsprofil","description_has_more":true,"detail_plans":[],"alternate_locations":[],"sources":[{"bookId":"sr5-datapuls-frankfurt","title":"Datapuls Frankfurt","edition":"SR5","citation":"Kapitel Konzerne","purpose":"description"}],"map_sources":[],"editions":["SR5"],"edition_descriptions":{"SR5":{"kind":"Ortsprofil","preview":"Das Hauptquartier der AG Chemie ist ein zentraler Konzernstandort im Plex.","full":"Das Hauptquartier der AG Chemie ist ein zentraler Konzernstandort im Plex. Die Position ist auf den belegten Stadt- oder Teilraum angenähert; eine hausgenaue Lage und eine weitergehende eigene Fließtextbeschreibung sind aus dem zugeordneten Datenmaterial nicht sicher ableitbar.","hasMore":true,"hasExcerpt":true,"sources":[{"bookId":"sr5-datapuls-frankfurt","title":"Datapuls Frankfurt","edition":"SR5","citation":"Kapitel Konzerne","purpose":"description"}]}}}},{"type":"Feature","geometry":{"type":"Point","coordinates":[8.6724,49.3988]},"properties":{"id":7,"global_id":"frankfurt:place:7-heidelberg","name":"Heidelberg","aliases":[],"category":"Bezirke","detail_map":"Heidelberg","source_pages":"Kapitel Heidelberg","map_source":"Chrom & Dioxin","placement_note":"Geografischer Bezugspunkt des Lore-Distrikts Heidelberg","accuracy":"Lore-Bezirkszentrum; Grenzpolygon noch nicht georeferenziert","source_map":"frankfurt-content","source_panel":"Heidelberg","description_preview":"Heidelberg ist Universitätsstadt und südlicher Wissensstandort des Großraums.","description_full":"Heidelberg ist Universitätsstadt und südlicher Wissensstandort des Großraums. Die Position ist auf den belegten Stadt- oder Teilraum angenähert; eine hausgenaue Lage und eine weitergehende eigene Fließtextbeschreibung sind aus dem zugeordneten Datenmaterial nicht sicher ableitbar.","description_source":"Kapitel Heidelberg","description_kind":"Ortsprofil","description_has_more":true,"detail_plans":[],"alternate_locations":[],"sources":[{"bookId":"sr2-chrom-dioxin","title":"Chrom & Dioxin","edition":"SR2","citation":"Kapitel Heidelberg","purpose":"description"}],"map_sources":[],"editions":["SR2"],"edition_descriptions":{"SR2":{"kind":"Ortsprofil","preview":"Heidelberg ist Universitätsstadt und südlicher Wissensstandort des Großraums.","full":"Heidelberg ist Universitätsstadt und südlicher Wissensstandort des Großraums. Die Position ist auf den belegten Stadt- oder Teilraum angenähert; eine hausgenaue Lage und eine weitergehende eigene Fließtextbeschreibung sind aus dem zugeordneten Datenmaterial nicht sicher ableitbar.","hasMore":true,"hasExcerpt":true,"sources":[{"bookId":"sr2-chrom-dioxin","title":"Chrom & Dioxin","edition":"SR2","citation":"Kapitel Heidelberg","purpose":"description"}]}}}},{"type":"Feature","geometry":null,"properties":{"id":27,"global_id":"frankfurt:place:27-hessische-rheinauen","name":"Hessische Rheinauen","aliases":[],"category":"Sondergebiete","detail_map":"Groß-Frankfurt","source_pages":"Hessische Rheinauen","map_source":"Datapuls Frankfurt","placement_note":"Keine belastbare Einzelposition; Eintrag bleibt im Katalog","accuracy":"Nur Stadt oder Lore-Teilraum belegt","source_map":"frankfurt-content","source_panel":"Groß-Frankfurt","description_preview":"Die Hessischen Rheinauen sind das sanierte Entwicklungsgebiet der früheren Rheinhessen Barrens.","description_full":"Die Hessischen Rheinauen sind das sanierte Entwicklungsgebiet der früheren Rheinhessen Barrens. Die Position ist auf den belegten Stadt- oder Teilraum angenähert; eine hausgenaue Lage und eine weitergehende eigene Fließtextbeschreibung sind aus dem zugeordneten Datenmaterial nicht sicher ableitbar.","description_source":"Hessische Rheinauen","description_kind":"Ortsprofil","description_has_more":true,"detail_plans":[],"alternate_locations":[],"sources":[{"bookId":"sr5-datapuls-frankfurt","title":"Datapuls Frankfurt","edition":"SR5","citation":"Hessische Rheinauen","purpose":"description"}],"map_sources":[],"editions":["SR5"],"edition_descriptions":{"SR5":{"kind":"Ortsprofil","preview":"Die Hessischen Rheinauen sind das sanierte Entwicklungsgebiet der früheren Rheinhessen Barrens.","full":"Die Hessischen Rheinauen sind das sanierte Entwicklungsgebiet der früheren Rheinhessen Barrens. Die Position ist auf den belegten Stadt- oder Teilraum angenähert; eine hausgenaue Lage und eine weitergehende eigene Fließtextbeschreibung sind aus dem zugeordneten Datenmaterial nicht sicher ableitbar.","hasMore":true,"hasExcerpt":true,"sources":[{"bookId":"sr5-datapuls-frankfurt","title":"Datapuls Frankfurt","edition":"SR5","citation":"Hessische Rheinauen","purpose":"description"}]}}}},{"type":"Feature","geometry":null,"properties":{"id":15,"global_id":"frankfurt:place:15-hotel-schlossblick","name":"Hotel Schlossblick","aliases":[],"category":"Hotels","detail_map":"Groß-Frankfurt","source_pages":"Hotspots","map_source":"Datapuls Frankfurt","placement_note":"Keine belastbare Einzelposition; Eintrag bleibt im Katalog","accuracy":"Nur Stadt oder Lore-Teilraum belegt","source_map":"frankfurt-content","source_panel":"Groß-Frankfurt","description_preview":"Hotel Schlossblick ist ein benannter Übernachtungs- und Treffpunkt.","description_full":"Hotel Schlossblick ist ein benannter Übernachtungs- und Treffpunkt. Die Position ist auf den belegten Stadt- oder Teilraum angenähert; eine hausgenaue Lage und eine weitergehende eigene Fließtextbeschreibung sind aus dem zugeordneten Datenmaterial nicht sicher ableitbar.","description_source":"Hotspots","description_kind":"Ortsprofil","description_has_more":true,"detail_plans":[],"alternate_locations":[],"sources":[{"bookId":"sr5-datapuls-frankfurt","title":"Datapuls Frankfurt","edition":"SR5","citation":"Hotspots","purpose":"description"}],"map_sources":[],"editions":["SR5"],"edition_descriptions":{"SR5":{"kind":"Ortsprofil","preview":"Hotel Schlossblick ist ein benannter Übernachtungs- und Treffpunkt.","full":"Hotel Schlossblick ist ein benannter Übernachtungs- und Treffpunkt. Die Position ist auf den belegten Stadt- oder Teilraum angenähert; eine hausgenaue Lage und eine weitergehende eigene Fließtextbeschreibung sind aus dem zugeordneten Datenmaterial nicht sicher ableitbar.","hasMore":true,"hasExcerpt":true,"sources":[{"bookId":"sr5-datapuls-frankfurt","title":"Datapuls Frankfurt","edition":"SR5","citation":"Hotspots","purpose":"description"}]}}}},{"type":"Feature","geometry":null,"properties":{"id":16,"global_id":"frankfurt:place:16-jagerlatein","name":"Jägerlatein","aliases":[],"category":"Restaurants","detail_map":"Groß-Frankfurt","source_pages":"Hotspots","map_source":"Datapuls Frankfurt","placement_note":"Keine belastbare Einzelposition; Eintrag bleibt im Katalog","accuracy":"Nur Stadt oder Lore-Teilraum belegt","source_map":"frankfurt-content","source_panel":"Groß-Frankfurt","description_preview":"Jägerlatein ist ein im Datapuls belegtes Restaurant.","description_full":"Jägerlatein ist ein im Datapuls belegtes Restaurant. Die Position ist auf den belegten Stadt- oder Teilraum angenähert; eine hausgenaue Lage und eine weitergehende eigene Fließtextbeschreibung sind aus dem zugeordneten Datenmaterial nicht sicher ableitbar.","description_source":"Hotspots","description_kind":"Ortsprofil","description_has_more":true,"detail_plans":[],"alternate_locations":[],"sources":[{"bookId":"sr5-datapuls-frankfurt","title":"Datapuls Frankfurt","edition":"SR5","citation":"Hotspots","purpose":"description"}],"map_sources":[],"editions":["SR5"],"edition_descriptions":{"SR5":{"kind":"Ortsprofil","preview":"Jägerlatein ist ein im Datapuls belegtes Restaurant.","full":"Jägerlatein ist ein im Datapuls belegtes Restaurant. Die Position ist auf den belegten Stadt- oder Teilraum angenähert; eine hausgenaue Lage und eine weitergehende eigene Fließtextbeschreibung sind aus dem zugeordneten Datenmaterial nicht sicher ableitbar.","hasMore":true,"hasExcerpt":true,"sources":[{"bookId":"sr5-datapuls-frankfurt","title":"Datapuls Frankfurt","edition":"SR5","citation":"Hotspots","purpose":"description"}]}}}},{"type":"Feature","geometry":{"type":"Point","coordinates":[8.4452,49.4774]},"properties":{"id":8,"global_id":"frankfurt:place:8-ludwigshafen","name":"Ludwigshafen","aliases":[],"category":"Bezirke","detail_map":"Ludwigshafen","source_pages":"Kapitel Ludwigshafen","map_source":"Chrom & Dioxin","placement_note":"Geografischer Bezugspunkt des Lore-Distrikts Ludwigshafen","accuracy":"Lore-Bezirkszentrum; Grenzpolygon noch nicht georeferenziert","source_map":"frankfurt-content","source_panel":"Ludwigshafen","description_preview":"Ludwigshafen ist ein stark industriell und chemisch geprägter Teilraum.","description_full":"Ludwigshafen ist ein stark industriell und chemisch geprägter Teilraum. Die Position ist auf den belegten Stadt- oder Teilraum angenähert; eine hausgenaue Lage und eine weitergehende eigene Fließtextbeschreibung sind aus dem zugeordneten Datenmaterial nicht sicher ableitbar.","description_source":"Kapitel Ludwigshafen","description_kind":"Ortsprofil","description_has_more":true,"detail_plans":[],"alternate_locations":[],"sources":[{"bookId":"sr2-chrom-dioxin","title":"Chrom & Dioxin","edition":"SR2","citation":"Kapitel Ludwigshafen","purpose":"description"}],"map_sources":[],"editions":["SR2"],"edition_descriptions":{"SR2":{"kind":"Ortsprofil","preview":"Ludwigshafen ist ein stark industriell und chemisch geprägter Teilraum.","full":"Ludwigshafen ist ein stark industriell und chemisch geprägter Teilraum. Die Position ist auf den belegten Stadt- oder Teilraum angenähert; eine hausgenaue Lage und eine weitergehende eigene Fließtextbeschreibung sind aus dem zugeordneten Datenmaterial nicht sicher ableitbar.","hasMore":true,"hasExcerpt":true,"sources":[{"bookId":"sr2-chrom-dioxin","title":"Chrom & Dioxin","edition":"SR2","citation":"Kapitel Ludwigshafen","purpose":"description"}]}}}},{"type":"Feature","geometry":{"type":"Point","coordinates":[8.2473,49.9929]},"properties":{"id":11,"global_id":"frankfurt:place:11-mainz","name":"Mainz","aliases":[],"category":"Bezirke","detail_map":"Mainz","source_pages":"Kapitel Mainz","map_source":"Datapuls Frankfurt","placement_note":"Geografischer Bezugspunkt des Lore-Distrikts Mainz","accuracy":"Lore-Bezirkszentrum; Grenzpolygon noch nicht georeferenziert","source_map":"frankfurt-content","source_panel":"Mainz","description_preview":"Mainz liegt am westlichen Rhein-Main-Rand und ist als eigener Teilraum belegt.","description_full":"Mainz liegt am westlichen Rhein-Main-Rand und ist als eigener Teilraum belegt. Die Position ist auf den belegten Stadt- oder Teilraum angenähert; eine hausgenaue Lage und eine weitergehende eigene Fließtextbeschreibung sind aus dem zugeordneten Datenmaterial nicht sicher ableitbar.","description_source":"Kapitel Mainz","description_kind":"Ortsprofil","description_has_more":true,"detail_plans":[],"alternate_locations":[],"sources":[{"bookId":"sr5-datapuls-frankfurt","title":"Datapuls Frankfurt","edition":"SR5","citation":"Kapitel Mainz","purpose":"description"}],"map_sources":[],"editions":["SR5"],"edition_descriptions":{"SR5":{"kind":"Ortsprofil","preview":"Mainz liegt am westlichen Rhein-Main-Rand und ist als eigener Teilraum belegt.","full":"Mainz liegt am westlichen Rhein-Main-Rand und ist als eigener Teilraum belegt. Die Position ist auf den belegten Stadt- oder Teilraum angenähert; eine hausgenaue Lage und eine weitergehende eigene Fließtextbeschreibung sind aus dem zugeordneten Datenmaterial nicht sicher ableitbar.","hasMore":true,"hasExcerpt":true,"sources":[{"bookId":"sr5-datapuls-frankfurt","title":"Datapuls Frankfurt","edition":"SR5","citation":"Kapitel Mainz","purpose":"description"}]}}}},{"type":"Feature","geometry":{"type":"Point","coordinates":[8.466,49.4875]},"properties":{"id":9,"global_id":"frankfurt:place:9-mannheim","name":"Mannheim","aliases":[],"category":"Bezirke","detail_map":"Mannheim","source_pages":"Kapitel Mannheim","map_source":"Chrom & Dioxin","placement_note":"Geografischer Bezugspunkt des Lore-Distrikts Mannheim","accuracy":"Lore-Bezirkszentrum; Grenzpolygon noch nicht georeferenziert","source_map":"frankfurt-content","source_panel":"Mannheim","description_preview":"Mannheim ist ein Industrie-, Hafen- und Verkehrszentrum.","description_full":"Mannheim ist ein Industrie-, Hafen- und Verkehrszentrum. Die Position ist auf den belegten Stadt- oder Teilraum angenähert; eine hausgenaue Lage und eine weitergehende eigene Fließtextbeschreibung sind aus dem zugeordneten Datenmaterial nicht sicher ableitbar.","description_source":"Kapitel Mannheim","description_kind":"Ortsprofil","description_has_more":true,"detail_plans":[],"alternate_locations":[],"sources":[{"bookId":"sr2-chrom-dioxin","title":"Chrom & Dioxin","edition":"SR2","citation":"Kapitel Mannheim","purpose":"description"}],"map_sources":[],"editions":["SR2"],"edition_descriptions":{"SR2":{"kind":"Ortsprofil","preview":"Mannheim ist ein Industrie-, Hafen- und Verkehrszentrum.","full":"Mannheim ist ein Industrie-, Hafen- und Verkehrszentrum. Die Position ist auf den belegten Stadt- oder Teilraum angenähert; eine hausgenaue Lage und eine weitergehende eigene Fließtextbeschreibung sind aus dem zugeordneten Datenmaterial nicht sicher ableitbar.","hasMore":true,"hasExcerpt":true,"sources":[{"bookId":"sr2-chrom-dioxin","title":"Chrom & Dioxin","edition":"SR2","citation":"Kapitel Mannheim","purpose":"description"}]}}}},{"type":"Feature","geometry":null,"properties":{"id":21,"global_id":"frankfurt:place:21-niederrad","name":"Niederrad","aliases":[],"category":"Stadtteile","detail_map":"Frankfurt-City","source_pages":"PDF-Seite 26","map_source":"Chrom & Dioxin","placement_note":"Keine belastbare Einzelposition; Eintrag bleibt im Katalog","accuracy":"Nur Stadt oder Lore-Teilraum belegt","source_map":"frankfurt-content","source_panel":"Frankfurt-City","description_preview":"Niederrad ist ein südlicher Stadtteil im Kernraum Frankfurt.","description_full":"Niederrad ist ein südlicher Stadtteil im Kernraum Frankfurt. Die Position ist auf den belegten Stadt- oder Teilraum angenähert; eine hausgenaue Lage und eine weitergehende eigene Fließtextbeschreibung sind aus dem zugeordneten Datenmaterial nicht sicher ableitbar.","description_source":"PDF-Seite 26","description_kind":"Ortsprofil","description_has_more":true,"detail_plans":[],"alternate_locations":[],"sources":[{"bookId":"sr2-chrom-dioxin","title":"Chrom & Dioxin","edition":"SR2","citation":"PDF-Seite 26","purpose":"description"}],"map_sources":[],"editions":["SR2"],"edition_descriptions":{"SR2":{"kind":"Ortsprofil","preview":"Niederrad ist ein südlicher Stadtteil im Kernraum Frankfurt.","full":"Niederrad ist ein südlicher Stadtteil im Kernraum Frankfurt. Die Position ist auf den belegten Stadt- oder Teilraum angenähert; eine hausgenaue Lage und eine weitergehende eigene Fließtextbeschreibung sind aus dem zugeordneten Datenmaterial nicht sicher ableitbar.","hasMore":true,"hasExcerpt":true,"sources":[{"bookId":"sr2-chrom-dioxin","title":"Chrom & Dioxin","edition":"SR2","citation":"PDF-Seite 26","purpose":"description"}]}}}},{"type":"Feature","geometry":{"type":"Point","coordinates":[8.7761,50.0956]},"properties":{"id":10,"global_id":"frankfurt:place:10-offenbach","name":"Offenbach","aliases":[],"category":"Bezirke","detail_map":"Offenbach","source_pages":"Kapitel Offenbach","map_source":"Chrom & Dioxin","placement_note":"Geografischer Bezugspunkt des Lore-Distrikts Offenbach","accuracy":"Lore-Bezirkszentrum; Grenzpolygon noch nicht georeferenziert","source_map":"frankfurt-content","source_panel":"Offenbach","description_preview":"Offenbach ist ein dicht bebauter östlicher Bezirk des Kernplexes.","description_full":"Offenbach ist ein dicht bebauter östlicher Bezirk des Kernplexes. Die Position ist auf den belegten Stadt- oder Teilraum angenähert; eine hausgenaue Lage und eine weitergehende eigene Fließtextbeschreibung sind aus dem zugeordneten Datenmaterial nicht sicher ableitbar.","description_source":"Kapitel Offenbach","description_kind":"Ortsprofil","description_has_more":true,"detail_plans":[],"alternate_locations":[],"sources":[{"bookId":"sr2-chrom-dioxin","title":"Chrom & Dioxin","edition":"SR2","citation":"Kapitel Offenbach","purpose":"description"}],"map_sources":[],"editions":["SR2"],"edition_descriptions":{"SR2":{"kind":"Ortsprofil","preview":"Offenbach ist ein dicht bebauter östlicher Bezirk des Kernplexes.","full":"Offenbach ist ein dicht bebauter östlicher Bezirk des Kernplexes. Die Position ist auf den belegten Stadt- oder Teilraum angenähert; eine hausgenaue Lage und eine weitergehende eigene Fließtextbeschreibung sind aus dem zugeordneten Datenmaterial nicht sicher ableitbar.","hasMore":true,"hasExcerpt":true,"sources":[{"bookId":"sr2-chrom-dioxin","title":"Chrom & Dioxin","edition":"SR2","citation":"Kapitel Offenbach","purpose":"description"}]}}}},{"type":"Feature","geometry":null,"properties":{"id":28,"global_id":"frankfurt:place:28-otome","name":"Otome","aliases":[],"category":"Bars und Clubs","detail_map":"Groß-Frankfurt","source_pages":"Otome (Bordell)","map_source":"Datapuls Frankfurt","placement_note":"Keine belastbare Einzelposition; Eintrag bleibt im Katalog","accuracy":"Nur Stadt oder Lore-Teilraum belegt","source_map":"frankfurt-content","source_panel":"Groß-Frankfurt","description_preview":"Das als Café auftretende Otome dient als diskretes Empfangszimmer eines Bordells und Kontaktpunkt des Plexes.","description_full":"Das als Café auftretende Otome dient als diskretes Empfangszimmer eines Bordells und Kontaktpunkt des Plexes. Die Position ist auf den belegten Stadt- oder Teilraum angenähert; eine hausgenaue Lage und eine weitergehende eigene Fließtextbeschreibung sind aus dem zugeordneten Datenmaterial nicht sicher ableitbar.","description_source":"Otome (Bordell)","description_kind":"Ortsprofil","description_has_more":true,"detail_plans":[],"alternate_locations":[],"sources":[{"bookId":"sr5-datapuls-frankfurt","title":"Datapuls Frankfurt","edition":"SR5","citation":"Otome (Bordell)","purpose":"description"}],"map_sources":[],"editions":["SR5"],"edition_descriptions":{"SR5":{"kind":"Ortsprofil","preview":"Das als Café auftretende Otome dient als diskretes Empfangszimmer eines Bordells und Kontaktpunkt des Plexes.","full":"Das als Café auftretende Otome dient als diskretes Empfangszimmer eines Bordells und Kontaktpunkt des Plexes. Die Position ist auf den belegten Stadt- oder Teilraum angenähert; eine hausgenaue Lage und eine weitergehende eigene Fließtextbeschreibung sind aus dem zugeordneten Datenmaterial nicht sicher ableitbar.","hasMore":true,"hasExcerpt":true,"sources":[{"bookId":"sr5-datapuls-frankfurt","title":"Datapuls Frankfurt","edition":"SR5","citation":"Otome (Bordell)","purpose":"description"}]}}}},{"type":"Feature","geometry":{"type":"Point","coordinates":[8.706,49.41]},"properties":{"id":18,"global_id":"frankfurt:place:18-ruprecht-karls-universitat","name":"Ruprecht-Karls-Universität","aliases":[],"category":"Bildung und Kultur","detail_map":"Heidelberg","source_pages":"PDF-Seite 35","map_source":"Chrom & Dioxin","placement_note":"Erhaltener geographischer Bezugspunkt","accuracy":"Geographischer Bezugspunkt","source_map":"frankfurt-content","source_panel":"Heidelberg","description_preview":"Die Heidelberger Universität ist ein traditionsreicher Forschungs- und Bildungsstandort.","description_full":"Die Heidelberger Universität ist ein traditionsreicher Forschungs- und Bildungsstandort. Die Position folgt einem erhaltenen heutigen Bezugspunkt.","description_source":"PDF-Seite 35","description_kind":"Ortsprofil","description_has_more":true,"detail_plans":[],"alternate_locations":[],"sources":[{"bookId":"sr2-chrom-dioxin","title":"Chrom & Dioxin","edition":"SR2","citation":"PDF-Seite 35","purpose":"description"}],"map_sources":[],"editions":["SR2"],"edition_descriptions":{"SR2":{"kind":"Ortsprofil","preview":"Die Heidelberger Universität ist ein traditionsreicher Forschungs- und Bildungsstandort.","full":"Die Heidelberger Universität ist ein traditionsreicher Forschungs- und Bildungsstandort. Die Position folgt einem erhaltenen heutigen Bezugspunkt.","hasMore":true,"hasExcerpt":true,"sources":[{"bookId":"sr2-chrom-dioxin","title":"Chrom & Dioxin","edition":"SR2","citation":"PDF-Seite 35","purpose":"description"}]}}}},{"type":"Feature","geometry":{"type":"Point","coordinates":[8.245,50.086]},"properties":{"id":17,"global_id":"frankfurt:place:17-spielbank-wiesbaden","name":"Spielbank Wiesbaden","aliases":[],"category":"Ausgehen","detail_map":"Wiesbaden","source_pages":"Hotspots","map_source":"Datapuls Frankfurt","placement_note":"Erhaltener geographischer Bezugspunkt","accuracy":"Geographischer Bezugspunkt","source_map":"frankfurt-content","source_panel":"Wiesbaden","description_preview":"Die Spielbank Wiesbaden ist Casino, gesellschaftlicher Treffpunkt und möglicher Schattenkontakt.","description_full":"Die Spielbank Wiesbaden ist Casino, gesellschaftlicher Treffpunkt und möglicher Schattenkontakt. Die Position folgt einem erhaltenen heutigen Bezugspunkt.","description_source":"Hotspots","description_kind":"Ortsprofil","description_has_more":true,"detail_plans":[],"alternate_locations":[],"sources":[{"bookId":"sr5-datapuls-frankfurt","title":"Datapuls Frankfurt","edition":"SR5","citation":"Hotspots","purpose":"description"}],"map_sources":[],"editions":["SR5"],"edition_descriptions":{"SR5":{"kind":"Ortsprofil","preview":"Die Spielbank Wiesbaden ist Casino, gesellschaftlicher Treffpunkt und möglicher Schattenkontakt.","full":"Die Spielbank Wiesbaden ist Casino, gesellschaftlicher Treffpunkt und möglicher Schattenkontakt. Die Position folgt einem erhaltenen heutigen Bezugspunkt.","hasMore":true,"hasExcerpt":true,"sources":[{"bookId":"sr5-datapuls-frankfurt","title":"Datapuls Frankfurt","edition":"SR5","citation":"Hotspots","purpose":"description"}]}}}},{"type":"Feature","geometry":{"type":"Point","coordinates":[8.2398,50.0782]},"properties":{"id":12,"global_id":"frankfurt:place:12-wiesbaden","name":"Wiesbaden","aliases":[],"category":"Bezirke","detail_map":"Wiesbaden","source_pages":"Kapitel Wiesbaden","map_source":"Datapuls Frankfurt","placement_note":"Geografischer Bezugspunkt des Lore-Distrikts Wiesbaden","accuracy":"Lore-Bezirkszentrum; Grenzpolygon noch nicht georeferenziert","source_map":"frankfurt-content","source_panel":"Wiesbaden","description_preview":"Wiesbaden ist Verwaltungs-, Kur- und Glücksspielstandort im westlichen Plex.","description_full":"Wiesbaden ist Verwaltungs-, Kur- und Glücksspielstandort im westlichen Plex. Die Position ist auf den belegten Stadt- oder Teilraum angenähert; eine hausgenaue Lage und eine weitergehende eigene Fließtextbeschreibung sind aus dem zugeordneten Datenmaterial nicht sicher ableitbar.","description_source":"Kapitel Wiesbaden","description_kind":"Ortsprofil","description_has_more":true,"detail_plans":[],"alternate_locations":[],"sources":[{"bookId":"sr5-datapuls-frankfurt","title":"Datapuls Frankfurt","edition":"SR5","citation":"Kapitel Wiesbaden","purpose":"description"}],"map_sources":[],"editions":["SR5"],"edition_descriptions":{"SR5":{"kind":"Ortsprofil","preview":"Wiesbaden ist Verwaltungs-, Kur- und Glücksspielstandort im westlichen Plex.","full":"Wiesbaden ist Verwaltungs-, Kur- und Glücksspielstandort im westlichen Plex. Die Position ist auf den belegten Stadt- oder Teilraum angenähert; eine hausgenaue Lage und eine weitergehende eigene Fließtextbeschreibung sind aus dem zugeordneten Datenmaterial nicht sicher ableitbar.","hasMore":true,"hasExcerpt":true,"sources":[{"bookId":"sr5-datapuls-frankfurt","title":"Datapuls Frankfurt","edition":"SR5","citation":"Kapitel Wiesbaden","purpose":"description"}]}}}}]}
