{"type":"FeatureCollection","name":"Groß-Frankfurt – geprüfte zusätzliche Quellenorte","features":[{"type":"Feature","geometry":null,"properties":{"id":29,"global_id":"frankfurt:source-place:desert-storm-army-shop-frankfurt-sachsenhausen","name":"Desert Storm Army Shop (Frankfurt-Sachsenhausen)","aliases":[],"category":"Sonstige Spots","detail_map":"Groß-Frankfurt","source_pages":"Textzeile 18953","map_source":"Konzernenklaven","placement_note":"Keine belastbare Einzelposition; Eintrag bleibt im Katalog","accuracy":"Nur Stadt oder Lore-Teilraum belegt","source_map":"source-supplement","source_panel":"Groß-Frankfurt","description_preview":"Desert Storm Army Shop (Frankfurt-Sachsenhausen) ist in Konzernenklaven als benannter Schauplatz mit Bezug zu Groß-Frankfurt belegt.","description_full":"Desert Storm Army Shop (Frankfurt-Sachsenhausen) ist in Konzernenklaven als benannter Schauplatz mit Bezug zu Groß-Frankfurt belegt. Das Dossier fasst den belegten Quellenstand redaktionell zusammen; eine nicht belegte Kartenposition wird nicht ergänzt.","description_source":"Textzeile 18953","description_kind":"Ortsdossier","description_has_more":true,"detail_plans":[],"alternate_locations":[],"sources":[{"bookId":"sr4-konzernenklaven","title":"Konzernenklaven","edition":"SR4","citation":"Textzeile 18953","purpose":"description"}],"map_sources":[],"editions":["SR4"],"edition_descriptions":{"SR4":{"kind":"Ortsdossier","preview":"Desert Storm Army Shop (Frankfurt-Sachsenhausen) ist in Konzernenklaven als benannter Schauplatz mit Bezug zu Groß-Frankfurt belegt.","full":"Desert Storm Army Shop (Frankfurt-Sachsenhausen) ist in Konzernenklaven als benannter Schauplatz mit Bezug zu Groß-Frankfurt belegt. Das Dossier fasst den belegten Quellenstand redaktionell zusammen; eine nicht belegte Kartenposition wird nicht ergänzt.","hasMore":true,"hasExcerpt":true,"sources":[{"bookId":"sr4-konzernenklaven","title":"Konzernenklaven","edition":"SR4","citation":"Textzeile 18953","purpose":"description"}]}}}},{"type":"Feature","geometry":null,"properties":{"id":30,"global_id":"frankfurt:source-place:dorian-gray-frankfurt-flughafen","name":"Dorian Gray (Frankfurt-Flughafen)","aliases":[],"category":"Verkehr und Infrastruktur","detail_map":"Groß-Frankfurt","source_pages":"Textzeile 18819","map_source":"Konzernenklaven","placement_note":"Keine belastbare Einzelposition; Eintrag bleibt im Katalog","accuracy":"Nur Stadt oder Lore-Teilraum belegt","source_map":"source-supplement","source_panel":"Groß-Frankfurt","description_preview":"Dorian Gray (Frankfurt-Flughafen) ist in Konzernenklaven als benannter Schauplatz mit Bezug zu Groß-Frankfurt belegt.","description_full":"Dorian Gray (Frankfurt-Flughafen) ist in Konzernenklaven als benannter Schauplatz mit Bezug zu Groß-Frankfurt belegt. Das Dossier fasst den belegten Quellenstand redaktionell zusammen; eine nicht belegte Kartenposition wird nicht ergänzt.","description_source":"Textzeile 18819","description_kind":"Ortsdossier","description_has_more":true,"detail_plans":[],"alternate_locations":[],"sources":[{"bookId":"sr4-konzernenklaven","title":"Konzernenklaven","edition":"SR4","citation":"Textzeile 18819","purpose":"description"}],"map_sources":[],"editions":["SR4"],"edition_descriptions":{"SR4":{"kind":"Ortsdossier","preview":"Dorian Gray (Frankfurt-Flughafen) ist in Konzernenklaven als benannter Schauplatz mit Bezug zu Groß-Frankfurt belegt.","full":"Dorian Gray (Frankfurt-Flughafen) ist in Konzernenklaven als benannter Schauplatz mit Bezug zu Groß-Frankfurt belegt. Das Dossier fasst den belegten Quellenstand redaktionell zusammen; eine nicht belegte Kartenposition wird nicht ergänzt.","hasMore":true,"hasExcerpt":true,"sources":[{"bookId":"sr4-konzernenklaven","title":"Konzernenklaven","edition":"SR4","citation":"Textzeile 18819","purpose":"description"}]}}}},{"type":"Feature","geometry":null,"properties":{"id":31,"global_id":"frankfurt:source-place:mercurius-airport-hotel-frankfurt-frankfurt-flughafen","name":"Mercurius Airport Hotel Frankfurt (Frankfurt-Flughafen)","aliases":[],"category":"Verkehr und Infrastruktur","detail_map":"Groß-Frankfurt","source_pages":"Textzeile 18601","map_source":"Konzernenklaven","placement_note":"Keine belastbare Einzelposition; Eintrag bleibt im Katalog","accuracy":"Nur Stadt oder Lore-Teilraum belegt","source_map":"source-supplement","source_panel":"Groß-Frankfurt","description_preview":"Mercurius Airport Hotel Frankfurt (Frankfurt-Flughafen) ist in Konzernenklaven als benannter Schauplatz mit Bezug zu Groß-Frankfurt belegt.","description_full":"Mercurius Airport Hotel Frankfurt (Frankfurt-Flughafen) ist in Konzernenklaven als benannter Schauplatz mit Bezug zu Groß-Frankfurt belegt. Das Dossier fasst den belegten Quellenstand redaktionell zusammen; eine nicht belegte Kartenposition wird nicht ergänzt.","description_source":"Textzeile 18601","description_kind":"Ortsdossier","description_has_more":true,"detail_plans":[],"alternate_locations":[],"sources":[{"bookId":"sr4-konzernenklaven","title":"Konzernenklaven","edition":"SR4","citation":"Textzeile 18601","purpose":"description"}],"map_sources":[],"editions":["SR4"],"edition_descriptions":{"SR4":{"kind":"Ortsdossier","preview":"Mercurius Airport Hotel Frankfurt (Frankfurt-Flughafen) ist in Konzernenklaven als benannter Schauplatz mit Bezug zu Groß-Frankfurt belegt.","full":"Mercurius Airport Hotel Frankfurt (Frankfurt-Flughafen) ist in Konzernenklaven als benannter Schauplatz mit Bezug zu Groß-Frankfurt belegt. Das Dossier fasst den belegten Quellenstand redaktionell zusammen; eine nicht belegte Kartenposition wird nicht ergänzt.","hasMore":true,"hasExcerpt":true,"sources":[{"bookId":"sr4-konzernenklaven","title":"Konzernenklaven","edition":"SR4","citation":"Textzeile 18601","purpose":"description"}]}}}}]}
