{"type":"FeatureCollection","name":"Baltimore Orte","features":[{"type":"Feature","geometry":{"type":"Point","coordinates":[-76.6122,39.2904]},"properties":{"id":1,"global_id":"baltimore:place:1-baltimore-lore-raum","name":"Baltimore Lore-Raum","aliases":[],"category":"Bezirke","detail_map":"Baltimore Lore-Raum","source_pages":"Stadt- oder Regionalkapitel","map_source":"Conspiracy Theories","placement_note":"Geografischer Bezugspunkt des Lore-Distrikts Baltimore Lore-Raum","accuracy":"Lore-Bezirkszentrum; Grenzpolygon noch nicht georeferenziert","source_map":"baltimore-content","source_panel":"Baltimore Lore-Raum","description_preview":"Baltimore ist ein Hafen- und Industrieraum im Washington-Baltimore-Korridor mit sumpfigen Randzonen und dichter Verkehrsinfrastruktur.","description_full":"Baltimore ist ein Hafen- und Industrieraum im Washington-Baltimore-Korridor mit sumpfigen Randzonen und dichter Verkehrsinfrastruktur. Die Position ist auf den belegten Stadt- oder Teilraum angenähert; eine hausgenaue Lage und eine weitergehende eigene Fließtextbeschreibung sind aus dem zugeordneten Datenmaterial nicht sicher ableitbar.","description_source":"Stadt- oder Regionalkapitel","description_kind":"Ortsprofil","description_has_more":true,"detail_plans":[],"alternate_locations":[],"sources":[{"bookId":"sr4-conspiracy-theories","title":"Conspiracy Theories","edition":"SR4","citation":"Stadt- oder Regionalkapitel","purpose":"description"}],"map_sources":[],"editions":["SR4"],"edition_descriptions":{"SR4":{"kind":"Ortsprofil","preview":"Baltimore ist ein Hafen- und Industrieraum im Washington-Baltimore-Korridor mit sumpfigen Randzonen und dichter Verkehrsinfrastruktur.","full":"Baltimore ist ein Hafen- und Industrieraum im Washington-Baltimore-Korridor mit sumpfigen Randzonen und dichter Verkehrsinfrastruktur. Die Position ist auf den belegten Stadt- oder Teilraum angenähert; eine hausgenaue Lage und eine weitergehende eigene Fließtextbeschreibung sind aus dem zugeordneten Datenmaterial nicht sicher ableitbar.","hasMore":true,"hasExcerpt":true,"sources":[{"bookId":"sr4-conspiracy-theories","title":"Conspiracy Theories","edition":"SR4","citation":"Stadt- oder Regionalkapitel","purpose":"description"}]}}}},{"type":"Feature","geometry":{"type":"Point","coordinates":[-76.668,39.177]},"properties":{"id":2,"global_id":"baltimore:place:2-baltimore-washington-international","name":"Baltimore/Washington International","aliases":[],"category":"Verkehr","detail_map":"Baltimore","source_pages":"Baltimore Washington International","map_source":"Conspiracy Theories","placement_note":"Erhaltener geographischer Bezugspunkt","accuracy":"Geographischer Bezugspunkt","source_map":"baltimore-content","source_panel":"Baltimore","description_preview":"Der Flughafen verbindet Baltimore und Washington FDC.","description_full":"Der Flughafen verbindet Baltimore und Washington FDC. Die Position folgt einem erhaltenen heutigen Bezugspunkt.","description_source":"Baltimore Washington International","description_kind":"Ortsprofil","description_has_more":true,"detail_plans":[],"alternate_locations":[],"sources":[{"bookId":"sr4-conspiracy-theories","title":"Conspiracy Theories","edition":"SR4","citation":"Baltimore Washington International","purpose":"description"}],"map_sources":[],"editions":["SR4"],"edition_descriptions":{"SR4":{"kind":"Ortsprofil","preview":"Der Flughafen verbindet Baltimore und Washington FDC.","full":"Der Flughafen verbindet Baltimore und Washington FDC. Die Position folgt einem erhaltenen heutigen Bezugspunkt.","hasMore":true,"hasExcerpt":true,"sources":[{"bookId":"sr4-conspiracy-theories","title":"Conspiracy Theories","edition":"SR4","citation":"Baltimore Washington International","purpose":"description"}]}}}},{"type":"Feature","geometry":null,"properties":{"id":3,"global_id":"baltimore:place:3-victory-chain-store","name":"Victory Chain Store","aliases":[],"category":"Einkaufen","detail_map":"Baltimore","source_pages":"Victory Chain Store","map_source":"Corporate Intrigue","placement_note":"Keine belastbare Einzelposition; Eintrag bleibt im Katalog","accuracy":"Nur Stadt oder Lore-Teilraum belegt","source_map":"baltimore-content","source_panel":"Baltimore","description_preview":"Der Laden ist ein im Abenteuerbestand benannter Schauplatz.","description_full":"Der Laden ist ein im Abenteuerbestand benannter Schauplatz. Die Position ist auf den belegten Stadt- oder Teilraum angenähert; eine hausgenaue Lage und eine weitergehende eigene Fließtextbeschreibung sind aus dem zugeordneten Datenmaterial nicht sicher ableitbar.","description_source":"Victory Chain Store","description_kind":"Ortsprofil","description_has_more":true,"detail_plans":[],"alternate_locations":[],"sources":[{"bookId":"sr4-corporate-intrigue","title":"Corporate Intrigue","edition":"SR4","citation":"Victory Chain Store","purpose":"description"}],"map_sources":[],"editions":["SR4"],"edition_descriptions":{"SR4":{"kind":"Ortsprofil","preview":"Der Laden ist ein im Abenteuerbestand benannter Schauplatz.","full":"Der Laden ist ein im Abenteuerbestand benannter Schauplatz. Die Position ist auf den belegten Stadt- oder Teilraum angenähert; eine hausgenaue Lage und eine weitergehende eigene Fließtextbeschreibung sind aus dem zugeordneten Datenmaterial nicht sicher ableitbar.","hasMore":true,"hasExcerpt":true,"sources":[{"bookId":"sr4-corporate-intrigue","title":"Corporate Intrigue","edition":"SR4","citation":"Victory Chain Store","purpose":"description"}]}}}}]}
