{"type":"FeatureCollection","name":"Baltimore – geprüfte zusätzliche Quellenorte","features":[{"type":"Feature","geometry":null,"properties":{"id":4,"global_id":"baltimore:source-place:baltimore-washington-international-airport","name":"Baltimore-Washington International Airport","aliases":[],"category":"Verkehr und Infrastruktur","detail_map":"Baltimore","source_pages":"Textzeile 8639","map_source":"The Neo-Anarchist's Guide to North America","placement_note":"Keine belastbare Einzelposition; Eintrag bleibt im Katalog","accuracy":"Nur Stadt oder Lore-Teilraum belegt","source_map":"source-supplement","source_panel":"Baltimore","description_preview":"Baltimore-Washington International Airport ist in The Neo-Anarchist's Guide to North America als benannter Schauplatz mit Bezug zu Baltimore belegt.","description_full":"Baltimore-Washington International Airport ist in The Neo-Anarchist's Guide to North America als benannter Schauplatz mit Bezug zu Baltimore belegt. Das Dossier fasst den belegten Quellenstand redaktionell zusammen; eine nicht belegte Kartenposition wird nicht ergänzt.","description_source":"Textzeile 8639","description_kind":"Ortsdossier","description_has_more":true,"detail_plans":[],"alternate_locations":[],"sources":[{"bookId":"sr1-the-neo-anarchist-s-guide-to-north-america","title":"The Neo-Anarchist's Guide to North America","edition":"SR1","citation":"Textzeile 8639","purpose":"description"}],"map_sources":[],"editions":["SR1"],"edition_descriptions":{"SR1":{"kind":"Ortsdossier","preview":"Baltimore-Washington International Airport ist in The Neo-Anarchist's Guide to North America als benannter Schauplatz mit Bezug zu Baltimore belegt.","full":"Baltimore-Washington International Airport ist in The Neo-Anarchist's Guide to North America als benannter Schauplatz mit Bezug zu Baltimore belegt. Das Dossier fasst den belegten Quellenstand redaktionell zusammen; eine nicht belegte Kartenposition wird nicht ergänzt.","hasMore":true,"hasExcerpt":true,"sources":[{"bookId":"sr1-the-neo-anarchist-s-guide-to-north-america","title":"The Neo-Anarchist's Guide to North America","edition":"SR1","citation":"Textzeile 8639","purpose":"description"}]}}}}]}
