{"type":"FeatureCollection","name":"Nairobi Orte","features":[{"type":"Feature","geometry":{"type":"Point","coordinates":[36.8219,-1.2921]},"properties":{"id":1,"global_id":"nairobi:place:1-nairobi-lore-raum","name":"Nairobi Lore-Raum","aliases":[],"category":"Bezirke","detail_map":"Nairobi Lore-Raum","source_pages":"Stadt- oder Regionalkapitel","map_source":"Corporate Enclaves","placement_note":"Geografischer Bezugspunkt des Lore-Distrikts Nairobi Lore-Raum","accuracy":"Lore-Bezirkszentrum; Grenzpolygon noch nicht georeferenziert","source_map":"nairobi-content","source_panel":"Nairobi Lore-Raum","description_preview":"Nairobi ist ein ostafrikanischer Konzern-, Diplomatie-, Logistik- und Geheimdienstknoten.","description_full":"Nairobi ist ein ostafrikanischer Konzern-, Diplomatie-, Logistik- und Geheimdienstknoten. Die Position ist auf den belegten Stadt- oder Teilraum angenähert; eine hausgenaue Lage und eine weitergehende eigene Fließtextbeschreibung sind aus dem zugeordneten Datenmaterial nicht sicher ableitbar.","description_source":"Stadt- oder Regionalkapitel","description_kind":"Ortsprofil","description_has_more":true,"detail_plans":[],"alternate_locations":[],"sources":[{"bookId":"sr4-corporate-enclaves","title":"Corporate Enclaves","edition":"SR4","citation":"Stadt- oder Regionalkapitel","purpose":"description"}],"map_sources":[],"editions":["SR4"],"edition_descriptions":{"SR4":{"kind":"Ortsprofil","preview":"Nairobi ist ein ostafrikanischer Konzern-, Diplomatie-, Logistik- und Geheimdienstknoten.","full":"Nairobi ist ein ostafrikanischer Konzern-, Diplomatie-, Logistik- und Geheimdienstknoten. Die Position ist auf den belegten Stadt- oder Teilraum angenähert; eine hausgenaue Lage und eine weitergehende eigene Fließtextbeschreibung sind aus dem zugeordneten Datenmaterial nicht sicher ableitbar.","hasMore":true,"hasExcerpt":true,"sources":[{"bookId":"sr4-corporate-enclaves","title":"Corporate Enclaves","edition":"SR4","citation":"Stadt- oder Regionalkapitel","purpose":"description"}]}}}}]}
